<?xml version="1.0" ?><gpx xmlns="http://www.topografix.com/GPX/1/1" creator="GaiaGPS" version="1.1" xmlns:xsi="http://www.w3.org/2001/XMLSchema-instance" xsi:schemaLocation="http://www.topografix.com/GPX/1/1 http://www.topografix.com/GPX/1/1/gpx.xsd"><rte><name>TD01:S1:D1 Grape Cr to Cottonwood Cr</name><desc>Trail day 1, segment 1, day 1.</desc><extensions><line xmlns="http://www.topografix.com/GPX/gpx_style/0/2"><color>F42410</color></line></extensions><rtept lat="37.931098" lon="-105.457566"><ele>2828.6</ele><time>2026-04-10T14:52:21Z</time></rtept><rtept lat="37.931098" lon="-105.457498"><ele>2827.2</ele><time>2026-04-10T14:52:21Z</time></rtept><rtept lat="37.931177" lon="-105.457497"><ele>2827.0</ele><time>2026-04-10T14:52:21Z</time></rtept><rtept lat="37.932025" lon="-105.457934"><ele>2827.8</ele><time>2026-04-10T14:52:21Z</time></rtept><rtept lat="37.933044" lon="-105.458378"><ele>2835.4</ele><time>2026-04-10T14:52:21Z</time></rtept><rtept lat="37.933398" lon="-105.458634"><ele>2837.0</ele><time>2026-04-10T14:52:21Z</time></rtept><rtept lat="37.933511" lon="-105.458842"><ele>2837.6</ele><time>2026-04-10T14:52:21Z</time></rtept><rtept lat="37.933444" lon="-105.459304"><ele>2841.0</ele><time>2026-04-10T14:52:21Z</time></rtept><rtept lat="37.933346" lon="-105.4596"><ele>2845.0</ele><time>2026-04-10T14:52:21Z</time></rtept><rtept lat="37.933449" lon="-105.459929"><ele>2846.8</ele><time>2026-04-10T14:52:21Z</time></rtept><rtept lat="37.933959" lon="-105.460177"><ele>2848.0</ele><time>2026-04-10T14:52:21Z</time></rtept><rtept lat="37.934169" lon="-105.460366"><ele>2850.4</ele><time>2026-04-10T14:52:21Z</time></rtept><rtept lat="37.934398" lon="-105.460812"><ele>2856.0</ele><time>2026-04-10T14:52:21Z</time></rtept><rtept lat="37.934562" lon="-105.461377"><ele>2861.8</ele><time>2026-04-10T14:52:21Z</time></rtept><rtept lat="37.934531" lon="-105.461891"><ele>2867.2</ele><time>2026-04-10T14:52:21Z</time></rtept><rtept lat="37.934559" lon="-105.462234"><ele>2870.2</ele><time>2026-04-10T14:52:21Z</time></rtept><rtept lat="37.934871" lon="-105.462914"><ele>2867.6</ele><time>2026-04-10T14:52:21Z</time></rtept><rtept lat="37.934907" lon="-105.463415"><ele>2869.0</ele><time>2026-04-10T14:52:21Z</time></rtept><rtept lat="37.934777" lon="-105.464052"><ele>2873.0</ele><time>2026-04-10T14:52:21Z</time></rtept><rtept lat="37.934788" lon="-105.4643"><ele>2874.6</ele><time>2026-04-10T14:52:21Z</time></rtept><rtept lat="37.93494" lon="-105.464991"><ele>2874.8</ele><time>2026-04-10T14:52:21Z</time></rtept><rtept lat="37.934974" lon="-105.465683"><ele>2880.4</ele><time>2026-04-10T14:52:21Z</time></rtept><rtept lat="37.935126" lon="-105.466422"><ele>2881.4</ele><time>2026-04-10T14:52:21Z</time></rtept><rtept lat="37.935191" lon="-105.467365"><ele>2882.4</ele><time>2026-04-10T14:52:21Z</time></rtept><rtept lat="37.93516" lon="-105.467995"><ele>2880.0</ele><time>2026-04-10T14:52:21Z</time></rtept><rtept lat="37.935221" lon="-105.468295"><ele>2873.6</ele><time>2026-04-10T14:52:21Z</time></rtept><rtept lat="37.9352" lon="-105.468533"><ele>2870.8</ele><time>2026-04-10T14:52:21Z</time></rtept><rtept lat="37.934959" lon="-105.469654"><ele>2864.8</ele><time>2026-04-10T14:52:21Z</time></rtept><rtept lat="37.934829" lon="-105.470459"><ele>2862.2</ele><time>2026-04-10T14:52:21Z</time></rtept><rtept lat="37.934898" lon="-105.4706"><ele>2866.4</ele><time>2026-04-10T14:52:21Z</time></rtept><rtept lat="37.934906" lon="-105.470757"><ele>2873.0</ele><time>2026-04-10T14:52:21Z</time></rtept><rtept lat="37.935034" lon="-105.470781"><ele>2877.2</ele><time>2026-04-10T14:52:21Z</time></rtept><rtept lat="37.935232" lon="-105.470572"><ele>2882.0</ele><time>2026-04-10T14:52:21Z</time></rtept><rtept lat="37.935776" lon="-105.470176"><ele>2882.6</ele><time>2026-04-10T14:52:21Z</time></rtept><rtept lat="37.93668" lon="-105.469655"><ele>2887.8</ele><time>2026-04-10T14:52:21Z</time></rtept><rtept lat="37.936962" lon="-105.469152"><ele>2889.0</ele><time>2026-04-10T14:52:21Z</time></rtept><rtept lat="37.937052" lon="-105.469095"><ele>2889.8</ele><time>2026-04-10T14:52:21Z</time></rtept><rtept lat="37.937364" lon="-105.46914"><ele>2889.6</ele><time>2026-04-10T14:52:21Z</time></rtept><rtept lat="37.937623" lon="-105.469082"><ele>2889.0</ele><time>2026-04-10T14:52:21Z</time></rtept><rtept lat="37.937623" lon="-105.46869"><ele>2889.4</ele><time>2026-04-10T14:52:21Z</time></rtept><rtept lat="37.937847" lon="-105.46815"><ele>2896.0</ele><time>2026-04-10T14:52:21Z</time></rtept><rtept lat="37.938005" lon="-105.468032"><ele>2897.6</ele><time>2026-04-10T14:52:21Z</time></rtept><rtept lat="37.938262" lon="-105.467931"><ele>2897.8</ele><time>2026-04-10T14:52:21Z</time></rtept><rtept lat="37.938568" lon="-105.467933"><ele>2894.2</ele><time>2026-04-10T14:52:21Z</time></rtept><rtept lat="37.938943" lon="-105.468027"><ele>2891.4</ele><time>2026-04-10T14:52:21Z</time></rtept><rtept lat="37.941228" lon="-105.469038"><ele>2879.4</ele><time>2026-04-10T14:52:21Z</time></rtept><rtept lat="37.942627" lon="-105.469806"><ele>2875.4</ele><time>2026-04-10T14:52:21Z</time></rtept><rtept lat="37.942941" lon="-105.469919"><ele>2875.0</ele><time>2026-04-10T14:52:21Z</time></rtept><rtept lat="37.943061" lon="-105.46987"><ele>2874.6</ele><time>2026-04-10T14:52:21Z</time></rtept><rtept lat="37.943185" lon="-105.469917"><ele>2873.8</ele><time>2026-04-10T14:52:21Z</time></rtept><rtept lat="37.944703" lon="-105.470763"><ele>2863.4</ele><time>2026-04-10T14:52:21Z</time></rtept><rtept lat="37.945526" lon="-105.471279"><ele>2861.8</ele><time>2026-04-10T14:52:21Z</time></rtept><rtept lat="37.946011" lon="-105.47167"><ele>2863.6</ele><time>2026-04-10T14:52:21Z</time></rtept><rtept lat="37.946575" lon="-105.471849"><ele>2862.6</ele><time>2026-04-10T14:52:21Z</time></rtept><rtept lat="37.947136" lon="-105.47181"><ele>2855.2</ele><time>2026-04-10T14:52:21Z</time></rtept><rtept lat="37.947308" lon="-105.471954"><ele>2857.2</ele><time>2026-04-10T14:52:21Z</time></rtept><rtept lat="37.947423" lon="-105.471858"><ele>2854.6</ele><time>2026-04-10T14:52:21Z</time></rtept><rtept lat="37.947562" lon="-105.471866"><ele>2853.6</ele><time>2026-04-10T14:52:21Z</time></rtept><rtept lat="37.94888" lon="-105.472707"><ele>2851.8</ele><time>2026-04-10T14:52:21Z</time></rtept><rtept lat="37.949874" lon="-105.473414"><ele>2854.6</ele><time>2026-04-10T14:52:21Z</time></rtept><rtept lat="37.950713" lon="-105.473662"><ele>2837.6</ele><time>2026-04-10T14:52:21Z</time></rtept><rtept lat="37.950829" lon="-105.473894"><ele>2840.0</ele><time>2026-04-10T14:52:21Z</time></rtept><rtept lat="37.950779" lon="-105.474087"><ele>2850.4</ele><time>2026-04-10T14:52:21Z</time></rtept><rtept lat="37.951189" lon="-105.473983"><ele>2843.2</ele><time>2026-04-10T14:52:21Z</time></rtept><rtept lat="37.951445" lon="-105.474114"><ele>2845.2</ele><time>2026-04-10T14:52:21Z</time></rtept><rtept lat="37.951521" lon="-105.474228"><ele>2847.2</ele><time>2026-04-10T14:52:21Z</time></rtept><rtept lat="37.951743" lon="-105.474188"><ele>2847.0</ele><time>2026-04-10T14:52:21Z</time></rtept><rtept lat="37.952203" lon="-105.474255"><ele>2846.8</ele><time>2026-04-10T14:52:21Z</time></rtept><rtept lat="37.952755" lon="-105.474354"><ele>2844.6</ele><time>2026-04-10T14:52:21Z</time></rtept><rtept lat="37.953266" lon="-105.474518"><ele>2844.8</ele><time>2026-04-10T14:52:21Z</time></rtept><rtept lat="37.955073" lon="-105.475326"><ele>2845.0</ele><time>2026-04-10T14:52:21Z</time></rtept><rtept lat="37.955264" lon="-105.475369"><ele>2842.2</ele><time>2026-04-10T14:52:21Z</time></rtept><rtept lat="37.955488" lon="-105.475547"><ele>2844.0</ele><time>2026-04-10T14:52:21Z</time></rtept><rtept lat="37.955469" lon="-105.475595"><ele>2844.0</ele><time>2026-04-10T14:52:21Z</time></rtept><rtept lat="37.955675" lon="-105.475562"><ele>2843.6</ele><time>2026-04-10T14:52:21Z</time></rtept><rtept lat="37.955814" lon="-105.475599"><ele>2842.2</ele><time>2026-04-10T14:52:21Z</time></rtept><rtept lat="37.956068" lon="-105.475936"><ele>2844.8</ele><time>2026-04-10T14:52:21Z</time></rtept><rtept lat="37.956203" lon="-105.475902"><ele>2844.6</ele><time>2026-04-10T14:52:21Z</time></rtept><rtept lat="37.956385" lon="-105.476006"><ele>2845.4</ele><time>2026-04-10T14:52:21Z</time></rtept><rtept lat="37.956892" lon="-105.476428"><ele>2846.0</ele><time>2026-04-10T14:52:21Z</time></rtept><rtept lat="37.958724" lon="-105.476968"><ele>2826.6</ele><time>2026-04-10T14:52:21Z</time></rtept><rtept lat="37.959447" lon="-105.477411"><ele>2821.2</ele><time>2026-04-10T14:52:21Z</time></rtept><rtept lat="37.959716" lon="-105.477516"><ele>2825.2</ele><time>2026-04-10T14:52:21Z</time></rtept><rtept lat="37.960378" lon="-105.477555"><ele>2823.0</ele><time>2026-04-10T14:52:21Z</time></rtept><rtept lat="37.960579" lon="-105.477512"><ele>2822.0</ele><time>2026-04-10T14:52:21Z</time></rtept><rtept lat="37.960743" lon="-105.477552"><ele>2820.6</ele><time>2026-04-10T14:52:21Z</time></rtept><rtept lat="37.961263" lon="-105.477902"><ele>2812.4</ele><time>2026-04-10T14:52:21Z</time></rtept><rtept lat="37.961631" lon="-105.478596"><ele>2805.2</ele><time>2026-04-10T14:52:21Z</time></rtept><rtept lat="37.962041" lon="-105.480186"><ele>2808.6</ele><time>2026-04-10T14:52:21Z</time></rtept><rtept lat="37.962041" lon="-105.480186"><ele>2808.6</ele><time>2026-04-10T14:52:21Z</time></rtept><rtept lat="37.962041" lon="-105.480186"><ele>2808.6</ele><time>2026-04-10T14:52:21Z</time></rtept><rtept lat="37.962205" lon="-105.479882"><ele>2816.6</ele><time>2026-04-10T14:52:21Z</time></rtept><rtept lat="37.962575" lon="-105.479406"><ele>2819.8</ele><time>2026-04-10T14:52:21Z</time></rtept><rtept lat="37.962627" lon="-105.479026"><ele>2823.0</ele><time>2026-04-10T14:52:21Z</time></rtept><rtept lat="37.962858" lon="-105.478332"><ele>2826.2</ele><time>2026-04-10T14:52:21Z</time></rtept><rtept lat="37.962978" lon="-105.478327"><ele>2826.8</ele><time>2026-04-10T14:52:21Z</time></rtept><rtept lat="37.963537" lon="-105.478568"><ele>2826.2</ele><time>2026-04-10T14:52:21Z</time></rtept><rtept lat="37.963728" lon="-105.478985"><ele>2827.6</ele><time>2026-04-10T14:52:21Z</time></rtept><rtept lat="37.964228" lon="-105.479408"><ele>2829.2</ele><time>2026-04-10T14:52:21Z</time></rtept><rtept lat="37.964487" lon="-105.479781"><ele>2828.6</ele><time>2026-04-10T14:52:21Z</time></rtept><rtept lat="37.964862" lon="-105.480633"><ele>2830.2</ele><time>2026-04-10T14:52:21Z</time></rtept><rtept lat="37.964895" lon="-105.480873"><ele>2831.8</ele><time>2026-04-10T14:52:21Z</time></rtept><rtept lat="37.964877" lon="-105.481326"><ele>2834.8</ele><time>2026-04-10T14:52:21Z</time></rtept><rtept lat="37.964748" lon="-105.482976"><ele>2854.4</ele><time>2026-04-10T14:52:21Z</time></rtept><rtept lat="37.964436" lon="-105.483987"><ele>2860.0</ele><time>2026-04-10T14:52:21Z</time></rtept><rtept lat="37.964213" lon="-105.484913"><ele>2867.6</ele><time>2026-04-10T14:52:21Z</time></rtept><rtept lat="37.964201" lon="-105.485335"><ele>2868.8</ele><time>2026-04-10T14:52:21Z</time></rtept><rtept lat="37.964092" lon="-105.486005"><ele>2871.0</ele><time>2026-04-10T14:52:21Z</time></rtept><rtept lat="37.964015" lon="-105.48623"><ele>2871.6</ele><time>2026-04-10T14:52:21Z</time></rtept><rtept lat="37.963595" lon="-105.486729"><ele>2876.2</ele><time>2026-04-10T14:52:21Z</time></rtept><rtept lat="37.962759" lon="-105.487465"><ele>2883.0</ele><time>2026-04-10T14:52:21Z</time></rtept><rtept lat="37.962517" lon="-105.487779"><ele>2887.8</ele><time>2026-04-10T14:52:21Z</time></rtept><rtept lat="37.962498" lon="-105.487873"><ele>2890.0</ele><time>2026-04-10T14:52:21Z</time></rtept><rtept lat="37.962357" lon="-105.48797"><ele>2891.8</ele><time>2026-04-10T14:52:21Z</time></rtept><rtept lat="37.962835" lon="-105.488108"><ele>2899.2</ele><time>2026-04-10T14:52:21Z</time></rtept><rtept lat="37.962239" lon="-105.488623"><ele>2911.0</ele><time>2026-04-10T14:52:21Z</time></rtept><rtept lat="37.960891" lon="-105.489241"><ele>2918.2</ele><time>2026-04-10T14:52:21Z</time></rtept><rtept lat="37.962239" lon="-105.488623"><ele>2911.0</ele><time>2026-04-10T14:52:21Z</time></rtept><rtept lat="37.962835" lon="-105.488108"><ele>2899.2</ele><time>2026-04-10T14:52:21Z</time></rtept><rtept lat="37.963226" lon="-105.488315"><ele>2903.4</ele><time>2026-04-10T14:52:21Z</time></rtept><rtept lat="37.963551" lon="-105.48862"><ele>2904.8</ele><time>2026-04-10T14:52:21Z</time></rtept><rtept lat="37.963799" lon="-105.489093"><ele>2905.8</ele><time>2026-04-10T14:52:21Z</time></rtept><rtept lat="37.964239" lon="-105.490131"><ele>2917.6</ele><time>2026-04-10T14:52:21Z</time></rtept><rtept lat="37.965155" lon="-105.491053"><ele>2925.4</ele><time>2026-04-10T14:52:21Z</time></rtept><rtept lat="37.965309" lon="-105.491336"><ele>2930.0</ele><time>2026-04-10T14:52:21Z</time></rtept><rtept lat="37.9657" lon="-105.492521"><ele>2938.6</ele><time>2026-04-10T14:52:21Z</time></rtept><rtept lat="37.965834" lon="-105.492725"><ele>2936.6</ele><time>2026-04-10T14:52:21Z</time></rtept><rtept lat="37.96591" lon="-105.493176"><ele>2936.4</ele><time>2026-04-10T14:52:21Z</time></rtept><rtept lat="37.966061" lon="-105.493593"><ele>2945.2</ele><time>2026-04-10T14:52:21Z</time></rtept><rtept lat="37.966298" lon="-105.49345"><ele>2949.6</ele><time>2026-04-10T14:52:21Z</time></rtept><rtept lat="37.966618" lon="-105.492914"><ele>2949.8</ele><time>2026-04-10T14:52:21Z</time></rtept><rtept lat="37.966944" lon="-105.492797"><ele>2951.6</ele><time>2026-04-10T14:52:21Z</time></rtept><rtept lat="37.967084" lon="-105.492665"><ele>2949.6</ele><time>2026-04-10T14:52:21Z</time></rtept><rtept lat="37.967098" lon="-105.492553"><ele>2949.4</ele><time>2026-04-10T14:52:21Z</time></rtept><rtept lat="37.966929" lon="-105.492337"><ele>2950.4</ele><time>2026-04-10T14:52:21Z</time></rtept><rtept lat="37.966736" lon="-105.491774"><ele>2955.8</ele><time>2026-04-10T14:52:21Z</time></rtept><rtept lat="37.966794" lon="-105.491419"><ele>2956.0</ele><time>2026-04-10T14:52:21Z</time></rtept><rtept lat="37.966994" lon="-105.491169"><ele>2958.6</ele><time>2026-04-10T14:52:21Z</time></rtept><rtept lat="37.967207" lon="-105.490994"><ele>2958.2</ele><time>2026-04-10T14:52:21Z</time></rtept><rtept lat="37.967782" lon="-105.4914"><ele>2960.8</ele><time>2026-04-10T14:52:21Z</time></rtept><rtept lat="37.96793" lon="-105.491635"><ele>2963.2</ele><time>2026-04-10T14:52:21Z</time></rtept><rtept lat="37.968022" lon="-105.491939"><ele>2966.8</ele><time>2026-04-10T14:52:21Z</time></rtept><rtept lat="37.96818" lon="-105.492241"><ele>2970.2</ele><time>2026-04-10T14:52:21Z</time></rtept><rtept lat="37.968356" lon="-105.492487"><ele>2972.0</ele><time>2026-04-10T14:52:21Z</time></rtept><rtept lat="37.968876" lon="-105.492892"><ele>2976.6</ele><time>2026-04-10T14:52:21Z</time></rtept><rtept lat="37.969287" lon="-105.492815"><ele>2982.0</ele><time>2026-04-10T14:52:21Z</time></rtept><rtept lat="37.969548" lon="-105.492571"><ele>2981.4</ele><time>2026-04-10T14:52:21Z</time></rtept><rtept lat="37.969962" lon="-105.492521"><ele>2981.6</ele><time>2026-04-10T14:52:21Z</time></rtept><rtept lat="37.970748" lon="-105.492707"><ele>2989.2</ele><time>2026-04-10T14:52:21Z</time></rtept><rtept lat="37.97142" lon="-105.493012"><ele>2985.6</ele><time>2026-04-10T14:52:21Z</time></rtept><rtept lat="37.972248" lon="-105.493861"><ele>2984.4</ele><time>2026-04-10T14:52:21Z</time></rtept><rtept lat="37.972379" lon="-105.494145"><ele>2986.0</ele><time>2026-04-10T14:52:21Z</time></rtept><rtept lat="37.972709" lon="-105.49461"><ele>2987.2</ele><time>2026-04-10T14:52:21Z</time></rtept><rtept lat="37.972802" lon="-105.494837"><ele>2989.8</ele><time>2026-04-10T14:52:21Z</time></rtept><rtept lat="37.973046" lon="-105.494902"><ele>2985.2</ele><time>2026-04-10T14:52:21Z</time></rtept><rtept lat="37.973564" lon="-105.495554"><ele>2985.0</ele><time>2026-04-10T14:52:21Z</time></rtept><rtept lat="37.973788" lon="-105.495987"><ele>2979.6</ele><time>2026-04-10T14:52:21Z</time></rtept><rtept lat="37.973818" lon="-105.496543"><ele>2984.4</ele><time>2026-04-10T14:52:21Z</time></rtept><rtept lat="37.973922" lon="-105.497101"><ele>2987.2</ele><time>2026-04-10T14:52:21Z</time></rtept><rtept lat="37.973988" lon="-105.497143"><ele>2988.6</ele><time>2026-04-10T14:52:21Z</time></rtept><rtept lat="37.974438" lon="-105.496939"><ele>2991.6</ele><time>2026-04-10T14:52:21Z</time></rtept><rtept lat="37.974758" lon="-105.497083"><ele>2990.4</ele><time>2026-04-10T14:52:21Z</time></rtept><rtept lat="37.975095" lon="-105.49749"><ele>2990.6</ele><time>2026-04-10T14:52:21Z</time></rtept><rtept lat="37.975529" lon="-105.496692"><ele>2995.6</ele><time>2026-04-10T14:52:21Z</time></rtept><rtept lat="37.975962" lon="-105.496075"><ele>3000.6</ele><time>2026-04-10T14:52:21Z</time></rtept><rtept lat="37.976307" lon="-105.495681"><ele>3001.0</ele><time>2026-04-10T14:52:21Z</time></rtept><rtept lat="37.976858" lon="-105.495365"><ele>3006.6</ele><time>2026-04-10T14:52:21Z</time></rtept><rtept lat="37.977072" lon="-105.495338"><ele>3007.6</ele><time>2026-04-10T14:52:21Z</time></rtept><rtept lat="37.97745" lon="-105.495452"><ele>3016.6</ele><time>2026-04-10T14:52:21Z</time></rtept><rtept lat="37.977949" lon="-105.495212"><ele>3013.8</ele><time>2026-04-10T14:52:21Z</time></rtept><rtept lat="37.978272" lon="-105.49512"><ele>3017.6</ele><time>2026-04-10T14:52:21Z</time></rtept><rtept lat="37.978721" lon="-105.494879"><ele>3025.8</ele><time>2026-04-10T14:52:21Z</time></rtept><rtept lat="37.979496" lon="-105.4942"><ele>3034.2</ele><time>2026-04-10T14:52:21Z</time></rtept><rtept lat="37.979617" lon="-105.494159"><ele>3035.2</ele><time>2026-04-10T14:52:21Z</time></rtept><rtept lat="37.979744" lon="-105.494186"><ele>3034.4</ele><time>2026-04-10T14:52:21Z</time></rtept><rtept lat="37.979967" lon="-105.494559"><ele>3030.6</ele><time>2026-04-10T14:52:21Z</time></rtept><rtept lat="37.980279" lon="-105.494686"><ele>3025.0</ele><time>2026-04-10T14:52:21Z</time></rtept><rtept lat="37.981011" lon="-105.494862"><ele>3023.6</ele><time>2026-04-10T14:52:21Z</time></rtept><rtept lat="37.98117" lon="-105.495007"><ele>3025.4</ele><time>2026-04-10T14:52:21Z</time></rtept><rtept lat="37.981509" lon="-105.495162"><ele>3028.2</ele><time>2026-04-10T14:52:21Z</time></rtept><rtept lat="37.981901" lon="-105.495259"><ele>3029.8</ele><time>2026-04-10T14:52:21Z</time></rtept><rtept lat="37.98231" lon="-105.495722"><ele>3027.8</ele><time>2026-04-10T14:52:21Z</time></rtept><rtept lat="37.982332" lon="-105.495941"><ele>3024.2</ele><time>2026-04-10T14:52:21Z</time></rtept><rtept lat="37.981815" lon="-105.49673"><ele>3022.8</ele><time>2026-04-10T14:52:21Z</time></rtept><rtept lat="37.981429" lon="-105.497605"><ele>3010.0</ele><time>2026-04-10T14:52:21Z</time></rtept><rtept lat="37.981023" lon="-105.498232"><ele>3009.6</ele><time>2026-04-10T14:52:21Z</time></rtept><rtept lat="37.980796" lon="-105.498827"><ele>3006.2</ele><time>2026-04-10T14:52:21Z</time></rtept><rtept lat="37.980627" lon="-105.499059"><ele>3006.0</ele><time>2026-04-10T14:52:21Z</time></rtept><rtept lat="37.98053" lon="-105.499305"><ele>3006.6</ele><time>2026-04-10T14:52:21Z</time></rtept><rtept lat="37.980527" lon="-105.499549"><ele>3004.0</ele><time>2026-04-10T14:52:21Z</time></rtept><rtept lat="37.980552" lon="-105.499667"><ele>3000.8</ele><time>2026-04-10T14:52:21Z</time></rtept><rtept lat="37.980557" lon="-105.499692"><ele>3000.8</ele><time>2026-04-10T14:52:21Z</time></rtept><rtept lat="37.98059" lon="-105.499804"><ele>2998.8</ele><time>2026-04-10T14:52:21Z</time></rtept><rtept lat="37.980612" lon="-105.499887"><ele>2995.4</ele><time>2026-04-10T14:52:21Z</time></rtept><rtept lat="37.980719" lon="-105.499926"><ele>2993.2</ele><time>2026-04-10T14:52:21Z</time></rtept><rtept lat="37.980949" lon="-105.499898"><ele>2992.0</ele><time>2026-04-10T14:52:21Z</time></rtept><rtept lat="37.981067" lon="-105.499905"><ele>2991.4</ele><time>2026-04-10T14:52:21Z</time></rtept><rtept lat="37.981156" lon="-105.499931"><ele>2989.6</ele><time>2026-04-10T14:52:21Z</time></rtept><rtept lat="37.981156" lon="-105.499931"><ele>2989.6</ele><time>2026-04-10T14:52:21Z</time></rtept><rtept lat="37.981225" lon="-105.499951"><ele>2989.4</ele><time>2026-04-10T14:52:21Z</time></rtept><rtept lat="37.98153" lon="-105.49999"><ele>2988.2</ele><time>2026-04-10T14:52:21Z</time></rtept><rtept lat="37.981711" lon="-105.500131"><ele>2984.6</ele><time>2026-04-10T14:52:21Z</time></rtept><rtept lat="37.982243" lon="-105.5003"><ele>2976.0</ele><time>2026-04-10T14:52:21Z</time></rtept><rtept lat="37.98227" lon="-105.500476"><ele>2974.4</ele><time>2026-04-10T14:52:21Z</time></rtept><rtept lat="37.982197" lon="-105.500789"><ele>2974.8</ele><time>2026-04-10T14:52:21Z</time></rtept><rtept lat="37.982156" lon="-105.501278"><ele>2976.4</ele><time>2026-04-10T14:52:21Z</time></rtept><rtept lat="37.982307" lon="-105.50131"><ele>2976.2</ele><time>2026-04-10T14:52:21Z</time></rtept><rtept lat="37.982443" lon="-105.501586"><ele>2989.0</ele><time>2026-04-10T14:52:21Z</time></rtept><rtept lat="37.983011" lon="-105.502283"><ele>2998.0</ele><time>2026-04-10T14:52:21Z</time></rtept><rtept lat="37.983392" lon="-105.502282"><ele>3001.6</ele><time>2026-04-10T14:52:21Z</time></rtept><rtept lat="37.98389" lon="-105.501805"><ele>2996.2</ele><time>2026-04-10T14:52:21Z</time></rtept><rtept lat="37.984271" lon="-105.501523"><ele>2992.2</ele><time>2026-04-10T14:52:21Z</time></rtept><rtept lat="37.984833" lon="-105.50128"><ele>3003.4</ele><time>2026-04-10T14:52:21Z</time></rtept><rtept lat="37.985005" lon="-105.501321"><ele>3010.2</ele><time>2026-04-10T14:52:21Z</time></rtept><rtept lat="37.98514" lon="-105.50128"><ele>3015.0</ele><time>2026-04-10T14:52:21Z</time></rtept><rtept lat="37.985232" lon="-105.501189"><ele>3013.6</ele><time>2026-04-10T14:52:21Z</time></rtept><rtept lat="37.985664" lon="-105.500328"><ele>3014.2</ele><time>2026-04-10T14:52:21Z</time></rtept><rtept lat="37.985807" lon="-105.500155"><ele>3015.6</ele><time>2026-04-10T14:52:21Z</time></rtept><rtept lat="37.985939" lon="-105.500154"><ele>3019.6</ele><time>2026-04-10T14:52:21Z</time></rtept><rtept lat="37.986567" lon="-105.499839"><ele>3019.2</ele><time>2026-04-10T14:52:21Z</time></rtept><rtept lat="37.986669" lon="-105.499861"><ele>3019.6</ele><time>2026-04-10T14:52:21Z</time></rtept><rtept lat="37.986727" lon="-105.500006"><ele>3023.8</ele><time>2026-04-10T14:52:21Z</time></rtept><rtept lat="37.986798" lon="-105.500053"><ele>3024.4</ele><time>2026-04-10T14:52:21Z</time></rtept><rtept lat="37.987049" lon="-105.499965"><ele>3019.8</ele><time>2026-04-10T14:52:21Z</time></rtept><rtept lat="37.987114" lon="-105.500127"><ele>3014.0</ele><time>2026-04-10T14:52:21Z</time></rtept><rtept lat="37.987118" lon="-105.500301"><ele>3011.0</ele><time>2026-04-10T14:52:21Z</time></rtept><rtept lat="37.986686" lon="-105.502429"><ele>3006.0</ele><time>2026-04-10T14:52:21Z</time></rtept><rtept lat="37.986723" lon="-105.502945"><ele>3001.0</ele><time>2026-04-10T14:52:21Z</time></rtept><rtept lat="37.986924" lon="-105.504012"><ele>2989.0</ele><time>2026-04-10T14:52:21Z</time></rtept><rtept lat="37.987154" lon="-105.504424"><ele>2978.2</ele><time>2026-04-10T14:52:21Z</time></rtept><rtept lat="37.987258" lon="-105.505164"><ele>2969.4</ele><time>2026-04-10T14:52:21Z</time></rtept><rtept lat="37.987383" lon="-105.505448"><ele>2969.6</ele><time>2026-04-10T14:52:21Z</time></rtept><rtept lat="37.98781" lon="-105.505135"><ele>2970.2</ele><time>2026-04-10T14:52:21Z</time></rtept><rtept lat="37.98822" lon="-105.504523"><ele>2965.2</ele><time>2026-04-10T14:52:21Z</time></rtept><rtept lat="37.988437" lon="-105.504372"><ele>2965.2</ele><time>2026-04-10T14:52:21Z</time></rtept><rtept lat="37.98865" lon="-105.504299"><ele>2964.2</ele><time>2026-04-10T14:52:21Z</time></rtept><rtept lat="37.988819" lon="-105.504364"><ele>2964.0</ele><time>2026-04-10T14:52:21Z</time></rtept><rtept lat="37.989146" lon="-105.504919"><ele>2970.2</ele><time>2026-04-10T14:52:21Z</time></rtept><rtept lat="37.98962" lon="-105.50628"><ele>2980.0</ele><time>2026-04-10T14:52:21Z</time></rtept><rtept lat="37.989693" lon="-105.506402"><ele>2981.4</ele><time>2026-04-10T14:52:21Z</time></rtept><rtept lat="37.989818" lon="-105.506474"><ele>2981.6</ele><time>2026-04-10T14:52:21Z</time></rtept><rtept lat="37.990348" lon="-105.506398"><ele>2965.6</ele><time>2026-04-10T14:52:21Z</time></rtept><rtept lat="37.990647" lon="-105.506472"><ele>2960.2</ele><time>2026-04-10T14:52:21Z</time></rtept><rtept lat="37.990728" lon="-105.506684"><ele>2963.4</ele><time>2026-04-10T14:52:21Z</time></rtept><rtept lat="37.990898" lon="-105.506667"><ele>2970.2</ele><time>2026-04-10T14:52:21Z</time></rtept><rtept lat="37.991474" lon="-105.505873"><ele>2971.8</ele><time>2026-04-10T14:52:21Z</time></rtept><rtept lat="37.991746" lon="-105.505617"><ele>2974.8</ele><time>2026-04-10T14:52:21Z</time></rtept><rtept lat="37.992262" lon="-105.505289"><ele>2980.0</ele><time>2026-04-10T14:52:21Z</time></rtept><rtept lat="37.992601" lon="-105.505356"><ele>2982.4</ele><time>2026-04-10T14:52:21Z</time></rtept><rtept lat="37.992793" lon="-105.505491"><ele>2978.4</ele><time>2026-04-10T14:52:21Z</time></rtept><rtept lat="37.992968" lon="-105.505876"><ele>2981.6</ele><time>2026-04-10T14:52:21Z</time></rtept><rtept lat="37.993048" lon="-105.505915"><ele>2984.0</ele><time>2026-04-10T14:52:21Z</time></rtept><rtept lat="37.993199" lon="-105.506258"><ele>2980.8</ele><time>2026-04-10T14:52:21Z</time></rtept><rtept lat="37.993238" lon="-105.506405"><ele>2985.6</ele><time>2026-04-10T14:52:21Z</time></rtept><rtept lat="37.993319" lon="-105.506329"><ele>2981.4</ele><time>2026-04-10T14:52:21Z</time></rtept><rtept lat="37.993726" lon="-105.505598"><ele>2978.4</ele><time>2026-04-10T14:52:21Z</time></rtept><rtept lat="37.993873" lon="-105.505488"><ele>2979.4</ele><time>2026-04-10T14:52:21Z</time></rtept><rtept lat="37.994072" lon="-105.505691"><ele>2984.8</ele><time>2026-04-10T14:52:21Z</time></rtept><rtept lat="37.994389" lon="-105.505525"><ele>2973.8</ele><time>2026-04-10T14:52:21Z</time></rtept><rtept lat="37.994594" lon="-105.50557"><ele>2969.2</ele><time>2026-04-10T14:52:21Z</time></rtept><rtept lat="37.99464" lon="-105.505625"><ele>2969.6</ele><time>2026-04-10T14:52:21Z</time></rtept><rtept lat="37.994651" lon="-105.505838"><ele>2975.2</ele><time>2026-04-10T14:52:21Z</time></rtept><rtept lat="37.995085" lon="-105.506365"><ele>2962.2</ele><time>2026-04-10T14:52:21Z</time></rtept><rtept lat="37.9952" lon="-105.506234"><ele>2956.8</ele><time>2026-04-10T14:52:21Z</time></rtept><rtept lat="37.995478" lon="-105.506194"><ele>2964.4</ele><time>2026-04-10T14:52:21Z</time></rtept><rtept lat="37.996295" lon="-105.506522"><ele>2987.6</ele><time>2026-04-10T14:52:21Z</time></rtept><rtept lat="37.996748" lon="-105.506809"><ele>3003.8</ele><time>2026-04-10T14:52:21Z</time></rtept><rtept lat="37.99729" lon="-105.506911"><ele>3010.0</ele><time>2026-04-10T14:52:21Z</time></rtept><rtept lat="37.997588" lon="-105.506873"><ele>3011.2</ele><time>2026-04-10T14:52:21Z</time></rtept><rtept lat="37.997801" lon="-105.506912"><ele>3011.6</ele><time>2026-04-10T14:52:21Z</time></rtept><rtept lat="37.998325" lon="-105.506737"><ele>3003.6</ele><time>2026-04-10T14:52:21Z</time></rtept><rtept lat="37.998634" lon="-105.506785"><ele>3003.8</ele><time>2026-04-10T14:52:21Z</time></rtept><rtept lat="37.998834" lon="-105.506945"><ele>3006.0</ele><time>2026-04-10T14:52:21Z</time></rtept><rtept lat="37.998997" lon="-105.507192"><ele>3007.8</ele><time>2026-04-10T14:52:21Z</time></rtept><rtept lat="37.999554" lon="-105.507685"><ele>3000.2</ele><time>2026-04-10T14:52:21Z</time></rtept><rtept lat="37.999734" lon="-105.507994"><ele>3004.0</ele><time>2026-04-10T14:52:21Z</time></rtept><rtept lat="38.000091" lon="-105.508418"><ele>3000.8</ele><time>2026-04-10T14:52:21Z</time></rtept><rtept lat="38.000533" lon="-105.50908"><ele>3001.6</ele><time>2026-04-10T14:52:21Z</time></rtept><rtept lat="38.001369" lon="-105.510035"><ele>3002.0</ele><time>2026-04-10T14:52:21Z</time></rtept><rtept lat="38.001821" lon="-105.510402"><ele>3000.4</ele><time>2026-04-10T14:52:21Z</time></rtept><rtept lat="38.002394" lon="-105.510874"><ele>2999.8</ele><time>2026-04-10T14:52:21Z</time></rtept><rtept lat="38.002512" lon="-105.510971"><ele>3000.2</ele><time>2026-04-10T14:52:21Z</time></rtept><rtept lat="38.002645" lon="-105.510965"><ele>2998.8</ele><time>2026-04-10T14:52:21Z</time></rtept><rtept lat="38.002958" lon="-105.511107"><ele>2996.4</ele><time>2026-04-10T14:52:21Z</time></rtept><rtept lat="38.003298" lon="-105.511201"><ele>2990.4</ele><time>2026-04-10T14:52:21Z</time></rtept><rtept lat="38.003593" lon="-105.511431"><ele>2988.8</ele><time>2026-04-10T14:52:21Z</time></rtept><rtept lat="38.003717" lon="-105.511511"><ele>2989.8</ele><time>2026-04-10T14:52:21Z</time></rtept><rtept lat="38.003779" lon="-105.511521"><ele>2991.0</ele><time>2026-04-10T14:52:21Z</time></rtept><rtept lat="38.003852" lon="-105.511502"><ele>2992.4</ele><time>2026-04-10T14:52:21Z</time></rtept><rtept lat="38.003921" lon="-105.511468"><ele>2993.2</ele><time>2026-04-10T14:52:21Z</time></rtept><rtept lat="38.004037" lon="-105.511387"><ele>2996.0</ele><time>2026-04-10T14:52:21Z</time></rtept><rtept lat="38.004141" lon="-105.511148"><ele>2997.8</ele><time>2026-04-10T14:52:21Z</time></rtept><rtept lat="38.004218" lon="-105.510902"><ele>3004.8</ele><time>2026-04-10T14:52:21Z</time></rtept><rtept lat="38.004248" lon="-105.510723"><ele>3006.0</ele><time>2026-04-10T14:52:21Z</time></rtept><rtept lat="38.004352" lon="-105.510135"><ele>3014.8</ele><time>2026-04-10T14:52:21Z</time></rtept><rtept lat="38.004452" lon="-105.50987"><ele>3017.0</ele><time>2026-04-10T14:52:21Z</time></rtept><rtept lat="38.004492" lon="-105.509792"><ele>3018.6</ele><time>2026-04-10T14:52:21Z</time></rtept><rtept lat="38.00464" lon="-105.509754"><ele>3021.4</ele><time>2026-04-10T14:52:21Z</time></rtept><rtept lat="38.00479" lon="-105.509745"><ele>3022.4</ele><time>2026-04-10T14:52:21Z</time></rtept><rtept lat="38.004877" lon="-105.509761"><ele>3021.8</ele><time>2026-04-10T14:52:21Z</time></rtept><rtept lat="38.005285" lon="-105.509965"><ele>3023.0</ele><time>2026-04-10T14:52:21Z</time></rtept><rtept lat="38.005431" lon="-105.509959"><ele>3023.4</ele><time>2026-04-10T14:52:21Z</time></rtept><rtept lat="38.005651" lon="-105.509976"><ele>3026.0</ele><time>2026-04-10T14:52:21Z</time></rtept><rtept lat="38.005797" lon="-105.510005"><ele>3027.4</ele><time>2026-04-10T14:52:21Z</time></rtept><rtept lat="38.00593" lon="-105.51008"><ele>3028.6</ele><time>2026-04-10T14:52:21Z</time></rtept><rtept lat="38.006044" lon="-105.510161"><ele>3029.4</ele><time>2026-04-10T14:52:21Z</time></rtept><rtept lat="38.006202" lon="-105.510228"><ele>3029.4</ele><time>2026-04-10T14:52:21Z</time></rtept><rtept lat="38.006279" lon="-105.510285"><ele>3029.2</ele><time>2026-04-10T14:52:21Z</time></rtept><rtept lat="38.006328" lon="-105.510289"><ele>3028.6</ele><time>2026-04-10T14:52:21Z</time></rtept><rtept lat="38.007056" lon="-105.510145"><ele>3022.4</ele><time>2026-04-10T14:52:21Z</time></rtept><rtept lat="38.007161" lon="-105.510127"><ele>3021.4</ele><time>2026-04-10T14:52:21Z</time></rtept><rtept lat="38.007474" lon="-105.509994"><ele>3013.0</ele><time>2026-04-10T14:52:21Z</time></rtept><rtept lat="38.00758" lon="-105.509968"><ele>3012.2</ele><time>2026-04-10T14:52:21Z</time></rtept><rtept lat="38.007714" lon="-105.509988"><ele>3011.0</ele><time>2026-04-10T14:52:21Z</time></rtept><rtept lat="38.007853" lon="-105.509979"><ele>3011.4</ele><time>2026-04-10T14:52:21Z</time></rtept><rtept lat="38.007934" lon="-105.509966"><ele>3014.2</ele><time>2026-04-10T14:52:21Z</time></rtept><rtept lat="38.007972" lon="-105.509921"><ele>3012.8</ele><time>2026-04-10T14:52:21Z</time></rtept><rtept lat="38.008002" lon="-105.509845"><ele>3013.0</ele><time>2026-04-10T14:52:21Z</time></rtept><rtept lat="38.008118" lon="-105.509567"><ele>3010.2</ele><time>2026-04-10T14:52:21Z</time></rtept><rtept lat="38.008213" lon="-105.509277"><ele>3008.8</ele><time>2026-04-10T14:52:21Z</time></rtept><rtept lat="38.008273" lon="-105.509163"><ele>3006.6</ele><time>2026-04-10T14:52:21Z</time></rtept><rtept lat="38.008365" lon="-105.509081"><ele>3006.0</ele><time>2026-04-10T14:52:21Z</time></rtept><rtept lat="38.008459" lon="-105.508999"><ele>3005.2</ele><time>2026-04-10T14:52:21Z</time></rtept><rtept lat="38.008515" lon="-105.508968"><ele>3006.0</ele><time>2026-04-10T14:52:21Z</time></rtept><rtept lat="38.008591" lon="-105.508983"><ele>3006.8</ele><time>2026-04-10T14:52:21Z</time></rtept><rtept lat="38.008679" lon="-105.509046"><ele>3009.8</ele><time>2026-04-10T14:52:21Z</time></rtept><rtept lat="38.008791" lon="-105.509101"><ele>3012.2</ele><time>2026-04-10T14:52:21Z</time></rtept><rtept lat="38.009205" lon="-105.509202"><ele>3011.6</ele><time>2026-04-10T14:52:21Z</time></rtept><rtept lat="38.009338" lon="-105.509262"><ele>3010.4</ele><time>2026-04-10T14:52:21Z</time></rtept><rtept lat="38.009458" lon="-105.509219"><ele>3011.8</ele><time>2026-04-10T14:52:21Z</time></rtept><rtept lat="38.009519" lon="-105.509125"><ele>3010.2</ele><time>2026-04-10T14:52:21Z</time></rtept><rtept lat="38.009667" lon="-105.509025"><ele>3011.0</ele><time>2026-04-10T14:52:21Z</time></rtept><rtept lat="38.009851" lon="-105.508875"><ele>3011.4</ele><time>2026-04-10T14:52:21Z</time></rtept><rtept lat="38.010047" lon="-105.508692"><ele>3012.6</ele><time>2026-04-10T14:52:21Z</time></rtept><rtept lat="38.010133" lon="-105.508581"><ele>3012.2</ele><time>2026-04-10T14:52:21Z</time></rtept><rtept lat="38.010179" lon="-105.508529"><ele>3011.6</ele><time>2026-04-10T14:52:21Z</time></rtept><rtept lat="38.010245" lon="-105.50852"><ele>3012.8</ele><time>2026-04-10T14:52:21Z</time></rtept><rtept lat="38.010306" lon="-105.508561"><ele>3013.4</ele><time>2026-04-10T14:52:21Z</time></rtept><rtept lat="38.010347" lon="-105.508643"><ele>3014.6</ele><time>2026-04-10T14:52:21Z</time></rtept><rtept lat="38.010349" lon="-105.508774"><ele>3014.8</ele><time>2026-04-10T14:52:21Z</time></rtept><rtept lat="38.010195" lon="-105.509766"><ele>3007.0</ele><time>2026-04-10T14:52:21Z</time></rtept><rtept lat="38.010133" lon="-105.510405"><ele>2998.2</ele><time>2026-04-10T14:52:21Z</time></rtept><rtept lat="38.010156" lon="-105.510733"><ele>2991.6</ele><time>2026-04-10T14:52:21Z</time></rtept><rtept lat="38.010151" lon="-105.51092"><ele>2989.0</ele><time>2026-04-10T14:52:21Z</time></rtept><rtept lat="38.010133" lon="-105.511048"><ele>2987.8</ele><time>2026-04-10T14:52:21Z</time></rtept><rtept lat="38.010162" lon="-105.511244"><ele>2985.2</ele><time>2026-04-10T14:52:21Z</time></rtept><rtept lat="38.010205" lon="-105.511354"><ele>2982.4</ele><time>2026-04-10T14:52:21Z</time></rtept><rtept lat="38.010239" lon="-105.511636"><ele>2979.0</ele><time>2026-04-10T14:52:21Z</time></rtept><rtept lat="38.010292" lon="-105.511762"><ele>2978.6</ele><time>2026-04-10T14:52:21Z</time></rtept><rtept lat="38.010355" lon="-105.511817"><ele>2976.6</ele><time>2026-04-10T14:52:21Z</time></rtept><rtept lat="38.010419" lon="-105.511922"><ele>2974.8</ele><time>2026-04-10T14:52:21Z</time></rtept><rtept lat="38.010449" lon="-105.512028"><ele>2972.4</ele><time>2026-04-10T14:52:21Z</time></rtept><rtept lat="38.010437" lon="-105.512129"><ele>2972.2</ele><time>2026-04-10T14:52:21Z</time></rtept><rtept lat="38.010289" lon="-105.512522"><ele>2976.0</ele><time>2026-04-10T14:52:21Z</time></rtept><rtept lat="38.010313" lon="-105.512691"><ele>2974.2</ele><time>2026-04-10T14:52:21Z</time></rtept><rtept lat="38.010365" lon="-105.512843"><ele>2974.0</ele><time>2026-04-10T14:52:21Z</time></rtept><rtept lat="38.010432" lon="-105.512922"><ele>2972.2</ele><time>2026-04-10T14:52:21Z</time></rtept><rtept lat="38.010504" lon="-105.512892"><ele>2969.2</ele><time>2026-04-10T14:52:21Z</time></rtept><rtept lat="38.010602" lon="-105.512745"><ele>2968.0</ele><time>2026-04-10T14:52:21Z</time></rtept><rtept lat="38.010734" lon="-105.512486"><ele>2965.2</ele><time>2026-04-10T14:52:21Z</time></rtept><rtept lat="38.010776" lon="-105.512335"><ele>2964.0</ele><time>2026-04-10T14:52:21Z</time></rtept><rtept lat="38.010816" lon="-105.512202"><ele>2964.0</ele><time>2026-04-10T14:52:21Z</time></rtept><rtept lat="38.010864" lon="-105.5121"><ele>2963.0</ele><time>2026-04-10T14:52:21Z</time></rtept><rtept lat="38.010934" lon="-105.512064"><ele>2961.8</ele><time>2026-04-10T14:52:21Z</time></rtept><rtept lat="38.01101" lon="-105.512052"><ele>2960.6</ele><time>2026-04-10T14:52:21Z</time></rtept><rtept lat="38.01106" lon="-105.512129"><ele>2959.8</ele><time>2026-04-10T14:52:21Z</time></rtept><rtept lat="38.011105" lon="-105.512193"><ele>2959.8</ele><time>2026-04-10T14:52:21Z</time></rtept><rtept lat="38.011117" lon="-105.512282"><ele>2959.6</ele><time>2026-04-10T14:52:21Z</time></rtept><rtept lat="38.011092" lon="-105.512367"><ele>2960.2</ele><time>2026-04-10T14:52:21Z</time></rtept><rtept lat="38.011097" lon="-105.512441"><ele>2960.4</ele><time>2026-04-10T14:52:21Z</time></rtept><rtept lat="38.011121" lon="-105.512502"><ele>2960.2</ele><time>2026-04-10T14:52:21Z</time></rtept><rtept lat="38.01112" lon="-105.512608"><ele>2960.6</ele><time>2026-04-10T14:52:21Z</time></rtept><rtept lat="38.011113" lon="-105.512793"><ele>2962.6</ele><time>2026-04-10T14:52:21Z</time></rtept><rtept lat="38.011234" lon="-105.512726"><ele>2963.2</ele><time>2026-04-10T14:52:21Z</time></rtept><rtept lat="38.011348" lon="-105.512682"><ele>2964.8</ele><time>2026-04-10T14:52:21Z</time></rtept><rtept lat="38.011494" lon="-105.512662"><ele>2966.4</ele><time>2026-04-10T14:52:21Z</time></rtept><rtept lat="38.011573" lon="-105.512679"><ele>2966.8</ele><time>2026-04-10T14:52:21Z</time></rtept><rtept lat="38.011641" lon="-105.512745"><ele>2968.0</ele><time>2026-04-10T14:52:21Z</time></rtept><rtept lat="38.011771" lon="-105.512938"><ele>2972.2</ele><time>2026-04-10T14:52:21Z</time></rtept><rtept lat="38.011862" lon="-105.513044"><ele>2973.6</ele><time>2026-04-10T14:52:21Z</time></rtept><rtept lat="38.011901" lon="-105.513234"><ele>2975.0</ele><time>2026-04-10T14:52:21Z</time></rtept><rtept lat="38.011924" lon="-105.51332"><ele>2974.8</ele><time>2026-04-10T14:52:21Z</time></rtept><rtept lat="38.012022" lon="-105.513312"><ele>2973.8</ele><time>2026-04-10T14:52:21Z</time></rtept><rtept lat="38.012081" lon="-105.513264"><ele>2972.6</ele><time>2026-04-10T14:52:21Z</time></rtept><rtept lat="38.012135" lon="-105.513263"><ele>2972.4</ele><time>2026-04-10T14:52:21Z</time></rtept><rtept lat="38.012247" lon="-105.513253"><ele>2972.6</ele><time>2026-04-10T14:52:21Z</time></rtept><rtept lat="38.012274" lon="-105.513185"><ele>2972.4</ele><time>2026-04-10T14:52:21Z</time></rtept><rtept lat="38.012255" lon="-105.513032"><ele>2971.2</ele><time>2026-04-10T14:52:21Z</time></rtept><rtept lat="38.012266" lon="-105.512999"><ele>2971.6</ele><time>2026-04-10T14:52:21Z</time></rtept><rtept lat="38.012297" lon="-105.512972"><ele>2971.6</ele><time>2026-04-10T14:52:21Z</time></rtept><rtept lat="38.012345" lon="-105.512988"><ele>2972.2</ele><time>2026-04-10T14:52:21Z</time></rtept><rtept lat="38.012428" lon="-105.51304"><ele>2973.2</ele><time>2026-04-10T14:52:21Z</time></rtept><rtept lat="38.012577" lon="-105.513222"><ele>2975.8</ele><time>2026-04-10T14:52:21Z</time></rtept><rtept lat="38.01269" lon="-105.513199"><ele>2979.4</ele><time>2026-04-10T14:52:21Z</time></rtept><rtept lat="38.012975" lon="-105.513141"><ele>2993.6</ele><time>2026-04-10T14:52:21Z</time></rtept><rtept lat="38.013142" lon="-105.512875"><ele>2996.4</ele><time>2026-04-10T14:52:21Z</time></rtept><rtept lat="38.013493" lon="-105.512481"><ele>2998.8</ele><time>2026-04-10T14:52:21Z</time></rtept><rtept lat="38.014" lon="-105.511832"><ele>3009.6</ele><time>2026-04-10T14:52:21Z</time></rtept><rtept lat="38.014212" lon="-105.511636"><ele>3016.0</ele><time>2026-04-10T14:52:21Z</time></rtept><rtept lat="38.014214" lon="-105.511636"><ele>3016.0</ele><time>2026-04-10T14:52:21Z</time></rtept><rtept lat="38.014514" lon="-105.511137"><ele>3018.8</ele><time>2026-04-10T14:52:21Z</time></rtept><rtept lat="38.014717" lon="-105.510904"><ele>3019.0</ele><time>2026-04-10T14:52:21Z</time></rtept><rtept lat="38.014752" lon="-105.510901"><ele>3019.0</ele><time>2026-04-10T14:52:21Z</time></rtept><rtept lat="38.014778" lon="-105.510957"><ele>3017.8</ele><time>2026-04-10T14:52:21Z</time></rtept><rtept lat="38.014721" lon="-105.511043"><ele>3019.6</ele><time>2026-04-10T14:52:21Z</time></rtept><rtept lat="38.014693" lon="-105.511188"><ele>3022.8</ele><time>2026-04-10T14:52:21Z</time></rtept><rtept lat="38.014702" lon="-105.511499"><ele>3023.4</ele><time>2026-04-10T14:52:21Z</time></rtept><rtept lat="38.014653" lon="-105.511767"><ele>3025.8</ele><time>2026-04-10T14:52:21Z</time></rtept><rtept lat="38.014628" lon="-105.512301"><ele>3026.2</ele><time>2026-04-10T14:52:21Z</time></rtept><rtept lat="38.014469" lon="-105.513302"><ele>3025.6</ele><time>2026-04-10T14:52:21Z</time></rtept><rtept lat="38.014469" lon="-105.513607"><ele>3024.0</ele><time>2026-04-10T14:52:21Z</time></rtept><rtept lat="38.014419" lon="-105.51394"><ele>3025.2</ele><time>2026-04-10T14:52:21Z</time></rtept><rtept lat="38.014402" lon="-105.51424"><ele>3024.2</ele><time>2026-04-10T14:52:21Z</time></rtept><rtept lat="38.014355" lon="-105.514356"><ele>3026.2</ele><time>2026-04-10T14:52:21Z</time></rtept><rtept lat="38.014362" lon="-105.514849"><ele>3025.2</ele><time>2026-04-10T14:52:21Z</time></rtept><rtept lat="38.014402" lon="-105.515901"><ele>3023.8</ele><time>2026-04-10T14:52:21Z</time></rtept><rtept lat="38.014486" lon="-105.516579"><ele>3026.4</ele><time>2026-04-10T14:52:21Z</time></rtept><rtept lat="38.014562" lon="-105.516869"><ele>3024.6</ele><time>2026-04-10T14:52:21Z</time></rtept><rtept lat="38.014548" lon="-105.517175"><ele>3027.6</ele><time>2026-04-10T14:52:21Z</time></rtept><rtept lat="38.014548" lon="-105.517435"><ele>3027.6</ele><time>2026-04-10T14:52:21Z</time></rtept><rtept lat="38.014548" lon="-105.517687"><ele>3027.2</ele><time>2026-04-10T14:52:21Z</time></rtept><rtept lat="38.01452" lon="-105.51788"><ele>3026.8</ele><time>2026-04-10T14:52:21Z</time></rtept><rtept lat="38.014514" lon="-105.518084"><ele>3026.6</ele><time>2026-04-10T14:52:21Z</time></rtept><rtept lat="38.01456" lon="-105.518298"><ele>3026.6</ele><time>2026-04-10T14:52:21Z</time></rtept><rtept lat="38.014552" lon="-105.518535"><ele>3032.6</ele><time>2026-04-10T14:52:21Z</time></rtept><rtept lat="38.014679" lon="-105.518886"><ele>3033.0</ele><time>2026-04-10T14:52:21Z</time></rtept><rtept lat="38.014803" lon="-105.519165"><ele>3031.6</ele><time>2026-04-10T14:52:21Z</time></rtept><rtept lat="38.015184" lon="-105.519511"><ele>3032.2</ele><time>2026-04-10T14:52:21Z</time></rtept><rtept lat="38.015279" lon="-105.519559"><ele>3030.6</ele><time>2026-04-10T14:52:21Z</time></rtept><rtept lat="38.015649" lon="-105.519865"><ele>3029.0</ele><time>2026-04-10T14:52:21Z</time></rtept><rtept lat="38.015951" lon="-105.519978"><ele>3026.4</ele><time>2026-04-10T14:52:21Z</time></rtept><rtept lat="38.016234" lon="-105.520219"><ele>3024.0</ele><time>2026-04-10T14:52:21Z</time></rtept><rtept lat="38.016414" lon="-105.520578"><ele>3022.4</ele><time>2026-04-10T14:52:21Z</time></rtept><rtept lat="38.016568" lon="-105.520927"><ele>3020.8</ele><time>2026-04-10T14:52:21Z</time></rtept><rtept lat="38.016604" lon="-105.521045"><ele>3019.0</ele><time>2026-04-10T14:52:21Z</time></rtept><rtept lat="38.016606" lon="-105.521372"><ele>3019.0</ele><time>2026-04-10T14:52:21Z</time></rtept><rtept lat="38.016646" lon="-105.521654"><ele>3018.2</ele><time>2026-04-10T14:52:21Z</time></rtept><rtept lat="38.016568" lon="-105.521954"><ele>3018.2</ele><time>2026-04-10T14:52:21Z</time></rtept><rtept lat="38.016403" lon="-105.522268"><ele>3017.6</ele><time>2026-04-10T14:52:21Z</time></rtept><rtept lat="38.016124" lon="-105.522625"><ele>3021.2</ele><time>2026-04-10T14:52:21Z</time></rtept><rtept lat="38.015803" lon="-105.523175"><ele>3019.0</ele><time>2026-04-10T14:52:21Z</time></rtept><rtept lat="38.015608" lon="-105.523649"><ele>3019.6</ele><time>2026-04-10T14:52:21Z</time></rtept><rtept lat="38.015327" lon="-105.52413"><ele>3022.8</ele><time>2026-04-10T14:52:21Z</time></rtept><rtept lat="38.015141" lon="-105.524489"><ele>3025.6</ele><time>2026-04-10T14:52:21Z</time></rtept><rtept lat="38.015025" lon="-105.524913"><ele>3026.4</ele><time>2026-04-10T14:52:21Z</time></rtept><rtept lat="38.014993" lon="-105.525084"><ele>3025.0</ele><time>2026-04-10T14:52:21Z</time></rtept><rtept lat="38.01496" lon="-105.525173"><ele>3027.8</ele><time>2026-04-10T14:52:21Z</time></rtept><rtept lat="38.014939" lon="-105.525299"><ele>3027.8</ele><time>2026-04-10T14:52:21Z</time></rtept><rtept lat="38.014981" lon="-105.525304"><ele>3025.0</ele><time>2026-04-10T14:52:21Z</time></rtept><rtept lat="38.015002" lon="-105.525371"><ele>3025.0</ele><time>2026-04-10T14:52:21Z</time></rtept><rtept lat="38.014993" lon="-105.525629"><ele>3023.2</ele><time>2026-04-10T14:52:21Z</time></rtept><rtept lat="38.014941" lon="-105.525798"><ele>3026.4</ele><time>2026-04-10T14:52:21Z</time></rtept><rtept lat="38.014919" lon="-105.525948"><ele>3027.0</ele><time>2026-04-10T14:52:21Z</time></rtept><rtept lat="38.014941" lon="-105.526168"><ele>3026.8</ele><time>2026-04-10T14:52:21Z</time></rtept><rtept lat="38.014907" lon="-105.526536"><ele>3023.2</ele><time>2026-04-10T14:52:21Z</time></rtept><rtept lat="38.014852" lon="-105.526715"><ele>3025.6</ele><time>2026-04-10T14:52:21Z</time></rtept><rtept lat="38.014881" lon="-105.526812"><ele>3027.8</ele><time>2026-04-10T14:52:21Z</time></rtept><rtept lat="38.014949" lon="-105.526807"><ele>3028.4</ele><time>2026-04-10T14:52:21Z</time></rtept><rtept lat="38.015209" lon="-105.526689"><ele>3033.8</ele><time>2026-04-10T14:52:21Z</time></rtept><rtept lat="38.015608" lon="-105.52656"><ele>3036.0</ele><time>2026-04-10T14:52:21Z</time></rtept><rtept lat="38.015837" lon="-105.526517"><ele>3043.6</ele><time>2026-04-10T14:52:21Z</time></rtept><rtept lat="38.016134" lon="-105.526343"><ele>3044.8</ele><time>2026-04-10T14:52:21Z</time></rtept><rtept lat="38.016274" lon="-105.526294"><ele>3043.0</ele><time>2026-04-10T14:52:21Z</time></rtept><rtept lat="38.016485" lon="-105.526281"><ele>3045.0</ele><time>2026-04-10T14:52:21Z</time></rtept><rtept lat="38.016648" lon="-105.526375"><ele>3047.0</ele><time>2026-04-10T14:52:21Z</time></rtept><rtept lat="38.01672" lon="-105.526426"><ele>3046.0</ele><time>2026-04-10T14:52:21Z</time></rtept><rtept lat="38.016775" lon="-105.526514"><ele>3047.8</ele><time>2026-04-10T14:52:21Z</time></rtept><rtept lat="38.016887" lon="-105.526774"><ele>3055.6</ele><time>2026-04-10T14:52:21Z</time></rtept><rtept lat="38.016927" lon="-105.527008"><ele>3058.0</ele><time>2026-04-10T14:52:21Z</time></rtept><rtept lat="38.016952" lon="-105.527101"><ele>3060.0</ele><time>2026-04-10T14:52:21Z</time></rtept><rtept lat="38.017001" lon="-105.527203"><ele>3063.8</ele><time>2026-04-10T14:52:21Z</time></rtept><rtept lat="38.017052" lon="-105.527174"><ele>3060.8</ele><time>2026-04-10T14:52:21Z</time></rtept><rtept lat="38.017206" lon="-105.527118"><ele>3058.6</ele><time>2026-04-10T14:52:21Z</time></rtept><rtept lat="38.017517" lon="-105.52711"><ele>3052.0</ele><time>2026-04-10T14:52:21Z</time></rtept><rtept lat="38.017679" lon="-105.527193"><ele>3052.4</ele><time>2026-04-10T14:52:21Z</time></rtept><rtept lat="38.018172" lon="-105.52744"><ele>3057.2</ele><time>2026-04-10T14:52:21Z</time></rtept><rtept lat="38.018398" lon="-105.527539"><ele>3060.6</ele><time>2026-04-10T14:52:21Z</time></rtept><rtept lat="38.018677" lon="-105.527903"><ele>3073.6</ele><time>2026-04-10T14:52:21Z</time></rtept><rtept lat="38.018789" lon="-105.528303"><ele>3076.2</ele><time>2026-04-10T14:52:21Z</time></rtept><rtept lat="38.018835" lon="-105.528654"><ele>3077.6</ele><time>2026-04-10T14:52:21Z</time></rtept><rtept lat="38.018975" lon="-105.528915"><ele>3073.8</ele><time>2026-04-10T14:52:21Z</time></rtept><rtept lat="38.019057" lon="-105.529129"><ele>3073.4</ele><time>2026-04-10T14:52:21Z</time></rtept><rtept lat="38.01911" lon="-105.529333"><ele>3071.4</ele><time>2026-04-10T14:52:21Z</time></rtept><rtept lat="38.019181" lon="-105.530099"><ele>3070.0</ele><time>2026-04-10T14:52:21Z</time></rtept><rtept lat="38.019175" lon="-105.530287"><ele>3071.2</ele><time>2026-04-10T14:52:21Z</time></rtept><rtept lat="38.01922" lon="-105.530661"><ele>3075.0</ele><time>2026-04-10T14:52:21Z</time></rtept><rtept lat="38.019356" lon="-105.53104"><ele>3073.0</ele><time>2026-04-10T14:52:21Z</time></rtept><rtept lat="38.019453" lon="-105.531401"><ele>3073.4</ele><time>2026-04-10T14:52:21Z</time></rtept><rtept lat="38.019542" lon="-105.531837"><ele>3083.6</ele><time>2026-04-10T14:52:21Z</time></rtept><rtept lat="38.019589" lon="-105.532061"><ele>3083.0</ele><time>2026-04-10T14:52:21Z</time></rtept><rtept lat="38.019648" lon="-105.53223"><ele>3080.2</ele><time>2026-04-10T14:52:21Z</time></rtept><rtept lat="38.019682" lon="-105.53233"><ele>3081.0</ele><time>2026-04-10T14:52:21Z</time></rtept><rtept lat="38.019769" lon="-105.532339"><ele>3075.4</ele><time>2026-04-10T14:52:21Z</time></rtept><rtept lat="38.020032" lon="-105.532249"><ele>3076.0</ele><time>2026-04-10T14:52:21Z</time></rtept><rtept lat="38.020242" lon="-105.532161"><ele>3078.8</ele><time>2026-04-10T14:52:21Z</time></rtept><rtept lat="38.020358" lon="-105.532164"><ele>3079.6</ele><time>2026-04-10T14:52:21Z</time></rtept><rtept lat="38.020491" lon="-105.532203"><ele>3083.8</ele><time>2026-04-10T14:52:21Z</time></rtept><rtept lat="38.02066" lon="-105.532329"><ele>3087.4</ele><time>2026-04-10T14:52:21Z</time></rtept><rtept lat="38.021319" lon="-105.532541"><ele>3086.2</ele><time>2026-04-10T14:52:21Z</time></rtept><rtept lat="38.021637" lon="-105.532674"><ele>3093.4</ele><time>2026-04-10T14:52:21Z</time></rtept><rtept lat="38.021775" lon="-105.53264"><ele>3096.0</ele><time>2026-04-10T14:52:21Z</time></rtept><rtept lat="38.021979" lon="-105.532616"><ele>3098.6</ele><time>2026-04-10T14:52:21Z</time></rtept><rtept lat="38.022102" lon="-105.532659"><ele>3099.6</ele><time>2026-04-10T14:52:21Z</time></rtept><rtept lat="38.022251" lon="-105.532793"><ele>3104.6</ele><time>2026-04-10T14:52:21Z</time></rtept><rtept lat="38.022517" lon="-105.533158"><ele>3111.8</ele><time>2026-04-10T14:52:21Z</time></rtept><rtept lat="38.022673" lon="-105.533381"><ele>3111.6</ele><time>2026-04-10T14:52:21Z</time></rtept><rtept lat="38.022782" lon="-105.533599"><ele>3111.4</ele><time>2026-04-10T14:52:21Z</time></rtept><rtept lat="38.022802" lon="-105.53387"><ele>3114.0</ele><time>2026-04-10T14:52:21Z</time></rtept><rtept lat="38.022859" lon="-105.534044"><ele>3112.8</ele><time>2026-04-10T14:52:21Z</time></rtept><rtept lat="38.022918" lon="-105.534384"><ele>3111.0</ele><time>2026-04-10T14:52:21Z</time></rtept><rtept lat="38.022972" lon="-105.534896"><ele>3108.4</ele><time>2026-04-10T14:52:21Z</time></rtept><rtept lat="38.022997" lon="-105.535116"><ele>3107.4</ele><time>2026-04-10T14:52:21Z</time></rtept><rtept lat="38.023052" lon="-105.535355"><ele>3102.2</ele><time>2026-04-10T14:52:21Z</time></rtept><rtept lat="38.023084" lon="-105.535558"><ele>3097.6</ele><time>2026-04-10T14:52:21Z</time></rtept><rtept lat="38.02315" lon="-105.535604"><ele>3093.2</ele><time>2026-04-10T14:52:21Z</time></rtept><rtept lat="38.023465" lon="-105.535718"><ele>3086.2</ele><time>2026-04-10T14:52:21Z</time></rtept><rtept lat="38.023683" lon="-105.535797"><ele>3089.6</ele><time>2026-04-10T14:52:21Z</time></rtept><rtept lat="38.023789" lon="-105.535872"><ele>3092.0</ele><time>2026-04-10T14:52:21Z</time></rtept><rtept lat="38.023911" lon="-105.536114"><ele>3094.8</ele><time>2026-04-10T14:52:21Z</time></rtept><rtept lat="38.024002" lon="-105.536265"><ele>3096.6</ele><time>2026-04-10T14:52:21Z</time></rtept><rtept lat="38.024207" lon="-105.536398"><ele>3098.8</ele><time>2026-04-10T14:52:21Z</time></rtept><rtept lat="38.024332" lon="-105.536448"><ele>3099.0</ele><time>2026-04-10T14:52:21Z</time></rtept><rtept lat="38.024464" lon="-105.536428"><ele>3098.8</ele><time>2026-04-10T14:52:21Z</time></rtept><rtept lat="38.024625" lon="-105.536579"><ele>3099.2</ele><time>2026-04-10T14:52:21Z</time></rtept><rtept lat="38.024726" lon="-105.536661"><ele>3098.2</ele><time>2026-04-10T14:52:21Z</time></rtept><rtept lat="38.024776" lon="-105.53664"><ele>3096.2</ele><time>2026-04-10T14:52:21Z</time></rtept><rtept lat="38.024959" lon="-105.536453"><ele>3090.8</ele><time>2026-04-10T14:52:21Z</time></rtept><rtept lat="38.025073" lon="-105.536378"><ele>3091.4</ele><time>2026-04-10T14:52:21Z</time></rtept><rtept lat="38.025164" lon="-105.536205"><ele>3092.8</ele><time>2026-04-10T14:52:21Z</time></rtept><rtept lat="38.025201" lon="-105.536118"><ele>3094.2</ele><time>2026-04-10T14:52:21Z</time></rtept><rtept lat="38.025233" lon="-105.535988"><ele>3094.2</ele><time>2026-04-10T14:52:21Z</time></rtept><rtept lat="38.025223" lon="-105.53584"><ele>3094.0</ele><time>2026-04-10T14:52:21Z</time></rtept><rtept lat="38.025167" lon="-105.535548"><ele>3093.0</ele><time>2026-04-10T14:52:21Z</time></rtept><rtept lat="38.025165" lon="-105.535439"><ele>3093.2</ele><time>2026-04-10T14:52:21Z</time></rtept><rtept lat="38.025201" lon="-105.535368"><ele>3094.4</ele><time>2026-04-10T14:52:21Z</time></rtept><rtept lat="38.025277" lon="-105.535284"><ele>3095.6</ele><time>2026-04-10T14:52:21Z</time></rtept><rtept lat="38.025323" lon="-105.535217"><ele>3097.0</ele><time>2026-04-10T14:52:21Z</time></rtept><rtept lat="38.025338" lon="-105.535146"><ele>3097.2</ele><time>2026-04-10T14:52:21Z</time></rtept><rtept lat="38.025357" lon="-105.534903"><ele>3097.4</ele><time>2026-04-10T14:52:21Z</time></rtept><rtept lat="38.025425" lon="-105.534432"><ele>3098.0</ele><time>2026-04-10T14:52:21Z</time></rtept><rtept lat="38.025409" lon="-105.534027"><ele>3095.2</ele><time>2026-04-10T14:52:21Z</time></rtept><rtept lat="38.025411" lon="-105.533828"><ele>3093.8</ele><time>2026-04-10T14:52:21Z</time></rtept><rtept lat="38.0254" lon="-105.533576"><ele>3091.8</ele><time>2026-04-10T14:52:21Z</time></rtept><rtept lat="38.025416" lon="-105.53328"><ele>3090.0</ele><time>2026-04-10T14:52:21Z</time></rtept><rtept lat="38.025432" lon="-105.533092"><ele>3089.2</ele><time>2026-04-10T14:52:21Z</time></rtept><rtept lat="38.02539" lon="-105.532962"><ele>3088.8</ele><time>2026-04-10T14:52:21Z</time></rtept><rtept lat="38.025378" lon="-105.532898"><ele>3088.6</ele><time>2026-04-10T14:52:21Z</time></rtept><rtept lat="38.025413" lon="-105.532706"><ele>3088.2</ele><time>2026-04-10T14:52:21Z</time></rtept><rtept lat="38.025399" lon="-105.532595"><ele>3088.0</ele><time>2026-04-10T14:52:21Z</time></rtept><rtept lat="38.025349" lon="-105.532391"><ele>3086.2</ele><time>2026-04-10T14:52:21Z</time></rtept><rtept lat="38.025337" lon="-105.532105"><ele>3088.2</ele><time>2026-04-10T14:52:21Z</time></rtept><rtept lat="38.025313" lon="-105.531819"><ele>3092.2</ele><time>2026-04-10T14:52:21Z</time></rtept><rtept lat="38.025265" lon="-105.531731"><ele>3091.2</ele><time>2026-04-10T14:52:21Z</time></rtept><rtept lat="38.025164" lon="-105.531679"><ele>3088.6</ele><time>2026-04-10T14:52:21Z</time></rtept><rtept lat="38.025123" lon="-105.531625"><ele>3089.0</ele><time>2026-04-10T14:52:21Z</time></rtept><rtept lat="38.025126" lon="-105.53157"><ele>3089.0</ele><time>2026-04-10T14:52:21Z</time></rtept><rtept lat="38.025146" lon="-105.53151"><ele>3089.0</ele><time>2026-04-10T14:52:21Z</time></rtept><rtept lat="38.025204" lon="-105.531443"><ele>3089.8</ele><time>2026-04-10T14:52:21Z</time></rtept><rtept lat="38.025273" lon="-105.531377"><ele>3090.2</ele><time>2026-04-10T14:52:21Z</time></rtept><rtept lat="38.025354" lon="-105.531354"><ele>3090.8</ele><time>2026-04-10T14:52:21Z</time></rtept><rtept lat="38.025578" lon="-105.531372"><ele>3091.0</ele><time>2026-04-10T14:52:21Z</time></rtept><rtept lat="38.025691" lon="-105.531376"><ele>3090.2</ele><time>2026-04-10T14:52:21Z</time></rtept><rtept lat="38.02583" lon="-105.531445"><ele>3088.8</ele><time>2026-04-10T14:52:21Z</time></rtept><rtept lat="38.026056" lon="-105.531429"><ele>3077.4</ele><time>2026-04-10T14:52:21Z</time></rtept><rtept lat="38.026266" lon="-105.531424"><ele>3072.0</ele><time>2026-04-10T14:52:21Z</time></rtept><rtept lat="38.026419" lon="-105.531503"><ele>3072.2</ele><time>2026-04-10T14:52:21Z</time></rtept><rtept lat="38.026522" lon="-105.531592"><ele>3073.4</ele><time>2026-04-10T14:52:21Z</time></rtept><rtept lat="38.026684" lon="-105.531759"><ele>3073.8</ele><time>2026-04-10T14:52:21Z</time></rtept><rtept lat="38.026852" lon="-105.532053"><ele>3075.0</ele><time>2026-04-10T14:52:21Z</time></rtept><rtept lat="38.026982" lon="-105.532475"><ele>3078.6</ele><time>2026-04-10T14:52:21Z</time></rtept><rtept lat="38.027072" lon="-105.532503"><ele>3074.2</ele><time>2026-04-10T14:52:21Z</time></rtept><rtept lat="38.02715" lon="-105.532756"><ele>3077.8</ele><time>2026-04-10T14:52:21Z</time></rtept><rtept lat="38.027295" lon="-105.532934"><ele>3079.2</ele><time>2026-04-10T14:52:21Z</time></rtept><rtept lat="38.027362" lon="-105.532949"><ele>3078.0</ele><time>2026-04-10T14:52:21Z</time></rtept><rtept lat="38.027437" lon="-105.532984"><ele>3078.4</ele><time>2026-04-10T14:52:21Z</time></rtept><rtept lat="38.027456" lon="-105.533133"><ele>3081.0</ele><time>2026-04-10T14:52:21Z</time></rtept><rtept lat="38.02752" lon="-105.533355"><ele>3081.0</ele><time>2026-04-10T14:52:21Z</time></rtept><rtept lat="38.027599" lon="-105.533613"><ele>3080.4</ele><time>2026-04-10T14:52:21Z</time></rtept><rtept lat="38.027683" lon="-105.533769"><ele>3075.0</ele><time>2026-04-10T14:52:21Z</time></rtept><rtept lat="38.027783" lon="-105.533881"><ele>3072.6</ele><time>2026-04-10T14:52:21Z</time></rtept><rtept lat="38.02789" lon="-105.534047"><ele>3068.6</ele><time>2026-04-10T14:52:21Z</time></rtept><rtept lat="38.027955" lon="-105.534205"><ele>3068.2</ele><time>2026-04-10T14:52:21Z</time></rtept><rtept lat="38.02805" lon="-105.534514"><ele>3070.2</ele><time>2026-04-10T14:52:21Z</time></rtept><rtept lat="38.028097" lon="-105.534816"><ele>3069.0</ele><time>2026-04-10T14:52:21Z</time></rtept><rtept lat="38.028185" lon="-105.535186"><ele>3068.2</ele><time>2026-04-10T14:52:21Z</time></rtept><rtept lat="38.028196" lon="-105.535316"><ele>3068.4</ele><time>2026-04-10T14:52:21Z</time></rtept><rtept lat="38.02824" lon="-105.535482"><ele>3065.0</ele><time>2026-04-10T14:52:21Z</time></rtept><rtept lat="38.028339" lon="-105.535686"><ele>3063.0</ele><time>2026-04-10T14:52:21Z</time></rtept><rtept lat="38.028382" lon="-105.535938"><ele>3064.6</ele><time>2026-04-10T14:52:21Z</time></rtept><rtept lat="38.02842" lon="-105.536021"><ele>3062.2</ele><time>2026-04-10T14:52:21Z</time></rtept><rtept lat="38.028492" lon="-105.536255"><ele>3062.6</ele><time>2026-04-10T14:52:21Z</time></rtept><rtept lat="38.028569" lon="-105.536424"><ele>3061.4</ele><time>2026-04-10T14:52:21Z</time></rtept><rtept lat="38.028629" lon="-105.536621"><ele>3059.2</ele><time>2026-04-10T14:52:21Z</time></rtept><rtept lat="38.028716" lon="-105.53679"><ele>3057.2</ele><time>2026-04-10T14:52:21Z</time></rtept><rtept lat="38.028819" lon="-105.536948"><ele>3055.0</ele><time>2026-04-10T14:52:21Z</time></rtept><rtept lat="38.028911" lon="-105.537057"><ele>3049.4</ele><time>2026-04-10T14:52:21Z</time></rtept><rtept lat="38.02908" lon="-105.537122"><ele>3044.6</ele><time>2026-04-10T14:52:21Z</time></rtept><rtept lat="38.029131" lon="-105.537169"><ele>3043.6</ele><time>2026-04-10T14:52:21Z</time></rtept><rtept lat="38.029285" lon="-105.53737"><ele>3045.4</ele><time>2026-04-10T14:52:21Z</time></rtept><rtept lat="38.029372" lon="-105.537407"><ele>3045.0</ele><time>2026-04-10T14:52:21Z</time></rtept><rtept lat="38.029446" lon="-105.537391"><ele>3044.8</ele><time>2026-04-10T14:52:21Z</time></rtept><rtept lat="38.029494" lon="-105.537361"><ele>3044.8</ele><time>2026-04-10T14:52:21Z</time></rtept><rtept lat="38.029644" lon="-105.53727"><ele>3042.4</ele><time>2026-04-10T14:52:21Z</time></rtept><rtept lat="38.029789" lon="-105.537129"><ele>3038.4</ele><time>2026-04-10T14:52:21Z</time></rtept><rtept lat="38.030195" lon="-105.536651"><ele>3030.2</ele><time>2026-04-10T14:52:21Z</time></rtept><rtept lat="38.030454" lon="-105.536248"><ele>3022.0</ele><time>2026-04-10T14:52:21Z</time></rtept><rtept lat="38.030669" lon="-105.535933"><ele>3017.8</ele><time>2026-04-10T14:52:21Z</time></rtept><rtept lat="38.030775" lon="-105.535782"><ele>3015.4</ele><time>2026-04-10T14:52:21Z</time></rtept><rtept lat="38.030877" lon="-105.535698"><ele>3017.2</ele><time>2026-04-10T14:52:21Z</time></rtept><rtept lat="38.030979" lon="-105.535606"><ele>3014.6</ele><time>2026-04-10T14:52:21Z</time></rtept><rtept lat="38.03111" lon="-105.535534"><ele>3016.0</ele><time>2026-04-10T14:52:21Z</time></rtept><rtept lat="38.03123" lon="-105.535494"><ele>3015.8</ele><time>2026-04-10T14:52:21Z</time></rtept><rtept lat="38.031377" lon="-105.535492"><ele>3017.2</ele><time>2026-04-10T14:52:21Z</time></rtept><rtept lat="38.031639" lon="-105.535554"><ele>3020.4</ele><time>2026-04-10T14:52:21Z</time></rtept><rtept lat="38.031688" lon="-105.535551"><ele>3020.8</ele><time>2026-04-10T14:52:21Z</time></rtept><rtept lat="38.031757" lon="-105.535499"><ele>3019.4</ele><time>2026-04-10T14:52:21Z</time></rtept><rtept lat="38.031861" lon="-105.535431"><ele>3018.2</ele><time>2026-04-10T14:52:21Z</time></rtept><rtept lat="38.031924" lon="-105.535423"><ele>3018.2</ele><time>2026-04-10T14:52:21Z</time></rtept><rtept lat="38.031989" lon="-105.53544"><ele>3018.4</ele><time>2026-04-10T14:52:21Z</time></rtept><rtept lat="38.032086" lon="-105.535459"><ele>3019.2</ele><time>2026-04-10T14:52:21Z</time></rtept><rtept lat="38.032303" lon="-105.535443"><ele>3017.0</ele><time>2026-04-10T14:52:21Z</time></rtept><rtept lat="38.032391" lon="-105.535486"><ele>3016.2</ele><time>2026-04-10T14:52:21Z</time></rtept><rtept lat="38.032477" lon="-105.535493"><ele>3014.0</ele><time>2026-04-10T14:52:21Z</time></rtept><rtept lat="38.032574" lon="-105.535467"><ele>3012.6</ele><time>2026-04-10T14:52:21Z</time></rtept><rtept lat="38.032702" lon="-105.535411"><ele>3009.0</ele><time>2026-04-10T14:52:21Z</time></rtept><rtept lat="38.032749" lon="-105.535427"><ele>3007.6</ele><time>2026-04-10T14:52:21Z</time></rtept><rtept lat="38.032836" lon="-105.535565"><ele>3006.6</ele><time>2026-04-10T14:52:21Z</time></rtept><rtept lat="38.033058" lon="-105.535886"><ele>3002.6</ele><time>2026-04-10T14:52:21Z</time></rtept><rtept lat="38.033359" lon="-105.536283"><ele>2993.4</ele><time>2026-04-10T14:52:21Z</time></rtept><rtept lat="38.0335" lon="-105.536524"><ele>2990.0</ele><time>2026-04-10T14:52:21Z</time></rtept><rtept lat="38.033624" lon="-105.536694"><ele>2989.4</ele><time>2026-04-10T14:52:21Z</time></rtept><rtept lat="38.033693" lon="-105.536806"><ele>2988.6</ele><time>2026-04-10T14:52:21Z</time></rtept><rtept lat="38.033743" lon="-105.536827"><ele>2990.4</ele><time>2026-04-10T14:52:21Z</time></rtept><rtept lat="38.033955" lon="-105.536853"><ele>2987.8</ele><time>2026-04-10T14:52:21Z</time></rtept><rtept lat="38.034043" lon="-105.536866"><ele>2986.2</ele><time>2026-04-10T14:52:21Z</time></rtept><rtept lat="38.034164" lon="-105.536986"><ele>2987.4</ele><time>2026-04-10T14:52:21Z</time></rtept><rtept lat="38.034427" lon="-105.537311"><ele>2984.4</ele><time>2026-04-10T14:52:21Z</time></rtept><rtept lat="38.034589" lon="-105.537535"><ele>2980.2</ele><time>2026-04-10T14:52:21Z</time></rtept><rtept lat="38.034725" lon="-105.537718"><ele>2976.6</ele><time>2026-04-10T14:52:21Z</time></rtept><rtept lat="38.034786" lon="-105.537982"><ele>2974.6</ele><time>2026-04-10T14:52:21Z</time></rtept><rtept lat="38.034818" lon="-105.538242"><ele>2974.4</ele><time>2026-04-10T14:52:21Z</time></rtept><rtept lat="38.034915" lon="-105.538627"><ele>2966.8</ele><time>2026-04-10T14:52:21Z</time></rtept><rtept lat="38.03493" lon="-105.538781"><ele>2966.4</ele><time>2026-04-10T14:52:21Z</time></rtept><rtept lat="38.034979" lon="-105.539005"><ele>2962.0</ele><time>2026-04-10T14:52:21Z</time></rtept><rtept lat="38.034982" lon="-105.539169"><ele>2960.4</ele><time>2026-04-10T14:52:21Z</time></rtept><rtept lat="38.034959" lon="-105.539352"><ele>2961.2</ele><time>2026-04-10T14:52:21Z</time></rtept><rtept lat="38.03491" lon="-105.539542"><ele>2959.4</ele><time>2026-04-10T14:52:21Z</time></rtept><rtept lat="38.034842" lon="-105.539689"><ele>2962.4</ele><time>2026-04-10T14:52:21Z</time></rtept><rtept lat="38.034805" lon="-105.53989"><ele>2960.4</ele><time>2026-04-10T14:52:21Z</time></rtept><rtept lat="38.034697" lon="-105.540346"><ele>2961.6</ele><time>2026-04-10T14:52:21Z</time></rtept><rtept lat="38.034697" lon="-105.540455"><ele>2961.2</ele><time>2026-04-10T14:52:21Z</time></rtept><rtept lat="38.034722" lon="-105.540553"><ele>2957.0</ele><time>2026-04-10T14:52:21Z</time></rtept><rtept lat="38.034831" lon="-105.540535"><ele>2954.4</ele><time>2026-04-10T14:52:21Z</time></rtept><rtept lat="38.035009" lon="-105.540385"><ele>2951.0</ele><time>2026-04-10T14:52:21Z</time></rtept><rtept lat="38.035252" lon="-105.540156"><ele>2948.4</ele><time>2026-04-10T14:52:21Z</time></rtept><rtept lat="38.035382" lon="-105.54002"><ele>2947.6</ele><time>2026-04-10T14:52:21Z</time></rtept><rtept lat="38.035456" lon="-105.539867"><ele>2946.6</ele><time>2026-04-10T14:52:21Z</time></rtept><rtept lat="38.035624" lon="-105.539619"><ele>2942.8</ele><time>2026-04-10T14:52:21Z</time></rtept><rtept lat="38.03582" lon="-105.539361"><ele>2939.8</ele><time>2026-04-10T14:52:21Z</time></rtept><rtept lat="38.036112" lon="-105.539119"><ele>2936.4</ele><time>2026-04-10T14:52:21Z</time></rtept><rtept lat="38.03619" lon="-105.538999"><ele>2934.8</ele><time>2026-04-10T14:52:21Z</time></rtept><rtept lat="38.036532" lon="-105.538598"><ele>2931.0</ele><time>2026-04-10T14:52:21Z</time></rtept><rtept lat="38.036788" lon="-105.538289"><ele>2933.8</ele><time>2026-04-10T14:52:21Z</time></rtept><rtept lat="38.037001" lon="-105.537981"><ele>2932.2</ele><time>2026-04-10T14:52:21Z</time></rtept><rtept lat="38.037175" lon="-105.537652"><ele>2930.2</ele><time>2026-04-10T14:52:21Z</time></rtept><rtept lat="38.037336" lon="-105.537345"><ele>2928.8</ele><time>2026-04-10T14:52:21Z</time></rtept><rtept lat="38.037478" lon="-105.536983"><ele>2922.6</ele><time>2026-04-10T14:52:21Z</time></rtept><rtept lat="38.037598" lon="-105.536782"><ele>2923.4</ele><time>2026-04-10T14:52:21Z</time></rtept><rtept lat="38.037816" lon="-105.536304"><ele>2921.6</ele><time>2026-04-10T14:52:21Z</time></rtept><rtept lat="38.037904" lon="-105.536208"><ele>2922.8</ele><time>2026-04-10T14:52:21Z</time></rtept><rtept lat="38.038076" lon="-105.535831"><ele>2920.2</ele><time>2026-04-10T14:52:21Z</time></rtept><rtept lat="38.038159" lon="-105.535635"><ele>2920.6</ele><time>2026-04-10T14:52:21Z</time></rtept><rtept lat="38.038386" lon="-105.535355"><ele>2918.8</ele><time>2026-04-10T14:52:21Z</time></rtept><rtept lat="38.038529" lon="-105.535267"><ele>2916.8</ele><time>2026-04-10T14:52:21Z</time></rtept><rtept lat="38.038679" lon="-105.535237"><ele>2918.2</ele><time>2026-04-10T14:52:21Z</time></rtept><rtept lat="38.038846" lon="-105.535219"><ele>2919.0</ele><time>2026-04-10T14:52:21Z</time></rtept><rtept lat="38.039249" lon="-105.535292"><ele>2917.0</ele><time>2026-04-10T14:52:21Z</time></rtept><rtept lat="38.039478" lon="-105.535305"><ele>2913.6</ele><time>2026-04-10T14:52:21Z</time></rtept><rtept lat="38.039785" lon="-105.535273"><ele>2915.0</ele><time>2026-04-10T14:52:21Z</time></rtept><rtept lat="38.040154" lon="-105.535152"><ele>2915.4</ele><time>2026-04-10T14:52:21Z</time></rtept><rtept lat="38.040307" lon="-105.535153"><ele>2916.0</ele><time>2026-04-10T14:52:21Z</time></rtept><rtept lat="38.040413" lon="-105.535188"><ele>2917.2</ele><time>2026-04-10T14:52:21Z</time></rtept><rtept lat="38.040584" lon="-105.535218"><ele>2917.2</ele><time>2026-04-10T14:52:21Z</time></rtept><rtept lat="38.040744" lon="-105.535196"><ele>2916.6</ele><time>2026-04-10T14:52:21Z</time></rtept><rtept lat="38.040952" lon="-105.535136"><ele>2914.2</ele><time>2026-04-10T14:52:21Z</time></rtept><rtept lat="38.041005" lon="-105.535198"><ele>2914.0</ele><time>2026-04-10T14:52:21Z</time></rtept><rtept lat="38.04115" lon="-105.535433"><ele>2911.6</ele><time>2026-04-10T14:52:21Z</time></rtept><rtept lat="38.041194" lon="-105.535571"><ele>2911.4</ele><time>2026-04-10T14:52:21Z</time></rtept><rtept lat="38.041304" lon="-105.535717"><ele>2908.2</ele><time>2026-04-10T14:52:21Z</time></rtept><rtept lat="38.041372" lon="-105.535829"><ele>2906.6</ele><time>2026-04-10T14:52:21Z</time></rtept><rtept lat="38.041566" lon="-105.536119"><ele>2901.6</ele><time>2026-04-10T14:52:21Z</time></rtept><rtept lat="38.041672" lon="-105.536283"><ele>2898.8</ele><time>2026-04-10T14:52:21Z</time></rtept><rtept lat="38.041684" lon="-105.536356"><ele>2898.6</ele><time>2026-04-10T14:52:21Z</time></rtept><rtept lat="38.041679" lon="-105.536433"><ele>2898.4</ele><time>2026-04-10T14:52:21Z</time></rtept><rtept lat="38.041642" lon="-105.536581"><ele>2899.2</ele><time>2026-04-10T14:52:21Z</time></rtept><rtept lat="38.041611" lon="-105.536756"><ele>2899.0</ele><time>2026-04-10T14:52:21Z</time></rtept><rtept lat="38.041642" lon="-105.53691"><ele>2899.2</ele><time>2026-04-10T14:52:21Z</time></rtept><rtept lat="38.04175" lon="-105.53702"><ele>2897.0</ele><time>2026-04-10T14:52:21Z</time></rtept><rtept lat="38.041927" lon="-105.536999"><ele>2893.8</ele><time>2026-04-10T14:52:21Z</time></rtept><rtept lat="38.042049" lon="-105.536964"><ele>2890.8</ele><time>2026-04-10T14:52:21Z</time></rtept><rtept lat="38.042154" lon="-105.536961"><ele>2889.2</ele><time>2026-04-10T14:52:21Z</time></rtept><rtept lat="38.042308" lon="-105.537109"><ele>2892.2</ele><time>2026-04-10T14:52:21Z</time></rtept><rtept lat="38.042465" lon="-105.537048"><ele>2891.2</ele><time>2026-04-10T14:52:21Z</time></rtept><rtept lat="38.042778" lon="-105.536902"><ele>2891.0</ele><time>2026-04-10T14:52:21Z</time></rtept><rtept lat="38.042897" lon="-105.536835"><ele>2889.2</ele><time>2026-04-10T14:52:21Z</time></rtept><rtept lat="38.043032" lon="-105.536758"><ele>2887.4</ele><time>2026-04-10T14:52:21Z</time></rtept><rtept lat="38.043147" lon="-105.536733"><ele>2887.8</ele><time>2026-04-10T14:52:21Z</time></rtept><rtept lat="38.043325" lon="-105.536697"><ele>2885.8</ele><time>2026-04-10T14:52:21Z</time></rtept><rtept lat="38.043537" lon="-105.536598"><ele>2883.6</ele><time>2026-04-10T14:52:21Z</time></rtept><rtept lat="38.043743" lon="-105.536429"><ele>2879.4</ele><time>2026-04-10T14:52:21Z</time></rtept><rtept lat="38.043817" lon="-105.536351"><ele>2877.4</ele><time>2026-04-10T14:52:21Z</time></rtept><rtept lat="38.043926" lon="-105.53632"><ele>2878.0</ele><time>2026-04-10T14:52:21Z</time></rtept><rtept lat="38.044054" lon="-105.536232"><ele>2877.2</ele><time>2026-04-10T14:52:21Z</time></rtept><rtept lat="38.044455" lon="-105.535986"><ele>2876.0</ele><time>2026-04-10T14:52:21Z</time></rtept><rtept lat="38.044788" lon="-105.53584"><ele>2874.6</ele><time>2026-04-10T14:52:21Z</time></rtept><rtept lat="38.04488" lon="-105.53587"><ele>2877.2</ele><time>2026-04-10T14:52:21Z</time></rtept><rtept lat="38.044827" lon="-105.536424"><ele>2880.6</ele><time>2026-04-10T14:52:21Z</time></rtept><rtept lat="38.04479" lon="-105.53677"><ele>2876.2</ele><time>2026-04-10T14:52:21Z</time></rtept><rtept lat="38.044715" lon="-105.537266"><ele>2870.8</ele><time>2026-04-10T14:52:21Z</time></rtept><rtept lat="38.044588" lon="-105.53773"><ele>2870.2</ele><time>2026-04-10T14:52:21Z</time></rtept><rtept lat="38.044509" lon="-105.537941"><ele>2870.0</ele><time>2026-04-10T14:52:21Z</time></rtept><rtept lat="38.044523" lon="-105.538121"><ele>2868.4</ele><time>2026-04-10T14:52:21Z</time></rtept><rtept lat="38.044605" lon="-105.538217"><ele>2865.6</ele><time>2026-04-10T14:52:21Z</time></rtept><rtept lat="38.044686" lon="-105.538426"><ele>2861.8</ele><time>2026-04-10T14:52:21Z</time></rtept><rtept lat="38.044687" lon="-105.538585"><ele>2860.4</ele><time>2026-04-10T14:52:21Z</time></rtept><rtept lat="38.044677" lon="-105.538646"><ele>2859.6</ele><time>2026-04-10T14:52:21Z</time></rtept><rtept lat="38.044576" lon="-105.538978"><ele>2861.0</ele><time>2026-04-10T14:52:21Z</time></rtept><rtept lat="38.044568" lon="-105.539049"><ele>2860.4</ele><time>2026-04-10T14:52:21Z</time></rtept><rtept lat="38.044601" lon="-105.539095"><ele>2858.2</ele><time>2026-04-10T14:52:21Z</time></rtept><rtept lat="38.044675" lon="-105.539154"><ele>2855.4</ele><time>2026-04-10T14:52:21Z</time></rtept><rtept lat="38.044715" lon="-105.539286"><ele>2853.8</ele><time>2026-04-10T14:52:21Z</time></rtept><rtept lat="38.044751" lon="-105.539407"><ele>2854.6</ele><time>2026-04-10T14:52:21Z</time></rtept><rtept lat="38.04484" lon="-105.539447"><ele>2853.8</ele><time>2026-04-10T14:52:21Z</time></rtept><rtept lat="38.044878" lon="-105.53951"><ele>2853.2</ele><time>2026-04-10T14:52:21Z</time></rtept><rtept lat="38.044973" lon="-105.539546"><ele>2852.2</ele><time>2026-04-10T14:52:21Z</time></rtept><rtept lat="38.045069" lon="-105.539481"><ele>2852.0</ele><time>2026-04-10T14:52:21Z</time></rtept><rtept lat="38.045154" lon="-105.539373"><ele>2850.0</ele><time>2026-04-10T14:52:21Z</time></rtept><rtept lat="38.045308" lon="-105.539366"><ele>2850.8</ele><time>2026-04-10T14:52:21Z</time></rtept><rtept lat="38.045402" lon="-105.539375"><ele>2851.8</ele><time>2026-04-10T14:52:21Z</time></rtept><rtept lat="38.045518" lon="-105.539405"><ele>2854.0</ele><time>2026-04-10T14:52:21Z</time></rtept><rtept lat="38.045596" lon="-105.539367"><ele>2853.4</ele><time>2026-04-10T14:52:21Z</time></rtept><rtept lat="38.045802" lon="-105.539291"><ele>2853.4</ele><time>2026-04-10T14:52:21Z</time></rtept><rtept lat="38.046046" lon="-105.539209"><ele>2853.0</ele><time>2026-04-10T14:52:21Z</time></rtept><rtept lat="38.046129" lon="-105.539216"><ele>2853.2</ele><time>2026-04-10T14:52:21Z</time></rtept><rtept lat="38.046233" lon="-105.539281"><ele>2855.0</ele><time>2026-04-10T14:52:21Z</time></rtept><rtept lat="38.046354" lon="-105.539387"><ele>2856.2</ele><time>2026-04-10T14:52:21Z</time></rtept><rtept lat="38.046416" lon="-105.53939"><ele>2857.4</ele><time>2026-04-10T14:52:21Z</time></rtept><rtept lat="38.046655" lon="-105.539414"><ele>2856.8</ele><time>2026-04-10T14:52:21Z</time></rtept><rtept lat="38.046774" lon="-105.539496"><ele>2857.4</ele><time>2026-04-10T14:52:21Z</time></rtept><rtept lat="38.046863" lon="-105.539496"><ele>2857.0</ele><time>2026-04-10T14:52:21Z</time></rtept><rtept lat="38.047064" lon="-105.539511"><ele>2856.0</ele><time>2026-04-10T14:52:21Z</time></rtept><rtept lat="38.04742" lon="-105.539515"><ele>2853.2</ele><time>2026-04-10T14:52:21Z</time></rtept><rtept lat="38.047476" lon="-105.539524"><ele>2853.2</ele><time>2026-04-10T14:52:21Z</time></rtept><rtept lat="38.047555" lon="-105.539566"><ele>2853.2</ele><time>2026-04-10T14:52:21Z</time></rtept><rtept lat="38.04759" lon="-105.539629"><ele>2853.2</ele><time>2026-04-10T14:52:21Z</time></rtept><rtept lat="38.047602" lon="-105.539693"><ele>2854.6</ele><time>2026-04-10T14:52:21Z</time></rtept><rtept lat="38.047644" lon="-105.539737"><ele>2855.2</ele><time>2026-04-10T14:52:21Z</time></rtept><rtept lat="38.047677" lon="-105.539712"><ele>2854.0</ele><time>2026-04-10T14:52:21Z</time></rtept><rtept lat="38.04771" lon="-105.539638"><ele>2851.8</ele><time>2026-04-10T14:52:21Z</time></rtept><rtept lat="38.047743" lon="-105.539512"><ele>2850.4</ele><time>2026-04-10T14:52:21Z</time></rtept><rtept lat="38.047775" lon="-105.539484"><ele>2849.6</ele><time>2026-04-10T14:52:21Z</time></rtept><rtept lat="38.047877" lon="-105.539519"><ele>2848.8</ele><time>2026-04-10T14:52:21Z</time></rtept><rtept lat="38.048029" lon="-105.539559"><ele>2846.0</ele><time>2026-04-10T14:52:21Z</time></rtept><rtept lat="38.048124" lon="-105.539516"><ele>2845.0</ele><time>2026-04-10T14:52:21Z</time></rtept><rtept lat="38.048187" lon="-105.539527"><ele>2844.0</ele><time>2026-04-10T14:52:21Z</time></rtept><rtept lat="38.048247" lon="-105.539587"><ele>2844.0</ele><time>2026-04-10T14:52:21Z</time></rtept><rtept lat="38.048272" lon="-105.539662"><ele>2845.2</ele><time>2026-04-10T14:52:21Z</time></rtept><rtept lat="38.04836" lon="-105.539723"><ele>2844.0</ele><time>2026-04-10T14:52:21Z</time></rtept><rtept lat="38.048409" lon="-105.539776"><ele>2843.8</ele><time>2026-04-10T14:52:21Z</time></rtept><rtept lat="38.048447" lon="-105.539872"><ele>2843.4</ele><time>2026-04-10T14:52:21Z</time></rtept><rtept lat="38.048488" lon="-105.539901"><ele>2843.4</ele><time>2026-04-10T14:52:21Z</time></rtept><rtept lat="38.048631" lon="-105.539881"><ele>2841.2</ele><time>2026-04-10T14:52:21Z</time></rtept><rtept lat="38.048717" lon="-105.539827"><ele>2840.4</ele><time>2026-04-10T14:52:21Z</time></rtept><rtept lat="38.048845" lon="-105.539579"><ele>2837.8</ele><time>2026-04-10T14:52:21Z</time></rtept><rtept lat="38.048859" lon="-105.53932"><ele>2831.8</ele><time>2026-04-10T14:52:21Z</time></rtept><rtept lat="38.048874" lon="-105.539067"><ele>2828.6</ele><time>2026-04-10T14:52:21Z</time></rtept><rtept lat="38.048917" lon="-105.539005"><ele>2828.2</ele><time>2026-04-10T14:52:21Z</time></rtept><rtept lat="38.048992" lon="-105.538973"><ele>2828.8</ele><time>2026-04-10T14:52:21Z</time></rtept><rtept lat="38.049146" lon="-105.538974"><ele>2829.8</ele><time>2026-04-10T14:52:21Z</time></rtept><rtept lat="38.049277" lon="-105.538954"><ele>2828.4</ele><time>2026-04-10T14:52:21Z</time></rtept><rtept lat="38.049464" lon="-105.538929"><ele>2827.4</ele><time>2026-04-10T14:52:21Z</time></rtept><rtept lat="38.049694" lon="-105.539037"><ele>2827.0</ele><time>2026-04-10T14:52:21Z</time></rtept><rtept lat="38.049771" lon="-105.539084"><ele>2827.6</ele><time>2026-04-10T14:52:21Z</time></rtept><rtept lat="38.049921" lon="-105.539123"><ele>2825.0</ele><time>2026-04-10T14:52:21Z</time></rtept><rtept lat="38.050031" lon="-105.539113"><ele>2824.2</ele><time>2026-04-10T14:52:21Z</time></rtept><rtept lat="38.050184" lon="-105.539063"><ele>2822.8</ele><time>2026-04-10T14:52:21Z</time></rtept><rtept lat="38.050419" lon="-105.53904"><ele>2819.2</ele><time>2026-04-10T14:52:21Z</time></rtept><rtept lat="38.050724" lon="-105.538985"><ele>2817.8</ele><time>2026-04-10T14:52:21Z</time></rtept><rtept lat="38.050863" lon="-105.538942"><ele>2814.4</ele><time>2026-04-10T14:52:21Z</time></rtept><rtept lat="38.050917" lon="-105.538986"><ele>2815.8</ele><time>2026-04-10T14:52:21Z</time></rtept><rtept lat="38.050952" lon="-105.539257"><ele>2819.0</ele><time>2026-04-10T14:52:21Z</time></rtept><rtept lat="38.051017" lon="-105.539339"><ele>2819.2</ele><time>2026-04-10T14:52:21Z</time></rtept><rtept lat="38.051104" lon="-105.539487"><ele>2820.0</ele><time>2026-04-10T14:52:21Z</time></rtept><rtept lat="38.051192" lon="-105.539578"><ele>2820.0</ele><time>2026-04-10T14:52:21Z</time></rtept><rtept lat="38.051378" lon="-105.539731"><ele>2818.0</ele><time>2026-04-10T14:52:21Z</time></rtept><rtept lat="38.05147" lon="-105.539846"><ele>2818.4</ele><time>2026-04-10T14:52:21Z</time></rtept><rtept lat="38.05147" lon="-105.539846"><ele>2818.4</ele><time>2026-04-10T14:52:21Z</time></rtept><rtept lat="38.051527" lon="-105.539917"><ele>2818.0</ele><time>2026-04-10T14:52:21Z</time></rtept><rtept lat="38.051686" lon="-105.540078"><ele>2815.8</ele><time>2026-04-10T14:52:21Z</time></rtept><rtept lat="38.051637" lon="-105.540319"><ele>2818.4</ele><time>2026-04-10T14:52:21Z</time></rtept><rtept lat="38.051724" lon="-105.5404"><ele>2817.6</ele><time>2026-04-10T14:52:21Z</time></rtept><rtept lat="38.051875" lon="-105.540405"><ele>2814.6</ele><time>2026-04-10T14:52:21Z</time></rtept><rtept lat="38.051945" lon="-105.540482"><ele>2811.6</ele><time>2026-04-10T14:52:21Z</time></rtept><rtept lat="38.051973" lon="-105.540596"><ele>2812.6</ele><time>2026-04-10T14:52:21Z</time></rtept><rtept lat="38.052015" lon="-105.5406"><ele>2811.2</ele><time>2026-04-10T14:52:21Z</time></rtept><rtept lat="38.052198" lon="-105.540511"><ele>2808.0</ele><time>2026-04-10T14:52:21Z</time></rtept><rtept lat="38.052386" lon="-105.540554"><ele>2807.0</ele><time>2026-04-10T14:52:21Z</time></rtept><rtept lat="38.052483" lon="-105.54068"><ele>2809.2</ele><time>2026-04-10T14:52:21Z</time></rtept><rtept lat="38.05255" lon="-105.540774"><ele>2810.2</ele><time>2026-04-10T14:52:21Z</time></rtept><rtept lat="38.052618" lon="-105.540974"><ele>2812.4</ele><time>2026-04-10T14:52:21Z</time></rtept><rtept lat="38.052692" lon="-105.54112"><ele>2813.4</ele><time>2026-04-10T14:52:21Z</time></rtept><rtept lat="38.052852" lon="-105.541198"><ele>2812.8</ele><time>2026-04-10T14:52:21Z</time></rtept><rtept lat="38.052976" lon="-105.541282"><ele>2812.2</ele><time>2026-04-10T14:52:21Z</time></rtept><rtept lat="38.053067" lon="-105.541343"><ele>2811.2</ele><time>2026-04-10T14:52:21Z</time></rtept><rtept lat="38.053138" lon="-105.541453"><ele>2812.6</ele><time>2026-04-10T14:52:21Z</time></rtept><rtept lat="38.053179" lon="-105.541485"><ele>2811.8</ele><time>2026-04-10T14:52:21Z</time></rtept><rtept lat="38.053297" lon="-105.541498"><ele>2810.0</ele><time>2026-04-10T14:52:21Z</time></rtept><rtept lat="38.053354" lon="-105.541534"><ele>2810.0</ele><time>2026-04-10T14:52:21Z</time></rtept><rtept lat="38.053467" lon="-105.541707"><ele>2813.0</ele><time>2026-04-10T14:52:21Z</time></rtept><rtept lat="38.053636" lon="-105.541903"><ele>2813.4</ele><time>2026-04-10T14:52:21Z</time></rtept><rtept lat="38.053769" lon="-105.541934"><ele>2811.4</ele><time>2026-04-10T14:52:21Z</time></rtept><rtept lat="38.053815" lon="-105.542053"><ele>2814.0</ele><time>2026-04-10T14:52:21Z</time></rtept><rtept lat="38.053811" lon="-105.542204"><ele>2815.2</ele><time>2026-04-10T14:52:21Z</time></rtept><rtept lat="38.053834" lon="-105.542334"><ele>2817.2</ele><time>2026-04-10T14:52:21Z</time></rtept><rtept lat="38.05388" lon="-105.542488"><ele>2818.0</ele><time>2026-04-10T14:52:21Z</time></rtept><rtept lat="38.053967" lon="-105.542607"><ele>2818.0</ele><time>2026-04-10T14:52:21Z</time></rtept><rtept lat="38.054125" lon="-105.542733"><ele>2815.8</ele><time>2026-04-10T14:52:21Z</time></rtept><rtept lat="38.054338" lon="-105.543025"><ele>2816.2</ele><time>2026-04-10T14:52:21Z</time></rtept><rtept lat="38.054511" lon="-105.543291"><ele>2818.6</ele><time>2026-04-10T14:52:21Z</time></rtept><rtept lat="38.054717" lon="-105.543706"><ele>2822.4</ele><time>2026-04-10T14:52:21Z</time></rtept><rtept lat="38.055098" lon="-105.544237"><ele>2825.0</ele><time>2026-04-10T14:52:21Z</time></rtept><rtept lat="38.055489" lon="-105.544737"><ele>2830.0</ele><time>2026-04-10T14:52:21Z</time></rtept><rtept lat="38.055952" lon="-105.545089"><ele>2831.4</ele><time>2026-04-10T14:52:21Z</time></rtept><rtept lat="38.056156" lon="-105.545258"><ele>2832.2</ele><time>2026-04-10T14:52:21Z</time></rtept><rtept lat="38.056486" lon="-105.54563"><ele>2836.0</ele><time>2026-04-10T14:52:21Z</time></rtept><rtept lat="38.05691" lon="-105.545929"><ele>2843.8</ele><time>2026-04-10T14:52:21Z</time></rtept><rtept lat="38.057339" lon="-105.546041"><ele>2849.0</ele><time>2026-04-10T14:52:21Z</time></rtept><rtept lat="38.057958" lon="-105.546173"><ele>2852.8</ele><time>2026-04-10T14:52:21Z</time></rtept><rtept lat="38.05811" lon="-105.546242"><ele>2850.8</ele><time>2026-04-10T14:52:21Z</time></rtept><rtept lat="38.05819" lon="-105.546453"><ele>2855.6</ele><time>2026-04-10T14:52:21Z</time></rtept><rtept lat="38.058259" lon="-105.546975"><ele>2861.8</ele><time>2026-04-10T14:52:21Z</time></rtept><rtept lat="38.058288" lon="-105.547589"><ele>2864.8</ele><time>2026-04-10T14:52:21Z</time></rtept><rtept lat="38.05832" lon="-105.547813"><ele>2863.8</ele><time>2026-04-10T14:52:21Z</time></rtept><rtept lat="38.058406" lon="-105.5479"><ele>2863.2</ele><time>2026-04-10T14:52:21Z</time></rtept><rtept lat="38.058454" lon="-105.547996"><ele>2863.4</ele><time>2026-04-10T14:52:21Z</time></rtept><rtept lat="38.058568" lon="-105.548262"><ele>2865.4</ele><time>2026-04-10T14:52:21Z</time></rtept><rtept lat="38.058752" lon="-105.548537"><ele>2869.0</ele><time>2026-04-10T14:52:21Z</time></rtept><rtept lat="38.058963" lon="-105.548638"><ele>2869.8</ele><time>2026-04-10T14:52:21Z</time></rtept><rtept lat="38.059147" lon="-105.54881"><ele>2870.6</ele><time>2026-04-10T14:52:21Z</time></rtept><rtept lat="38.059182" lon="-105.54902"><ele>2869.8</ele><time>2026-04-10T14:52:21Z</time></rtept><rtept lat="38.05913" lon="-105.549372"><ele>2870.8</ele><time>2026-04-10T14:52:21Z</time></rtept><rtept lat="38.059014" lon="-105.549841"><ele>2874.6</ele><time>2026-04-10T14:52:21Z</time></rtept><rtept lat="38.058888" lon="-105.550276"><ele>2877.2</ele><time>2026-04-10T14:52:21Z</time></rtept><rtept lat="38.058658" lon="-105.550923"><ele>2881.4</ele><time>2026-04-10T14:52:21Z</time></rtept><rtept lat="38.05841" lon="-105.551442"><ele>2890.8</ele><time>2026-04-10T14:52:21Z</time></rtept><rtept lat="38.058229" lon="-105.552117"><ele>2892.8</ele><time>2026-04-10T14:52:21Z</time></rtept><rtept lat="38.058073" lon="-105.552923"><ele>2891.6</ele><time>2026-04-10T14:52:21Z</time></rtept><rtept lat="38.057952" lon="-105.553477"><ele>2892.6</ele><time>2026-04-10T14:52:21Z</time></rtept><rtept lat="38.057946" lon="-105.553762"><ele>2892.2</ele><time>2026-04-10T14:52:21Z</time></rtept><rtept lat="38.058063" lon="-105.554061"><ele>2890.4</ele><time>2026-04-10T14:52:21Z</time></rtept><rtept lat="38.058163" lon="-105.554234"><ele>2891.4</ele><time>2026-04-10T14:52:21Z</time></rtept><rtept lat="38.058305" lon="-105.554253"><ele>2895.4</ele><time>2026-04-10T14:52:21Z</time></rtept><rtept lat="38.05854" lon="-105.554054"><ele>2893.4</ele><time>2026-04-10T14:52:21Z</time></rtept><rtept lat="38.058703" lon="-105.553999"><ele>2898.2</ele><time>2026-04-10T14:52:21Z</time></rtept><rtept lat="38.058859" lon="-105.554026"><ele>2900.8</ele><time>2026-04-10T14:52:21Z</time></rtept><rtept lat="38.059149" lon="-105.553924"><ele>2902.8</ele><time>2026-04-10T14:52:21Z</time></rtept><rtept lat="38.059425" lon="-105.553811"><ele>2904.6</ele><time>2026-04-10T14:52:21Z</time></rtept><rtept lat="38.059721" lon="-105.553727"><ele>2907.8</ele><time>2026-04-10T14:52:21Z</time></rtept><rtept lat="38.060096" lon="-105.553555"><ele>2909.4</ele><time>2026-04-10T14:52:21Z</time></rtept><rtept lat="38.060458" lon="-105.55354"><ele>2909.6</ele><time>2026-04-10T14:52:21Z</time></rtept><rtept lat="38.060726" lon="-105.553642"><ele>2912.2</ele><time>2026-04-10T14:52:21Z</time></rtept><rtept lat="38.061123" lon="-105.553823"><ele>2907.2</ele><time>2026-04-10T14:52:21Z</time></rtept><rtept lat="38.061432" lon="-105.554023"><ele>2903.6</ele><time>2026-04-10T14:52:21Z</time></rtept><rtept lat="38.061708" lon="-105.554253"><ele>2905.2</ele><time>2026-04-10T14:52:21Z</time></rtept><rtept lat="38.062014" lon="-105.554415"><ele>2906.0</ele><time>2026-04-10T14:52:21Z</time></rtept><rtept lat="38.062213" lon="-105.554483"><ele>2911.0</ele><time>2026-04-10T14:52:21Z</time></rtept><rtept lat="38.062349" lon="-105.554439"><ele>2916.2</ele><time>2026-04-10T14:52:21Z</time></rtept><rtept lat="38.062444" lon="-105.554268"><ele>2917.6</ele><time>2026-04-10T14:52:21Z</time></rtept><rtept lat="38.062594" lon="-105.554005"><ele>2917.2</ele><time>2026-04-10T14:52:21Z</time></rtept><rtept lat="38.06273" lon="-105.553718"><ele>2914.6</ele><time>2026-04-10T14:52:21Z</time></rtept><rtept lat="38.062897" lon="-105.553386"><ele>2913.4</ele><time>2026-04-10T14:52:21Z</time></rtept><rtept lat="38.063019" lon="-105.553219"><ele>2910.6</ele><time>2026-04-10T14:52:21Z</time></rtept><rtept lat="38.063146" lon="-105.553178"><ele>2909.6</ele><time>2026-04-10T14:52:21Z</time></rtept><rtept lat="38.063274" lon="-105.553206"><ele>2908.8</ele><time>2026-04-10T14:52:21Z</time></rtept><rtept lat="38.063405" lon="-105.553317"><ele>2908.2</ele><time>2026-04-10T14:52:21Z</time></rtept><rtept lat="38.063611" lon="-105.553529"><ele>2903.0</ele><time>2026-04-10T14:52:21Z</time></rtept><rtept lat="38.063826" lon="-105.553826"><ele>2899.0</ele><time>2026-04-10T14:52:21Z</time></rtept><rtept lat="38.064046" lon="-105.554101"><ele>2890.2</ele><time>2026-04-10T14:52:21Z</time></rtept><rtept lat="38.064224" lon="-105.554299"><ele>2886.8</ele><time>2026-04-10T14:52:21Z</time></rtept><rtept lat="38.064318" lon="-105.554514"><ele>2885.4</ele><time>2026-04-10T14:52:21Z</time></rtept><rtept lat="38.064509" lon="-105.554653"><ele>2882.0</ele><time>2026-04-10T14:52:21Z</time></rtept><rtept lat="38.064813" lon="-105.554914"><ele>2876.4</ele><time>2026-04-10T14:52:21Z</time></rtept><rtept lat="38.065042" lon="-105.555246"><ele>2877.6</ele><time>2026-04-10T14:52:21Z</time></rtept><rtept lat="38.065186" lon="-105.555589"><ele>2879.6</ele><time>2026-04-10T14:52:21Z</time></rtept><rtept lat="38.065293" lon="-105.5559"><ele>2879.4</ele><time>2026-04-10T14:52:21Z</time></rtept><rtept lat="38.065392" lon="-105.555955"><ele>2878.4</ele><time>2026-04-10T14:52:21Z</time></rtept><rtept lat="38.065565" lon="-105.555961"><ele>2877.8</ele><time>2026-04-10T14:52:21Z</time></rtept><rtept lat="38.065638" lon="-105.555919"><ele>2877.8</ele><time>2026-04-10T14:52:21Z</time></rtept><rtept lat="38.065776" lon="-105.555624"><ele>2877.4</ele><time>2026-04-10T14:52:21Z</time></rtept><rtept lat="38.065949" lon="-105.555321"><ele>2879.2</ele><time>2026-04-10T14:52:21Z</time></rtept><rtept lat="38.066081" lon="-105.555234"><ele>2881.0</ele><time>2026-04-10T14:52:21Z</time></rtept><rtept lat="38.066262" lon="-105.555243"><ele>2882.2</ele><time>2026-04-10T14:52:21Z</time></rtept><rtept lat="38.066363" lon="-105.555376"><ele>2880.8</ele><time>2026-04-10T14:52:21Z</time></rtept><rtept lat="38.066476" lon="-105.555595"><ele>2878.0</ele><time>2026-04-10T14:52:21Z</time></rtept><rtept lat="38.066732" lon="-105.5558"><ele>2876.2</ele><time>2026-04-10T14:52:21Z</time></rtept><rtept lat="38.066917" lon="-105.555837"><ele>2875.6</ele><time>2026-04-10T14:52:21Z</time></rtept><rtept lat="38.067124" lon="-105.555825"><ele>2876.0</ele><time>2026-04-10T14:52:21Z</time></rtept><rtept lat="38.067271" lon="-105.555764"><ele>2874.0</ele><time>2026-04-10T14:52:21Z</time></rtept><rtept lat="38.066816" lon="-105.555818"><ele>2875.8</ele><time>2026-04-10T14:52:21Z</time></rtept><rtept lat="38.066914" lon="-105.556233"><ele>2886.4</ele><time>2026-04-10T14:52:21Z</time></rtept><rtept lat="38.066884" lon="-105.556413"><ele>2890.8</ele><time>2026-04-10T14:52:21Z</time></rtept><rtept lat="38.066793" lon="-105.556617"><ele>2895.4</ele><time>2026-04-10T14:52:21Z</time></rtept><rtept lat="38.066779" lon="-105.556629"><ele>2895.4</ele><time>2026-04-10T14:52:21Z</time></rtept></rte></gpx>