<?xml version="1.0" ?><gpx xmlns="http://www.topografix.com/GPX/1/1" creator="GaiaGPS" version="1.1" xmlns:xsi="http://www.w3.org/2001/XMLSchema-instance" xsi:schemaLocation="http://www.topografix.com/GPX/1/1 http://www.topografix.com/GPX/1/1/gpx.xsd"><rte><name>TD04:S1:D4 Big Cottonwood Cr to Hunts Lake Tr</name><desc></desc><extensions><line xmlns="http://www.topografix.com/GPX/gpx_style/0/2"><color>FFEF00</color></line></extensions><rtept lat="38.317116" lon="-105.755989"><ele>2227.6</ele><time>2026-04-10T15:01:56Z</time></rtept><rtept lat="38.317116" lon="-105.755943"><ele>2227.6</ele><time>2026-04-10T15:01:56Z</time></rtept><rtept lat="38.31708" lon="-105.755942"><ele>2228.0</ele><time>2026-04-10T15:01:56Z</time></rtept><rtept lat="38.316988" lon="-105.755855"><ele>2228.0</ele><time>2026-04-10T15:01:56Z</time></rtept><rtept lat="38.316942" lon="-105.755942"><ele>2229.0</ele><time>2026-04-10T15:01:56Z</time></rtept><rtept lat="38.316073" lon="-105.756117"><ele>2238.6</ele><time>2026-04-10T15:01:56Z</time></rtept><rtept lat="38.31514" lon="-105.757109"><ele>2265.6</ele><time>2026-04-10T15:01:56Z</time></rtept><rtept lat="38.314479" lon="-105.75768"><ele>2263.4</ele><time>2026-04-10T15:01:56Z</time></rtept><rtept lat="38.314398" lon="-105.757907"><ele>2266.2</ele><time>2026-04-10T15:01:56Z</time></rtept><rtept lat="38.314304" lon="-105.758115"><ele>2266.6</ele><time>2026-04-10T15:01:56Z</time></rtept><rtept lat="38.314308" lon="-105.758453"><ele>2272.4</ele><time>2026-04-10T15:01:56Z</time></rtept><rtept lat="38.314316" lon="-105.758591"><ele>2273.6</ele><time>2026-04-10T15:01:56Z</time></rtept><rtept lat="38.314303" lon="-105.758936"><ele>2277.2</ele><time>2026-04-10T15:01:56Z</time></rtept><rtept lat="38.314226" lon="-105.759142"><ele>2275.6</ele><time>2026-04-10T15:01:56Z</time></rtept><rtept lat="38.314317" lon="-105.759282"><ele>2278.6</ele><time>2026-04-10T15:01:56Z</time></rtept><rtept lat="38.314414" lon="-105.759542"><ele>2285.8</ele><time>2026-04-10T15:01:56Z</time></rtept><rtept lat="38.314433" lon="-105.759815"><ele>2283.4</ele><time>2026-04-10T15:01:56Z</time></rtept><rtept lat="38.314591" lon="-105.760092"><ele>2293.8</ele><time>2026-04-10T15:01:56Z</time></rtept><rtept lat="38.314715" lon="-105.760663"><ele>2293.0</ele><time>2026-04-10T15:01:56Z</time></rtept><rtept lat="38.314766" lon="-105.760915"><ele>2296.0</ele><time>2026-04-10T15:01:56Z</time></rtept><rtept lat="38.314881" lon="-105.761025"><ele>2302.2</ele><time>2026-04-10T15:01:56Z</time></rtept><rtept lat="38.314894" lon="-105.76125"><ele>2301.4</ele><time>2026-04-10T15:01:56Z</time></rtept><rtept lat="38.315008" lon="-105.761462"><ele>2306.6</ele><time>2026-04-10T15:01:56Z</time></rtept><rtept lat="38.315073" lon="-105.761658"><ele>2309.0</ele><time>2026-04-10T15:01:56Z</time></rtept><rtept lat="38.3151" lon="-105.761883"><ele>2307.8</ele><time>2026-04-10T15:01:56Z</time></rtept><rtept lat="38.315098" lon="-105.76246"><ele>2307.6</ele><time>2026-04-10T15:01:56Z</time></rtept><rtept lat="38.315115" lon="-105.762994"><ele>2312.6</ele><time>2026-04-10T15:01:56Z</time></rtept><rtept lat="38.315146" lon="-105.763198"><ele>2314.6</ele><time>2026-04-10T15:01:56Z</time></rtept><rtept lat="38.315237" lon="-105.763321"><ele>2316.8</ele><time>2026-04-10T15:01:56Z</time></rtept><rtept lat="38.315368" lon="-105.763544"><ele>2321.2</ele><time>2026-04-10T15:01:56Z</time></rtept><rtept lat="38.315428" lon="-105.763753"><ele>2325.4</ele><time>2026-04-10T15:01:56Z</time></rtept><rtept lat="38.315382" lon="-105.763975"><ele>2324.4</ele><time>2026-04-10T15:01:56Z</time></rtept><rtept lat="38.315271" lon="-105.764421"><ele>2330.6</ele><time>2026-04-10T15:01:56Z</time></rtept><rtept lat="38.313276" lon="-105.767666"><ele>2365.0</ele><time>2026-04-10T15:01:56Z</time></rtept><rtept lat="38.31252" lon="-105.768267"><ele>2370.6</ele><time>2026-04-10T15:01:56Z</time></rtept><rtept lat="38.312162" lon="-105.76857"><ele>2376.8</ele><time>2026-04-10T15:01:56Z</time></rtept><rtept lat="38.311977" lon="-105.768846"><ele>2381.8</ele><time>2026-04-10T15:01:56Z</time></rtept><rtept lat="38.31171" lon="-105.769327"><ele>2386.2</ele><time>2026-04-10T15:01:56Z</time></rtept><rtept lat="38.311586" lon="-105.769949"><ele>2401.4</ele><time>2026-04-10T15:01:56Z</time></rtept><rtept lat="38.311524" lon="-105.770855"><ele>2413.0</ele><time>2026-04-10T15:01:56Z</time></rtept><rtept lat="38.311645" lon="-105.771588"><ele>2422.2</ele><time>2026-04-10T15:01:56Z</time></rtept><rtept lat="38.312126" lon="-105.772904"><ele>2427.8</ele><time>2026-04-10T15:01:56Z</time></rtept><rtept lat="38.312352" lon="-105.773068"><ele>2437.0</ele><time>2026-04-10T15:01:56Z</time></rtept><rtept lat="38.312629" lon="-105.773688"><ele>2445.0</ele><time>2026-04-10T15:01:56Z</time></rtept><rtept lat="38.312669" lon="-105.77438"><ele>2444.4</ele><time>2026-04-10T15:01:56Z</time></rtept><rtept lat="38.312674" lon="-105.774573"><ele>2445.2</ele><time>2026-04-10T15:01:56Z</time></rtept><rtept lat="38.312659" lon="-105.775125"><ele>2451.8</ele><time>2026-04-10T15:01:56Z</time></rtept><rtept lat="38.312634" lon="-105.77563"><ele>2457.2</ele><time>2026-04-10T15:01:56Z</time></rtept><rtept lat="38.312486" lon="-105.776104"><ele>2459.6</ele><time>2026-04-10T15:01:56Z</time></rtept><rtept lat="38.31248" lon="-105.776354"><ele>2466.0</ele><time>2026-04-10T15:01:56Z</time></rtept><rtept lat="38.312434" lon="-105.776405"><ele>2468.8</ele><time>2026-04-10T15:01:56Z</time></rtept><rtept lat="38.312242" lon="-105.776727"><ele>2471.6</ele><time>2026-04-10T15:01:56Z</time></rtept><rtept lat="38.312097" lon="-105.776799"><ele>2462.8</ele><time>2026-04-10T15:01:56Z</time></rtept><rtept lat="38.311985" lon="-105.777014"><ele>2464.6</ele><time>2026-04-10T15:01:56Z</time></rtept><rtept lat="38.311722" lon="-105.777397"><ele>2469.4</ele><time>2026-04-10T15:01:56Z</time></rtept><rtept lat="38.311733" lon="-105.777601"><ele>2471.6</ele><time>2026-04-10T15:01:56Z</time></rtept><rtept lat="38.31143" lon="-105.778395"><ele>2490.2</ele><time>2026-04-10T15:01:56Z</time></rtept><rtept lat="38.311167" lon="-105.778752"><ele>2491.2</ele><time>2026-04-10T15:01:56Z</time></rtept><rtept lat="38.310725" lon="-105.779197"><ele>2490.0</ele><time>2026-04-10T15:01:56Z</time></rtept><rtept lat="38.310251" lon="-105.779543"><ele>2504.0</ele><time>2026-04-10T15:01:56Z</time></rtept><rtept lat="38.309367" lon="-105.780307"><ele>2516.2</ele><time>2026-04-10T15:01:56Z</time></rtept><rtept lat="38.308875" lon="-105.780738"><ele>2527.4</ele><time>2026-04-10T15:01:56Z</time></rtept><rtept lat="38.308656" lon="-105.781044"><ele>2532.0</ele><time>2026-04-10T15:01:56Z</time></rtept><rtept lat="38.308298" lon="-105.781709"><ele>2544.2</ele><time>2026-04-10T15:01:56Z</time></rtept><rtept lat="38.308178" lon="-105.781997"><ele>2549.6</ele><time>2026-04-10T15:01:56Z</time></rtept><rtept lat="38.308054" lon="-105.782338"><ele>2553.8</ele><time>2026-04-10T15:01:56Z</time></rtept><rtept lat="38.307943" lon="-105.782634"><ele>2561.8</ele><time>2026-04-10T15:01:56Z</time></rtept><rtept lat="38.307668" lon="-105.782929"><ele>2561.0</ele><time>2026-04-10T15:01:56Z</time></rtept><rtept lat="38.307492" lon="-105.783593"><ele>2575.6</ele><time>2026-04-10T15:01:56Z</time></rtept><rtept lat="38.307317" lon="-105.783971"><ele>2583.2</ele><time>2026-04-10T15:01:56Z</time></rtept><rtept lat="38.307206" lon="-105.784234"><ele>2587.0</ele><time>2026-04-10T15:01:56Z</time></rtept><rtept lat="38.307065" lon="-105.784532"><ele>2592.8</ele><time>2026-04-10T15:01:56Z</time></rtept><rtept lat="38.306877" lon="-105.784816"><ele>2591.8</ele><time>2026-04-10T15:01:56Z</time></rtept><rtept lat="38.306705" lon="-105.785232"><ele>2595.6</ele><time>2026-04-10T15:01:56Z</time></rtept><rtept lat="38.306621" lon="-105.785549"><ele>2600.6</ele><time>2026-04-10T15:01:56Z</time></rtept><rtept lat="38.30637" lon="-105.78627"><ele>2608.6</ele><time>2026-04-10T15:01:56Z</time></rtept><rtept lat="38.306101" lon="-105.786704"><ele>2612.0</ele><time>2026-04-10T15:01:56Z</time></rtept><rtept lat="38.305887" lon="-105.786929"><ele>2617.6</ele><time>2026-04-10T15:01:56Z</time></rtept><rtept lat="38.305859" lon="-105.786986"><ele>2617.6</ele><time>2026-04-10T15:01:56Z</time></rtept><rtept lat="38.305756" lon="-105.787179"><ele>2626.0</ele><time>2026-04-10T15:01:56Z</time></rtept><rtept lat="38.305575" lon="-105.78723"><ele>2629.6</ele><time>2026-04-10T15:01:56Z</time></rtept><rtept lat="38.305486" lon="-105.78734"><ele>2632.6</ele><time>2026-04-10T15:01:56Z</time></rtept><rtept lat="38.305389" lon="-105.787324"><ele>2632.6</ele><time>2026-04-10T15:01:56Z</time></rtept><rtept lat="38.304926" lon="-105.787509"><ele>2637.4</ele><time>2026-04-10T15:01:56Z</time></rtept><rtept lat="38.304882" lon="-105.787563"><ele>2638.8</ele><time>2026-04-10T15:01:56Z</time></rtept><rtept lat="38.304838" lon="-105.787952"><ele>2649.2</ele><time>2026-04-10T15:01:56Z</time></rtept><rtept lat="38.30472" lon="-105.788107"><ele>2652.2</ele><time>2026-04-10T15:01:56Z</time></rtept><rtept lat="38.304583" lon="-105.788003"><ele>2646.2</ele><time>2026-04-10T15:01:56Z</time></rtept><rtept lat="38.304381" lon="-105.788131"><ele>2654.8</ele><time>2026-04-10T15:01:56Z</time></rtept><rtept lat="38.304305" lon="-105.788215"><ele>2659.4</ele><time>2026-04-10T15:01:56Z</time></rtept><rtept lat="38.304329" lon="-105.788335"><ele>2661.8</ele><time>2026-04-10T15:01:56Z</time></rtept><rtept lat="38.30444" lon="-105.788655"><ele>2669.8</ele><time>2026-04-10T15:01:56Z</time></rtept><rtept lat="38.304465" lon="-105.788866"><ele>2674.2</ele><time>2026-04-10T15:01:56Z</time></rtept><rtept lat="38.304592" lon="-105.788971"><ele>2679.8</ele><time>2026-04-10T15:01:56Z</time></rtept><rtept lat="38.304764" lon="-105.788866"><ele>2682.8</ele><time>2026-04-10T15:01:56Z</time></rtept><rtept lat="38.305065" lon="-105.788791"><ele>2685.6</ele><time>2026-04-10T15:01:56Z</time></rtept><rtept lat="38.305351" lon="-105.788754"><ele>2688.8</ele><time>2026-04-10T15:01:56Z</time></rtept><rtept lat="38.305657" lon="-105.788716"><ele>2689.8</ele><time>2026-04-10T15:01:56Z</time></rtept><rtept lat="38.305893" lon="-105.788721"><ele>2693.0</ele><time>2026-04-10T15:01:56Z</time></rtept><rtept lat="38.306225" lon="-105.788821"><ele>2704.8</ele><time>2026-04-10T15:01:56Z</time></rtept><rtept lat="38.306341" lon="-105.788872"><ele>2703.2</ele><time>2026-04-10T15:01:56Z</time></rtept><rtept lat="38.306465" lon="-105.788901"><ele>2703.2</ele><time>2026-04-10T15:01:56Z</time></rtept><rtept lat="38.306611" lon="-105.78898"><ele>2700.6</ele><time>2026-04-10T15:01:56Z</time></rtept><rtept lat="38.306611" lon="-105.78898"><ele>2700.6</ele><time>2026-04-10T15:01:56Z</time></rtept><rtept lat="38.306612" lon="-105.788981"><ele>2700.6</ele><time>2026-04-10T15:01:56Z</time></rtept><rtept lat="38.30672" lon="-105.789127"><ele>2706.0</ele><time>2026-04-10T15:01:56Z</time></rtept><rtept lat="38.306835" lon="-105.789282"><ele>2712.6</ele><time>2026-04-10T15:01:56Z</time></rtept><rtept lat="38.30699" lon="-105.789256"><ele>2720.4</ele><time>2026-04-10T15:01:56Z</time></rtept><rtept lat="38.307178" lon="-105.789202"><ele>2722.2</ele><time>2026-04-10T15:01:56Z</time></rtept><rtept lat="38.307295" lon="-105.788874"><ele>2720.2</ele><time>2026-04-10T15:01:56Z</time></rtept><rtept lat="38.307317" lon="-105.788832"><ele>2722.2</ele><time>2026-04-10T15:01:56Z</time></rtept><rtept lat="38.307427" lon="-105.788719"><ele>2717.4</ele><time>2026-04-10T15:01:56Z</time></rtept><rtept lat="38.307837" lon="-105.788628"><ele>2721.2</ele><time>2026-04-10T15:01:56Z</time></rtept><rtept lat="38.308269" lon="-105.788545"><ele>2723.4</ele><time>2026-04-10T15:01:56Z</time></rtept><rtept lat="38.308666" lon="-105.788671"><ele>2735.0</ele><time>2026-04-10T15:01:56Z</time></rtept><rtept lat="38.308959" lon="-105.788735"><ele>2746.8</ele><time>2026-04-10T15:01:56Z</time></rtept><rtept lat="38.309197" lon="-105.788504"><ele>2749.6</ele><time>2026-04-10T15:01:56Z</time></rtept><rtept lat="38.309365" lon="-105.788169"><ele>2759.6</ele><time>2026-04-10T15:01:56Z</time></rtept><rtept lat="38.309456" lon="-105.787694"><ele>2760.8</ele><time>2026-04-10T15:01:56Z</time></rtept><rtept lat="38.309529" lon="-105.787547"><ele>2764.0</ele><time>2026-04-10T15:01:56Z</time></rtept><rtept lat="38.309801" lon="-105.787249"><ele>2768.6</ele><time>2026-04-10T15:01:56Z</time></rtept><rtept lat="38.309938" lon="-105.787227"><ele>2769.6</ele><time>2026-04-10T15:01:56Z</time></rtept><rtept lat="38.310097" lon="-105.787303"><ele>2771.0</ele><time>2026-04-10T15:01:56Z</time></rtept><rtept lat="38.310218" lon="-105.787348"><ele>2770.4</ele><time>2026-04-10T15:01:56Z</time></rtept><rtept lat="38.310331" lon="-105.787469"><ele>2770.6</ele><time>2026-04-10T15:01:56Z</time></rtept><rtept lat="38.310272" lon="-105.787914"><ele>2775.2</ele><time>2026-04-10T15:01:56Z</time></rtept><rtept lat="38.310138" lon="-105.788429"><ele>2782.8</ele><time>2026-04-10T15:01:56Z</time></rtept><rtept lat="38.310117" lon="-105.788775"><ele>2787.6</ele><time>2026-04-10T15:01:56Z</time></rtept><rtept lat="38.310064" lon="-105.788912"><ele>2792.0</ele><time>2026-04-10T15:01:56Z</time></rtept><rtept lat="38.310051" lon="-105.789008"><ele>2793.2</ele><time>2026-04-10T15:01:56Z</time></rtept><rtept lat="38.309976" lon="-105.788936"><ele>2793.4</ele><time>2026-04-10T15:01:56Z</time></rtept><rtept lat="38.309889" lon="-105.788904"><ele>2794.2</ele><time>2026-04-10T15:01:56Z</time></rtept><rtept lat="38.309828" lon="-105.789025"><ele>2795.8</ele><time>2026-04-10T15:01:56Z</time></rtept><rtept lat="38.309546" lon="-105.789489"><ele>2803.8</ele><time>2026-04-10T15:01:56Z</time></rtept><rtept lat="38.309186" lon="-105.789918"><ele>2812.2</ele><time>2026-04-10T15:01:56Z</time></rtept><rtept lat="38.309012" lon="-105.790224"><ele>2822.6</ele><time>2026-04-10T15:01:56Z</time></rtept><rtept lat="38.308707" lon="-105.791296"><ele>2843.2</ele><time>2026-04-10T15:01:56Z</time></rtept><rtept lat="38.308664" lon="-105.791777"><ele>2847.4</ele><time>2026-04-10T15:01:56Z</time></rtept><rtept lat="38.308725" lon="-105.792066"><ele>2848.0</ele><time>2026-04-10T15:01:56Z</time></rtept><rtept lat="38.308721" lon="-105.792316"><ele>2847.8</ele><time>2026-04-10T15:01:56Z</time></rtept><rtept lat="38.308776" lon="-105.792664"><ele>2844.8</ele><time>2026-04-10T15:01:56Z</time></rtept><rtept lat="38.30874" lon="-105.793048"><ele>2840.4</ele><time>2026-04-10T15:01:56Z</time></rtept><rtept lat="38.308749" lon="-105.793356"><ele>2836.2</ele><time>2026-04-10T15:01:56Z</time></rtept><rtept lat="38.308725" lon="-105.793531"><ele>2836.8</ele><time>2026-04-10T15:01:56Z</time></rtept><rtept lat="38.308656" lon="-105.793815"><ele>2833.4</ele><time>2026-04-10T15:01:56Z</time></rtept><rtept lat="38.308456" lon="-105.794137"><ele>2837.4</ele><time>2026-04-10T15:01:56Z</time></rtept><rtept lat="38.308433" lon="-105.794357"><ele>2834.0</ele><time>2026-04-10T15:01:56Z</time></rtept><rtept lat="38.308431" lon="-105.794705"><ele>2828.4</ele><time>2026-04-10T15:01:56Z</time></rtept><rtept lat="38.30841" lon="-105.794907"><ele>2824.6</ele><time>2026-04-10T15:01:56Z</time></rtept><rtept lat="38.308338" lon="-105.795245"><ele>2824.2</ele><time>2026-04-10T15:01:56Z</time></rtept><rtept lat="38.308216" lon="-105.795451"><ele>2826.6</ele><time>2026-04-10T15:01:56Z</time></rtept><rtept lat="38.308111" lon="-105.795743"><ele>2828.8</ele><time>2026-04-10T15:01:56Z</time></rtept><rtept lat="38.308147" lon="-105.79599"><ele>2823.4</ele><time>2026-04-10T15:01:56Z</time></rtept><rtept lat="38.308107" lon="-105.796291"><ele>2822.0</ele><time>2026-04-10T15:01:56Z</time></rtept><rtept lat="38.308071" lon="-105.796642"><ele>2816.8</ele><time>2026-04-10T15:01:56Z</time></rtept><rtept lat="38.308081" lon="-105.796873"><ele>2814.2</ele><time>2026-04-10T15:01:56Z</time></rtept><rtept lat="38.307995" lon="-105.797066"><ele>2812.6</ele><time>2026-04-10T15:01:56Z</time></rtept><rtept lat="38.307923" lon="-105.797286"><ele>2813.8</ele><time>2026-04-10T15:01:56Z</time></rtept><rtept lat="38.30774" lon="-105.797592"><ele>2819.4</ele><time>2026-04-10T15:01:56Z</time></rtept><rtept lat="38.307755" lon="-105.79797"><ele>2817.2</ele><time>2026-04-10T15:01:56Z</time></rtept><rtept lat="38.307782" lon="-105.798351"><ele>2814.0</ele><time>2026-04-10T15:01:56Z</time></rtept><rtept lat="38.307877" lon="-105.799037"><ele>2803.8</ele><time>2026-04-10T15:01:56Z</time></rtept><rtept lat="38.307947" lon="-105.799429"><ele>2799.4</ele><time>2026-04-10T15:01:56Z</time></rtept><rtept lat="38.308008" lon="-105.799727"><ele>2795.0</ele><time>2026-04-10T15:01:56Z</time></rtept><rtept lat="38.308075" lon="-105.799944"><ele>2790.2</ele><time>2026-04-10T15:01:56Z</time></rtept><rtept lat="38.30802" lon="-105.800078"><ele>2791.8</ele><time>2026-04-10T15:01:56Z</time></rtept><rtept lat="38.307938" lon="-105.80037"><ele>2791.8</ele><time>2026-04-10T15:01:56Z</time></rtept><rtept lat="38.307865" lon="-105.800614"><ele>2791.6</ele><time>2026-04-10T15:01:56Z</time></rtept><rtept lat="38.307888" lon="-105.801011"><ele>2784.0</ele><time>2026-04-10T15:01:56Z</time></rtept><rtept lat="38.30778" lon="-105.801277"><ele>2785.4</ele><time>2026-04-10T15:01:56Z</time></rtept><rtept lat="38.307757" lon="-105.801462"><ele>2782.2</ele><time>2026-04-10T15:01:56Z</time></rtept><rtept lat="38.30777" lon="-105.801827"><ele>2779.8</ele><time>2026-04-10T15:01:56Z</time></rtept><rtept lat="38.30774" lon="-105.801937"><ele>2779.4</ele><time>2026-04-10T15:01:56Z</time></rtept><rtept lat="38.307738" lon="-105.802154"><ele>2778.2</ele><time>2026-04-10T15:01:56Z</time></rtept><rtept lat="38.307703" lon="-105.80257"><ele>2779.4</ele><time>2026-04-10T15:01:56Z</time></rtept><rtept lat="38.307616" lon="-105.802862"><ele>2780.4</ele><time>2026-04-10T15:01:56Z</time></rtept><rtept lat="38.307303" lon="-105.802994"><ele>2784.2</ele><time>2026-04-10T15:01:56Z</time></rtept><rtept lat="38.307098" lon="-105.803189"><ele>2779.6</ele><time>2026-04-10T15:01:56Z</time></rtept><rtept lat="38.306978" lon="-105.803366"><ele>2781.6</ele><time>2026-04-10T15:01:56Z</time></rtept><rtept lat="38.306919" lon="-105.803643"><ele>2780.0</ele><time>2026-04-10T15:01:56Z</time></rtept><rtept lat="38.306829" lon="-105.803873"><ele>2784.8</ele><time>2026-04-10T15:01:56Z</time></rtept><rtept lat="38.306863" lon="-105.804085"><ele>2779.8</ele><time>2026-04-10T15:01:56Z</time></rtept><rtept lat="38.306777" lon="-105.804642"><ele>2776.6</ele><time>2026-04-10T15:01:56Z</time></rtept><rtept lat="38.30698" lon="-105.805168"><ele>2766.8</ele><time>2026-04-10T15:01:56Z</time></rtept><rtept lat="38.307184" lon="-105.805673"><ele>2760.0</ele><time>2026-04-10T15:01:56Z</time></rtept><rtept lat="38.307156" lon="-105.805959"><ele>2765.0</ele><time>2026-04-10T15:01:56Z</time></rtept><rtept lat="38.307114" lon="-105.806303"><ele>2766.4</ele><time>2026-04-10T15:01:56Z</time></rtept><rtept lat="38.306807" lon="-105.807017"><ele>2765.6</ele><time>2026-04-10T15:01:56Z</time></rtept><rtept lat="38.306616" lon="-105.807847"><ele>2759.0</ele><time>2026-04-10T15:01:56Z</time></rtept><rtept lat="38.306653" lon="-105.807997"><ele>2761.2</ele><time>2026-04-10T15:01:56Z</time></rtept><rtept lat="38.306791" lon="-105.808186"><ele>2758.6</ele><time>2026-04-10T15:01:56Z</time></rtept><rtept lat="38.306762" lon="-105.808291"><ele>2761.0</ele><time>2026-04-10T15:01:56Z</time></rtept><rtept lat="38.306827" lon="-105.808449"><ele>2756.4</ele><time>2026-04-10T15:01:56Z</time></rtept><rtept lat="38.306701" lon="-105.808484"><ele>2761.2</ele><time>2026-04-10T15:01:56Z</time></rtept><rtept lat="38.306553" lon="-105.808589"><ele>2765.8</ele><time>2026-04-10T15:01:56Z</time></rtept><rtept lat="38.30629" lon="-105.808675"><ele>2778.2</ele><time>2026-04-10T15:01:56Z</time></rtept><rtept lat="38.3062" lon="-105.808884"><ele>2779.4</ele><time>2026-04-10T15:01:56Z</time></rtept><rtept lat="38.306198" lon="-105.809235"><ele>2775.2</ele><time>2026-04-10T15:01:56Z</time></rtept><rtept lat="38.30636" lon="-105.809297"><ele>2771.0</ele><time>2026-04-10T15:01:56Z</time></rtept><rtept lat="38.306852" lon="-105.809251"><ele>2746.2</ele><time>2026-04-10T15:01:56Z</time></rtept><rtept lat="38.307" lon="-105.809595"><ele>2748.6</ele><time>2026-04-10T15:01:56Z</time></rtept><rtept lat="38.307281" lon="-105.81004"><ele>2743.0</ele><time>2026-04-10T15:01:56Z</time></rtept><rtept lat="38.307618" lon="-105.810619"><ele>2735.6</ele><time>2026-04-10T15:01:56Z</time></rtept><rtept lat="38.307759" lon="-105.811231"><ele>2737.0</ele><time>2026-04-10T15:01:56Z</time></rtept><rtept lat="38.307803" lon="-105.811598"><ele>2737.4</ele><time>2026-04-10T15:01:56Z</time></rtept><rtept lat="38.307787" lon="-105.811998"><ele>2740.6</ele><time>2026-04-10T15:01:56Z</time></rtept><rtept lat="38.307953" lon="-105.812293"><ele>2742.8</ele><time>2026-04-10T15:01:56Z</time></rtept><rtept lat="38.308068" lon="-105.812431"><ele>2751.0</ele><time>2026-04-10T15:01:56Z</time></rtept><rtept lat="38.308249" lon="-105.812565"><ele>2755.2</ele><time>2026-04-10T15:01:56Z</time></rtept><rtept lat="38.308405" lon="-105.812613"><ele>2759.2</ele><time>2026-04-10T15:01:56Z</time></rtept><rtept lat="38.30849" lon="-105.812403"><ele>2747.8</ele><time>2026-04-10T15:01:56Z</time></rtept><rtept lat="38.308542" lon="-105.812325"><ele>2744.2</ele><time>2026-04-10T15:01:56Z</time></rtept><rtept lat="38.308696" lon="-105.812325"><ele>2744.8</ele><time>2026-04-10T15:01:56Z</time></rtept><rtept lat="38.309325" lon="-105.812102"><ele>2746.2</ele><time>2026-04-10T15:01:56Z</time></rtept><rtept lat="38.309837" lon="-105.811896"><ele>2745.0</ele><time>2026-04-10T15:01:56Z</time></rtept><rtept lat="38.309986" lon="-105.811899"><ele>2745.0</ele><time>2026-04-10T15:01:56Z</time></rtept><rtept lat="38.310144" lon="-105.81199"><ele>2746.2</ele><time>2026-04-10T15:01:56Z</time></rtept><rtept lat="38.31023" lon="-105.812191"><ele>2744.2</ele><time>2026-04-10T15:01:56Z</time></rtept><rtept lat="38.310317" lon="-105.812545"><ele>2741.2</ele><time>2026-04-10T15:01:56Z</time></rtept><rtept lat="38.310418" lon="-105.812993"><ele>2734.0</ele><time>2026-04-10T15:01:56Z</time></rtept><rtept lat="38.310436" lon="-105.813315"><ele>2736.2</ele><time>2026-04-10T15:01:56Z</time></rtept><rtept lat="38.310514" lon="-105.813489"><ele>2736.4</ele><time>2026-04-10T15:01:56Z</time></rtept><rtept lat="38.310613" lon="-105.813569"><ele>2735.6</ele><time>2026-04-10T15:01:56Z</time></rtept><rtept lat="38.310803" lon="-105.81372"><ele>2735.8</ele><time>2026-04-10T15:01:56Z</time></rtept><rtept lat="38.311034" lon="-105.813865"><ele>2731.6</ele><time>2026-04-10T15:01:56Z</time></rtept><rtept lat="38.31115" lon="-105.814028"><ele>2736.4</ele><time>2026-04-10T15:01:56Z</time></rtept><rtept lat="38.311384" lon="-105.814178"><ele>2738.0</ele><time>2026-04-10T15:01:56Z</time></rtept><rtept lat="38.311569" lon="-105.814221"><ele>2738.4</ele><time>2026-04-10T15:01:56Z</time></rtept><rtept lat="38.311802" lon="-105.814261"><ele>2736.2</ele><time>2026-04-10T15:01:56Z</time></rtept><rtept lat="38.311883" lon="-105.814233"><ele>2735.4</ele><time>2026-04-10T15:01:56Z</time></rtept><rtept lat="38.312051" lon="-105.814306"><ele>2736.6</ele><time>2026-04-10T15:01:56Z</time></rtept><rtept lat="38.312165" lon="-105.814271"><ele>2732.0</ele><time>2026-04-10T15:01:56Z</time></rtept><rtept lat="38.312324" lon="-105.814311"><ele>2734.0</ele><time>2026-04-10T15:01:56Z</time></rtept><rtept lat="38.312493" lon="-105.81431"><ele>2732.6</ele><time>2026-04-10T15:01:56Z</time></rtept><rtept lat="38.312657" lon="-105.814436"><ele>2733.6</ele><time>2026-04-10T15:01:56Z</time></rtept><rtept lat="38.312769" lon="-105.814586"><ele>2737.4</ele><time>2026-04-10T15:01:56Z</time></rtept><rtept lat="38.312894" lon="-105.814594"><ele>2734.6</ele><time>2026-04-10T15:01:56Z</time></rtept><rtept lat="38.312932" lon="-105.814561"><ele>2730.6</ele><time>2026-04-10T15:01:56Z</time></rtept><rtept lat="38.31305" lon="-105.814581"><ele>2730.8</ele><time>2026-04-10T15:01:56Z</time></rtept><rtept lat="38.313216" lon="-105.814542"><ele>2727.4</ele><time>2026-04-10T15:01:56Z</time></rtept><rtept lat="38.313335" lon="-105.814618"><ele>2729.0</ele><time>2026-04-10T15:01:56Z</time></rtept><rtept lat="38.313457" lon="-105.814607"><ele>2728.6</ele><time>2026-04-10T15:01:56Z</time></rtept><rtept lat="38.313537" lon="-105.814629"><ele>2728.0</ele><time>2026-04-10T15:01:56Z</time></rtept><rtept lat="38.31364" lon="-105.814716"><ele>2727.2</ele><time>2026-04-10T15:01:56Z</time></rtept><rtept lat="38.313983" lon="-105.814614"><ele>2721.8</ele><time>2026-04-10T15:01:56Z</time></rtept><rtept lat="38.314204" lon="-105.814528"><ele>2717.6</ele><time>2026-04-10T15:01:56Z</time></rtept><rtept lat="38.314301" lon="-105.814414"><ele>2717.4</ele><time>2026-04-10T15:01:56Z</time></rtept><rtept lat="38.314356" lon="-105.814278"><ele>2718.4</ele><time>2026-04-10T15:01:56Z</time></rtept><rtept lat="38.31429" lon="-105.814086"><ele>2725.8</ele><time>2026-04-10T15:01:56Z</time></rtept><rtept lat="38.314294" lon="-105.813929"><ele>2728.4</ele><time>2026-04-10T15:01:56Z</time></rtept><rtept lat="38.314341" lon="-105.813832"><ele>2723.8</ele><time>2026-04-10T15:01:56Z</time></rtept><rtept lat="38.314484" lon="-105.813734"><ele>2719.8</ele><time>2026-04-10T15:01:56Z</time></rtept><rtept lat="38.31461" lon="-105.81376"><ele>2718.8</ele><time>2026-04-10T15:01:56Z</time></rtept><rtept lat="38.314761" lon="-105.813789"><ele>2718.4</ele><time>2026-04-10T15:01:56Z</time></rtept><rtept lat="38.314957" lon="-105.813746"><ele>2717.6</ele><time>2026-04-10T15:01:56Z</time></rtept><rtept lat="38.315117" lon="-105.813725"><ele>2717.4</ele><time>2026-04-10T15:01:56Z</time></rtept><rtept lat="38.315349" lon="-105.813776"><ele>2717.0</ele><time>2026-04-10T15:01:56Z</time></rtept><rtept lat="38.315635" lon="-105.81383"><ele>2714.4</ele><time>2026-04-10T15:01:56Z</time></rtept><rtept lat="38.315767" lon="-105.813883"><ele>2711.6</ele><time>2026-04-10T15:01:56Z</time></rtept><rtept lat="38.316051" lon="-105.813908"><ele>2710.6</ele><time>2026-04-10T15:01:56Z</time></rtept><rtept lat="38.316403" lon="-105.813755"><ele>2713.2</ele><time>2026-04-10T15:01:56Z</time></rtept><rtept lat="38.31654" lon="-105.813693"><ele>2714.0</ele><time>2026-04-10T15:01:56Z</time></rtept><rtept lat="38.316622" lon="-105.813712"><ele>2712.2</ele><time>2026-04-10T15:01:56Z</time></rtept><rtept lat="38.31683" lon="-105.813805"><ele>2710.8</ele><time>2026-04-10T15:01:56Z</time></rtept><rtept lat="38.31696" lon="-105.813867"><ele>2710.8</ele><time>2026-04-10T15:01:56Z</time></rtept><rtept lat="38.317106" lon="-105.813859"><ele>2710.2</ele><time>2026-04-10T15:01:56Z</time></rtept><rtept lat="38.317501" lon="-105.813722"><ele>2705.8</ele><time>2026-04-10T15:01:56Z</time></rtept><rtept lat="38.318008" lon="-105.813685"><ele>2704.0</ele><time>2026-04-10T15:01:56Z</time></rtept><rtept lat="38.318158" lon="-105.813736"><ele>2702.6</ele><time>2026-04-10T15:01:56Z</time></rtept><rtept lat="38.318324" lon="-105.813693"><ele>2702.4</ele><time>2026-04-10T15:01:56Z</time></rtept><rtept lat="38.318486" lon="-105.813746"><ele>2701.2</ele><time>2026-04-10T15:01:56Z</time></rtept><rtept lat="38.318751" lon="-105.813846"><ele>2699.0</ele><time>2026-04-10T15:01:56Z</time></rtept><rtept lat="38.319023" lon="-105.813776"><ele>2697.2</ele><time>2026-04-10T15:01:56Z</time></rtept><rtept lat="38.319452" lon="-105.813403"><ele>2694.0</ele><time>2026-04-10T15:01:56Z</time></rtept><rtept lat="38.31994" lon="-105.812915"><ele>2686.4</ele><time>2026-04-10T15:01:56Z</time></rtept><rtept lat="38.320197" lon="-105.812639"><ele>2680.2</ele><time>2026-04-10T15:01:56Z</time></rtept><rtept lat="38.320347" lon="-105.812395"><ele>2675.4</ele><time>2026-04-10T15:01:56Z</time></rtept><rtept lat="38.32049" lon="-105.812186"><ele>2671.4</ele><time>2026-04-10T15:01:56Z</time></rtept><rtept lat="38.320746" lon="-105.812277"><ele>2667.4</ele><time>2026-04-10T15:01:56Z</time></rtept><rtept lat="38.321117" lon="-105.812282"><ele>2662.0</ele><time>2026-04-10T15:01:56Z</time></rtept><rtept lat="38.321306" lon="-105.812448"><ele>2660.2</ele><time>2026-04-10T15:01:56Z</time></rtept><rtept lat="38.321588" lon="-105.812202"><ele>2655.0</ele><time>2026-04-10T15:01:56Z</time></rtept><rtept lat="38.321862" lon="-105.812228"><ele>2651.0</ele><time>2026-04-10T15:01:56Z</time></rtept><rtept lat="38.322064" lon="-105.812068"><ele>2649.4</ele><time>2026-04-10T15:01:56Z</time></rtept><rtept lat="38.322573" lon="-105.811826"><ele>2644.8</ele><time>2026-04-10T15:01:56Z</time></rtept><rtept lat="38.322968" lon="-105.811778"><ele>2640.2</ele><time>2026-04-10T15:01:56Z</time></rtept><rtept lat="38.323309" lon="-105.81189"><ele>2633.8</ele><time>2026-04-10T15:01:56Z</time></rtept><rtept lat="38.323856" lon="-105.811772"><ele>2625.8</ele><time>2026-04-10T15:01:56Z</time></rtept><rtept lat="38.324383" lon="-105.811805"><ele>2617.2</ele><time>2026-04-10T15:01:56Z</time></rtept><rtept lat="38.324787" lon="-105.81173"><ele>2611.0</ele><time>2026-04-10T15:01:56Z</time></rtept><rtept lat="38.325026" lon="-105.811499"><ele>2615.4</ele><time>2026-04-10T15:01:56Z</time></rtept><rtept lat="38.325224" lon="-105.811558"><ele>2608.4</ele><time>2026-04-10T15:01:56Z</time></rtept><rtept lat="38.324993" lon="-105.812019"><ele>2600.2</ele><time>2026-04-10T15:01:56Z</time></rtept><rtept lat="38.324845" lon="-105.812143"><ele>2599.6</ele><time>2026-04-10T15:01:56Z</time></rtept><rtept lat="38.324833" lon="-105.812593"><ele>2583.8</ele><time>2026-04-10T15:01:56Z</time></rtept><rtept lat="38.324568" lon="-105.812861"><ele>2579.0</ele><time>2026-04-10T15:01:56Z</time></rtept><rtept lat="38.324088" lon="-105.812985"><ele>2581.0</ele><time>2026-04-10T15:01:56Z</time></rtept><rtept lat="38.323882" lon="-105.813199"><ele>2573.6</ele><time>2026-04-10T15:01:56Z</time></rtept><rtept lat="38.323806" lon="-105.813586"><ele>2568.2</ele><time>2026-04-10T15:01:56Z</time></rtept><rtept lat="38.323726" lon="-105.813999"><ele>2557.8</ele><time>2026-04-10T15:01:56Z</time></rtept><rtept lat="38.323436" lon="-105.814412"><ele>2550.0</ele><time>2026-04-10T15:01:56Z</time></rtept><rtept lat="38.323221" lon="-105.815082"><ele>2529.8</ele><time>2026-04-10T15:01:56Z</time></rtept><rtept lat="38.323023" lon="-105.815769"><ele>2521.6</ele><time>2026-04-10T15:01:56Z</time></rtept><rtept lat="38.322918" lon="-105.816488"><ele>2517.2</ele><time>2026-04-10T15:01:56Z</time></rtept><rtept lat="38.322872" lon="-105.817099"><ele>2509.0</ele><time>2026-04-10T15:01:56Z</time></rtept><rtept lat="38.32275" lon="-105.817684"><ele>2502.0</ele><time>2026-04-10T15:01:56Z</time></rtept><rtept lat="38.32251" lon="-105.818242"><ele>2497.4</ele><time>2026-04-10T15:01:56Z</time></rtept><rtept lat="38.322455" lon="-105.818966"><ele>2478.6</ele><time>2026-04-10T15:01:56Z</time></rtept><rtept lat="38.322299" lon="-105.819873"><ele>2458.0</ele><time>2026-04-10T15:01:56Z</time></rtept><rtept lat="38.322076" lon="-105.820297"><ele>2451.2</ele><time>2026-04-10T15:01:56Z</time></rtept><rtept lat="38.321845" lon="-105.820634"><ele>2446.2</ele><time>2026-04-10T15:01:56Z</time></rtept><rtept lat="38.321767" lon="-105.820693"><ele>2444.8</ele><time>2026-04-10T15:01:56Z</time></rtept><rtept lat="38.321617" lon="-105.820742"><ele>2443.8</ele><time>2026-04-10T15:01:56Z</time></rtept><rtept lat="38.321409" lon="-105.820785"><ele>2444.6</ele><time>2026-04-10T15:01:56Z</time></rtept><rtept lat="38.321165" lon="-105.820825"><ele>2441.8</ele><time>2026-04-10T15:01:56Z</time></rtept><rtept lat="38.32107" lon="-105.820959"><ele>2437.0</ele><time>2026-04-10T15:01:56Z</time></rtept><rtept lat="38.321033" lon="-105.821187"><ele>2429.2</ele><time>2026-04-10T15:01:56Z</time></rtept><rtept lat="38.320976" lon="-105.821364"><ele>2424.8</ele><time>2026-04-10T15:01:56Z</time></rtept><rtept lat="38.320925" lon="-105.821471"><ele>2421.6</ele><time>2026-04-10T15:01:56Z</time></rtept><rtept lat="38.320624" lon="-105.821597"><ele>2421.0</ele><time>2026-04-10T15:01:56Z</time></rtept><rtept lat="38.32046" lon="-105.821697"><ele>2414.4</ele><time>2026-04-10T15:01:56Z</time></rtept><rtept lat="38.320315" lon="-105.821943"><ele>2410.8</ele><time>2026-04-10T15:01:56Z</time></rtept><rtept lat="38.320264" lon="-105.82215"><ele>2407.6</ele><time>2026-04-10T15:01:56Z</time></rtept><rtept lat="38.320227" lon="-105.822394"><ele>2404.2</ele><time>2026-04-10T15:01:56Z</time></rtept><rtept lat="38.320283" lon="-105.822705"><ele>2407.0</ele><time>2026-04-10T15:01:56Z</time></rtept><rtept lat="38.320932" lon="-105.822511"><ele>2398.4</ele><time>2026-04-10T15:01:56Z</time></rtept><rtept lat="38.321486" lon="-105.822379"><ele>2393.2</ele><time>2026-04-10T15:01:56Z</time></rtept><rtept lat="38.32248" lon="-105.822465"><ele>2389.2</ele><time>2026-04-10T15:01:56Z</time></rtept><rtept lat="38.323092" lon="-105.822178"><ele>2380.6</ele><time>2026-04-10T15:01:56Z</time></rtept><rtept lat="38.323897" lon="-105.821624"><ele>2374.0</ele><time>2026-04-10T15:01:56Z</time></rtept><rtept lat="38.32423" lon="-105.821249"><ele>2367.4</ele><time>2026-04-10T15:01:56Z</time></rtept><rtept lat="38.324465" lon="-105.821142"><ele>2364.6</ele><time>2026-04-10T15:01:56Z</time></rtept><rtept lat="38.324847" lon="-105.820967"><ele>2361.8</ele><time>2026-04-10T15:01:56Z</time></rtept><rtept lat="38.32554" lon="-105.820638"><ele>2354.2</ele><time>2026-04-10T15:01:56Z</time></rtept><rtept lat="38.325835" lon="-105.820483"><ele>2349.2</ele><time>2026-04-10T15:01:56Z</time></rtept><rtept lat="38.3262" lon="-105.820289"><ele>2346.2</ele><time>2026-04-10T15:01:56Z</time></rtept><rtept lat="38.327263" lon="-105.819653"><ele>2336.6</ele><time>2026-04-10T15:01:56Z</time></rtept><rtept lat="38.327569" lon="-105.819512"><ele>2333.8</ele><time>2026-04-10T15:01:56Z</time></rtept><rtept lat="38.327834" lon="-105.819478"><ele>2332.8</ele><time>2026-04-10T15:01:56Z</time></rtept><rtept lat="38.328142" lon="-105.819488"><ele>2332.8</ele><time>2026-04-10T15:01:56Z</time></rtept><rtept lat="38.328534" lon="-105.819413"><ele>2332.0</ele><time>2026-04-10T15:01:56Z</time></rtept><rtept lat="38.328567" lon="-105.819407"><ele>2332.0</ele><time>2026-04-10T15:01:56Z</time></rtept><rtept lat="38.328943" lon="-105.819255"><ele>2330.0</ele><time>2026-04-10T15:01:56Z</time></rtept><rtept lat="38.328855" lon="-105.819686"><ele>2333.4</ele><time>2026-04-10T15:01:56Z</time></rtept><rtept lat="38.328855" lon="-105.819686"><ele>2333.4</ele><time>2026-04-10T15:01:56Z</time></rtept><rtept lat="38.328943" lon="-105.819255"><ele>2330.0</ele><time>2026-04-10T15:01:56Z</time></rtept><rtept lat="38.329126" lon="-105.81898"><ele>2327.6</ele><time>2026-04-10T15:01:56Z</time></rtept><rtept lat="38.329191" lon="-105.818882"><ele>2326.4</ele><time>2026-04-10T15:01:56Z</time></rtept><rtept lat="38.329398" lon="-105.818602"><ele>2324.4</ele><time>2026-04-10T15:01:56Z</time></rtept><rtept lat="38.329793" lon="-105.817375"><ele>2315.8</ele><time>2026-04-10T15:01:56Z</time></rtept><rtept lat="38.329797" lon="-105.817364"><ele>2315.8</ele><time>2026-04-10T15:01:56Z</time></rtept><rtept lat="38.329884" lon="-105.817169"><ele>2314.2</ele><time>2026-04-10T15:01:56Z</time></rtept><rtept lat="38.330245" lon="-105.82027"><ele>2349.2</ele><time>2026-04-10T15:01:56Z</time></rtept><rtept lat="38.334924" lon="-105.826128"><ele>2426.4</ele><time>2026-04-10T15:01:56Z</time></rtept><rtept lat="38.33467" lon="-105.828691"><ele>2445.2</ele><time>2026-04-10T15:01:56Z</time></rtept><rtept lat="38.334661" lon="-105.828789"><ele>2446.2</ele><time>2026-04-10T15:01:56Z</time></rtept><rtept lat="38.334743" lon="-105.828953"><ele>2447.0</ele><time>2026-04-10T15:01:56Z</time></rtept><rtept lat="38.334799" lon="-105.829065"><ele>2446.8</ele><time>2026-04-10T15:01:56Z</time></rtept><rtept lat="38.335041" lon="-105.82934"><ele>2446.4</ele><time>2026-04-10T15:01:56Z</time></rtept><rtept lat="38.335063" lon="-105.829812"><ele>2449.4</ele><time>2026-04-10T15:01:56Z</time></rtept><rtept lat="38.335014" lon="-105.830205"><ele>2454.0</ele><time>2026-04-10T15:01:56Z</time></rtept><rtept lat="38.335084" lon="-105.830429"><ele>2456.0</ele><time>2026-04-10T15:01:56Z</time></rtept><rtept lat="38.335365" lon="-105.830417"><ele>2459.6</ele><time>2026-04-10T15:01:56Z</time></rtept><rtept lat="38.335548" lon="-105.830882"><ele>2468.8</ele><time>2026-04-10T15:01:56Z</time></rtept><rtept lat="38.335594" lon="-105.83096"><ele>2470.8</ele><time>2026-04-10T15:01:56Z</time></rtept><rtept lat="38.336129" lon="-105.831712"><ele>2478.6</ele><time>2026-04-10T15:01:56Z</time></rtept><rtept lat="38.336619" lon="-105.832204"><ele>2483.6</ele><time>2026-04-10T15:01:56Z</time></rtept><rtept lat="38.337064" lon="-105.832462"><ele>2484.8</ele><time>2026-04-10T15:01:56Z</time></rtept><rtept lat="38.337241" lon="-105.832851"><ele>2491.8</ele><time>2026-04-10T15:01:56Z</time></rtept><rtept lat="38.337742" lon="-105.833516"><ele>2501.4</ele><time>2026-04-10T15:01:56Z</time></rtept><rtept lat="38.337976" lon="-105.833568"><ele>2501.6</ele><time>2026-04-10T15:01:56Z</time></rtept><rtept lat="38.338209" lon="-105.833425"><ele>2496.8</ele><time>2026-04-10T15:01:56Z</time></rtept><rtept lat="38.338187" lon="-105.833281"><ele>2496.0</ele><time>2026-04-10T15:01:56Z</time></rtept><rtept lat="38.338247" lon="-105.833211"><ele>2494.8</ele><time>2026-04-10T15:01:56Z</time></rtept><rtept lat="38.338394" lon="-105.833299"><ele>2496.2</ele><time>2026-04-10T15:01:56Z</time></rtept><rtept lat="38.338513" lon="-105.83337"><ele>2498.2</ele><time>2026-04-10T15:01:56Z</time></rtept><rtept lat="38.338719" lon="-105.833486"><ele>2501.0</ele><time>2026-04-10T15:01:56Z</time></rtept><rtept lat="38.338927" lon="-105.833515"><ele>2501.8</ele><time>2026-04-10T15:01:56Z</time></rtept><rtept lat="38.339081" lon="-105.833459"><ele>2506.0</ele><time>2026-04-10T15:01:56Z</time></rtept><rtept lat="38.339113" lon="-105.833688"><ele>2506.6</ele><time>2026-04-10T15:01:56Z</time></rtept><rtept lat="38.339285" lon="-105.833951"><ele>2511.8</ele><time>2026-04-10T15:01:56Z</time></rtept><rtept lat="38.339336" lon="-105.833995"><ele>2514.0</ele><time>2026-04-10T15:01:56Z</time></rtept><rtept lat="38.339495" lon="-105.834135"><ele>2517.8</ele><time>2026-04-10T15:01:56Z</time></rtept><rtept lat="38.339617" lon="-105.834192"><ele>2518.4</ele><time>2026-04-10T15:01:56Z</time></rtept><rtept lat="38.339818" lon="-105.834286"><ele>2522.0</ele><time>2026-04-10T15:01:56Z</time></rtept><rtept lat="38.339944" lon="-105.834633"><ele>2527.4</ele><time>2026-04-10T15:01:56Z</time></rtept><rtept lat="38.340012" lon="-105.834665"><ele>2528.4</ele><time>2026-04-10T15:01:56Z</time></rtept><rtept lat="38.340272" lon="-105.834576"><ele>2531.8</ele><time>2026-04-10T15:01:56Z</time></rtept><rtept lat="38.340528" lon="-105.834702"><ele>2537.0</ele><time>2026-04-10T15:01:56Z</time></rtept><rtept lat="38.340849" lon="-105.83521"><ele>2547.0</ele><time>2026-04-10T15:01:56Z</time></rtept><rtept lat="38.341243" lon="-105.835585"><ele>2556.4</ele><time>2026-04-10T15:01:56Z</time></rtept><rtept lat="38.341498" lon="-105.836343"><ele>2561.0</ele><time>2026-04-10T15:01:56Z</time></rtept><rtept lat="38.341663" lon="-105.837063"><ele>2569.4</ele><time>2026-04-10T15:01:56Z</time></rtept><rtept lat="38.341709" lon="-105.837267"><ele>2570.4</ele><time>2026-04-10T15:01:56Z</time></rtept><rtept lat="38.341725" lon="-105.837719"><ele>2574.2</ele><time>2026-04-10T15:01:56Z</time></rtept><rtept lat="38.341731" lon="-105.8382"><ele>2577.8</ele><time>2026-04-10T15:01:56Z</time></rtept><rtept lat="38.341984" lon="-105.8394"><ele>2595.8</ele><time>2026-04-10T15:01:56Z</time></rtept><rtept lat="38.342112" lon="-105.840008"><ele>2607.6</ele><time>2026-04-10T15:01:56Z</time></rtept><rtept lat="38.342207" lon="-105.840462"><ele>2615.2</ele><time>2026-04-10T15:01:56Z</time></rtept><rtept lat="38.342984" lon="-105.841033"><ele>2627.8</ele><time>2026-04-10T15:01:56Z</time></rtept><rtept lat="38.343171" lon="-105.8411"><ele>2631.8</ele><time>2026-04-10T15:01:56Z</time></rtept><rtept lat="38.343732" lon="-105.841302"><ele>2638.6</ele><time>2026-04-10T15:01:56Z</time></rtept><rtept lat="38.344141" lon="-105.841536"><ele>2642.0</ele><time>2026-04-10T15:01:56Z</time></rtept><rtept lat="38.344262" lon="-105.841606"><ele>2642.4</ele><time>2026-04-10T15:01:56Z</time></rtept><rtept lat="38.34455" lon="-105.84177"><ele>2642.4</ele><time>2026-04-10T15:01:56Z</time></rtept><rtept lat="38.344994" lon="-105.842236"><ele>2650.6</ele><time>2026-04-10T15:01:56Z</time></rtept><rtept lat="38.345472" lon="-105.843041"><ele>2666.0</ele><time>2026-04-10T15:01:56Z</time></rtept><rtept lat="38.345772" lon="-105.843989"><ele>2684.2</ele><time>2026-04-10T15:01:56Z</time></rtept><rtept lat="38.346275" lon="-105.844843"><ele>2700.4</ele><time>2026-04-10T15:01:56Z</time></rtept><rtept lat="38.346922" lon="-105.846435"><ele>2728.4</ele><time>2026-04-10T15:01:56Z</time></rtept><rtept lat="38.347072" lon="-105.846545"><ele>2728.0</ele><time>2026-04-10T15:01:56Z</time></rtept><rtept lat="38.347144" lon="-105.846784"><ele>2733.8</ele><time>2026-04-10T15:01:56Z</time></rtept><rtept lat="38.347183" lon="-105.847041"><ele>2738.8</ele><time>2026-04-10T15:01:56Z</time></rtept><rtept lat="38.347296" lon="-105.84723"><ele>2742.2</ele><time>2026-04-10T15:01:56Z</time></rtept><rtept lat="38.347262" lon="-105.847382"><ele>2747.2</ele><time>2026-04-10T15:01:56Z</time></rtept><rtept lat="38.347226" lon="-105.847502"><ele>2751.0</ele><time>2026-04-10T15:01:56Z</time></rtept><rtept lat="38.347259" lon="-105.847641"><ele>2755.0</ele><time>2026-04-10T15:01:56Z</time></rtept><rtept lat="38.347365" lon="-105.84769"><ele>2753.2</ele><time>2026-04-10T15:01:56Z</time></rtept><rtept lat="38.347507" lon="-105.847678"><ele>2748.8</ele><time>2026-04-10T15:01:56Z</time></rtept><rtept lat="38.347605" lon="-105.847866"><ele>2754.0</ele><time>2026-04-10T15:01:56Z</time></rtept><rtept lat="38.34763" lon="-105.8481"><ele>2759.6</ele><time>2026-04-10T15:01:56Z</time></rtept><rtept lat="38.347684" lon="-105.848355"><ele>2764.4</ele><time>2026-04-10T15:01:56Z</time></rtept><rtept lat="38.347767" lon="-105.848513"><ele>2767.0</ele><time>2026-04-10T15:01:56Z</time></rtept><rtept lat="38.347868" lon="-105.84862"><ele>2765.6</ele><time>2026-04-10T15:01:56Z</time></rtept><rtept lat="38.348055" lon="-105.849028"><ele>2777.0</ele><time>2026-04-10T15:01:56Z</time></rtept><rtept lat="38.348079" lon="-105.849258"><ele>2780.6</ele><time>2026-04-10T15:01:56Z</time></rtept><rtept lat="38.348146" lon="-105.849316"><ele>2781.8</ele><time>2026-04-10T15:01:56Z</time></rtept><rtept lat="38.348264" lon="-105.84924"><ele>2787.2</ele><time>2026-04-10T15:01:56Z</time></rtept><rtept lat="38.348386" lon="-105.849102"><ele>2787.6</ele><time>2026-04-10T15:01:56Z</time></rtept><rtept lat="38.348652" lon="-105.849101"><ele>2798.2</ele><time>2026-04-10T15:01:56Z</time></rtept><rtept lat="38.348761" lon="-105.849034"><ele>2802.2</ele><time>2026-04-10T15:01:56Z</time></rtept><rtept lat="38.349277" lon="-105.84855"><ele>2813.2</ele><time>2026-04-10T15:01:56Z</time></rtept><rtept lat="38.349665" lon="-105.848279"><ele>2819.6</ele><time>2026-04-10T15:01:56Z</time></rtept><rtept lat="38.350042" lon="-105.84815"><ele>2827.8</ele><time>2026-04-10T15:01:56Z</time></rtept><rtept lat="38.350355" lon="-105.848255"><ele>2835.2</ele><time>2026-04-10T15:01:56Z</time></rtept><rtept lat="38.350693" lon="-105.84827"><ele>2841.2</ele><time>2026-04-10T15:01:56Z</time></rtept><rtept lat="38.35087" lon="-105.848402"><ele>2844.0</ele><time>2026-04-10T15:01:56Z</time></rtept><rtept lat="38.35092" lon="-105.848564"><ele>2845.4</ele><time>2026-04-10T15:01:56Z</time></rtept><rtept lat="38.350989" lon="-105.848792"><ele>2846.2</ele><time>2026-04-10T15:01:56Z</time></rtept><rtept lat="38.350943" lon="-105.849087"><ele>2846.4</ele><time>2026-04-10T15:01:56Z</time></rtept><rtept lat="38.350721" lon="-105.849623"><ele>2845.6</ele><time>2026-04-10T15:01:56Z</time></rtept><rtept lat="38.350664" lon="-105.850159"><ele>2844.4</ele><time>2026-04-10T15:01:56Z</time></rtept><rtept lat="38.350756" lon="-105.850476"><ele>2836.0</ele><time>2026-04-10T15:01:56Z</time></rtept><rtept lat="38.350706" lon="-105.850742"><ele>2838.8</ele><time>2026-04-10T15:01:56Z</time></rtept><rtept lat="38.350785" lon="-105.851128"><ele>2836.6</ele><time>2026-04-10T15:01:56Z</time></rtept><rtept lat="38.35094" lon="-105.851448"><ele>2832.2</ele><time>2026-04-10T15:01:56Z</time></rtept><rtept lat="38.351147" lon="-105.851588"><ele>2825.2</ele><time>2026-04-10T15:01:56Z</time></rtept><rtept lat="38.35137" lon="-105.851599"><ele>2821.4</ele><time>2026-04-10T15:01:56Z</time></rtept><rtept lat="38.351757" lon="-105.851456"><ele>2815.8</ele><time>2026-04-10T15:01:56Z</time></rtept><rtept lat="38.352069" lon="-105.851172"><ele>2807.6</ele><time>2026-04-10T15:01:56Z</time></rtept><rtept lat="38.352503" lon="-105.851062"><ele>2801.6</ele><time>2026-04-10T15:01:56Z</time></rtept><rtept lat="38.353016" lon="-105.851018"><ele>2795.0</ele><time>2026-04-10T15:01:56Z</time></rtept><rtept lat="38.353095" lon="-105.851097"><ele>2797.6</ele><time>2026-04-10T15:01:56Z</time></rtept><rtept lat="38.353288" lon="-105.85107"><ele>2795.4</ele><time>2026-04-10T15:01:56Z</time></rtept><rtept lat="38.353691" lon="-105.851005"><ele>2792.2</ele><time>2026-04-10T15:01:56Z</time></rtept><rtept lat="38.354126" lon="-105.850872"><ele>2787.4</ele><time>2026-04-10T15:01:56Z</time></rtept><rtept lat="38.354335" lon="-105.850852"><ele>2780.2</ele><time>2026-04-10T15:01:56Z</time></rtept><rtept lat="38.354458" lon="-105.851024"><ele>2783.8</ele><time>2026-04-10T15:01:56Z</time></rtept><rtept lat="38.354588" lon="-105.851172"><ele>2787.8</ele><time>2026-04-10T15:01:56Z</time></rtept><rtept lat="38.354663" lon="-105.851111"><ele>2783.2</ele><time>2026-04-10T15:01:56Z</time></rtept><rtept lat="38.354821" lon="-105.850882"><ele>2777.4</ele><time>2026-04-10T15:01:56Z</time></rtept><rtept lat="38.355239" lon="-105.850582"><ele>2765.6</ele><time>2026-04-10T15:01:56Z</time></rtept><rtept lat="38.355717" lon="-105.850499"><ele>2762.8</ele><time>2026-04-10T15:01:56Z</time></rtept><rtept lat="38.356297" lon="-105.850541"><ele>2759.4</ele><time>2026-04-10T15:01:56Z</time></rtept><rtept lat="38.356775" lon="-105.850717"><ele>2756.6</ele><time>2026-04-10T15:01:56Z</time></rtept><rtept lat="38.357298" lon="-105.850658"><ele>2751.2</ele><time>2026-04-10T15:01:56Z</time></rtept><rtept lat="38.357972" lon="-105.850662"><ele>2741.8</ele><time>2026-04-10T15:01:56Z</time></rtept><rtept lat="38.358562" lon="-105.850616"><ele>2733.2</ele><time>2026-04-10T15:01:56Z</time></rtept><rtept lat="38.359168" lon="-105.850652"><ele>2726.0</ele><time>2026-04-10T15:01:56Z</time></rtept><rtept lat="38.359668" lon="-105.850646"><ele>2722.2</ele><time>2026-04-10T15:01:56Z</time></rtept><rtept lat="38.360263" lon="-105.850587"><ele>2711.2</ele><time>2026-04-10T15:01:56Z</time></rtept><rtept lat="38.36066" lon="-105.850689"><ele>2708.8</ele><time>2026-04-10T15:01:56Z</time></rtept><rtept lat="38.360966" lon="-105.85074"><ele>2708.2</ele><time>2026-04-10T15:01:56Z</time></rtept><rtept lat="38.361258" lon="-105.85062"><ele>2701.4</ele><time>2026-04-10T15:01:56Z</time></rtept><rtept lat="38.361558" lon="-105.85059"><ele>2694.4</ele><time>2026-04-10T15:01:56Z</time></rtept><rtept lat="38.361733" lon="-105.850693"><ele>2691.2</ele><time>2026-04-10T15:01:56Z</time></rtept><rtept lat="38.361817" lon="-105.850774"><ele>2692.6</ele><time>2026-04-10T15:01:56Z</time></rtept><rtept lat="38.361959" lon="-105.85069"><ele>2689.6</ele><time>2026-04-10T15:01:56Z</time></rtept><rtept lat="38.362073" lon="-105.850728"><ele>2691.8</ele><time>2026-04-10T15:01:56Z</time></rtept><rtept lat="38.362367" lon="-105.850889"><ele>2696.0</ele><time>2026-04-10T15:01:56Z</time></rtept><rtept lat="38.362777" lon="-105.85085"><ele>2691.2</ele><time>2026-04-10T15:01:56Z</time></rtept><rtept lat="38.363171" lon="-105.850847"><ele>2687.2</ele><time>2026-04-10T15:01:56Z</time></rtept><rtept lat="38.363396" lon="-105.850981"><ele>2689.0</ele><time>2026-04-10T15:01:56Z</time></rtept><rtept lat="38.363771" lon="-105.851142"><ele>2687.6</ele><time>2026-04-10T15:01:56Z</time></rtept><rtept lat="38.363926" lon="-105.851328"><ele>2691.0</ele><time>2026-04-10T15:01:56Z</time></rtept><rtept lat="38.36405" lon="-105.851273"><ele>2692.2</ele><time>2026-04-10T15:01:56Z</time></rtept><rtept lat="38.364377" lon="-105.850899"><ele>2702.2</ele><time>2026-04-10T15:01:56Z</time></rtept><rtept lat="38.364715" lon="-105.850407"><ele>2711.2</ele><time>2026-04-10T15:01:56Z</time></rtept><rtept lat="38.364911" lon="-105.850151"><ele>2711.4</ele><time>2026-04-10T15:01:56Z</time></rtept><rtept lat="38.365207" lon="-105.850028"><ele>2709.6</ele><time>2026-04-10T15:01:56Z</time></rtept><rtept lat="38.365511" lon="-105.849891"><ele>2704.0</ele><time>2026-04-10T15:01:56Z</time></rtept><rtept lat="38.365739" lon="-105.849694"><ele>2700.4</ele><time>2026-04-10T15:01:56Z</time></rtept><rtept lat="38.365905" lon="-105.849595"><ele>2697.2</ele><time>2026-04-10T15:01:56Z</time></rtept><rtept lat="38.366126" lon="-105.849628"><ele>2693.8</ele><time>2026-04-10T15:01:56Z</time></rtept><rtept lat="38.366294" lon="-105.849775"><ele>2690.6</ele><time>2026-04-10T15:01:56Z</time></rtept><rtept lat="38.366384" lon="-105.850008"><ele>2690.0</ele><time>2026-04-10T15:01:56Z</time></rtept><rtept lat="38.366486" lon="-105.850184"><ele>2689.6</ele><time>2026-04-10T15:01:56Z</time></rtept><rtept lat="38.366644" lon="-105.85022"><ele>2685.6</ele><time>2026-04-10T15:01:56Z</time></rtept><rtept lat="38.366822" lon="-105.850112"><ele>2682.8</ele><time>2026-04-10T15:01:56Z</time></rtept><rtept lat="38.367009" lon="-105.849966"><ele>2678.0</ele><time>2026-04-10T15:01:56Z</time></rtept><rtept lat="38.367138" lon="-105.849964"><ele>2674.8</ele><time>2026-04-10T15:01:56Z</time></rtept><rtept lat="38.367225" lon="-105.849867"><ele>2673.2</ele><time>2026-04-10T15:01:56Z</time></rtept><rtept lat="38.367333" lon="-105.84973"><ele>2670.0</ele><time>2026-04-10T15:01:56Z</time></rtept><rtept lat="38.36744" lon="-105.849641"><ele>2666.4</ele><time>2026-04-10T15:01:56Z</time></rtept><rtept lat="38.36751" lon="-105.849513"><ele>2664.2</ele><time>2026-04-10T15:01:56Z</time></rtept><rtept lat="38.367541" lon="-105.84923"><ele>2662.0</ele><time>2026-04-10T15:01:56Z</time></rtept><rtept lat="38.367587" lon="-105.849043"><ele>2659.8</ele><time>2026-04-10T15:01:56Z</time></rtept><rtept lat="38.367688" lon="-105.848933"><ele>2658.8</ele><time>2026-04-10T15:01:56Z</time></rtept><rtept lat="38.367778" lon="-105.848927"><ele>2656.4</ele><time>2026-04-10T15:01:56Z</time></rtept><rtept lat="38.367824" lon="-105.84924"><ele>2657.0</ele><time>2026-04-10T15:01:56Z</time></rtept><rtept lat="38.367833" lon="-105.849485"><ele>2658.0</ele><time>2026-04-10T15:01:56Z</time></rtept><rtept lat="38.367906" lon="-105.84955"><ele>2655.0</ele><time>2026-04-10T15:01:56Z</time></rtept><rtept lat="38.368067" lon="-105.849517"><ele>2652.0</ele><time>2026-04-10T15:01:56Z</time></rtept><rtept lat="38.368322" lon="-105.849663"><ele>2648.2</ele><time>2026-04-10T15:01:56Z</time></rtept><rtept lat="38.368685" lon="-105.849776"><ele>2644.6</ele><time>2026-04-10T15:01:56Z</time></rtept><rtept lat="38.369016" lon="-105.849897"><ele>2639.4</ele><time>2026-04-10T15:01:56Z</time></rtept><rtept lat="38.369243" lon="-105.849937"><ele>2637.2</ele><time>2026-04-10T15:01:56Z</time></rtept><rtept lat="38.369551" lon="-105.850205"><ele>2636.2</ele><time>2026-04-10T15:01:56Z</time></rtept><rtept lat="38.369797" lon="-105.850406"><ele>2633.4</ele><time>2026-04-10T15:01:56Z</time></rtept><rtept lat="38.36984" lon="-105.850602"><ele>2635.8</ele><time>2026-04-10T15:01:56Z</time></rtept><rtept lat="38.369835" lon="-105.850868"><ele>2639.4</ele><time>2026-04-10T15:01:56Z</time></rtept><rtept lat="38.369896" lon="-105.850947"><ele>2639.6</ele><time>2026-04-10T15:01:56Z</time></rtept><rtept lat="38.370022" lon="-105.85091"><ele>2637.6</ele><time>2026-04-10T15:01:56Z</time></rtept><rtept lat="38.370252" lon="-105.850874"><ele>2635.4</ele><time>2026-04-10T15:01:56Z</time></rtept><rtept lat="38.370628" lon="-105.85111"><ele>2634.0</ele><time>2026-04-10T15:01:56Z</time></rtept><rtept lat="38.371045" lon="-105.851446"><ele>2631.8</ele><time>2026-04-10T15:01:56Z</time></rtept><rtept lat="38.371241" lon="-105.851409"><ele>2631.0</ele><time>2026-04-10T15:01:56Z</time></rtept><rtept lat="38.371603" lon="-105.851598"><ele>2632.0</ele><time>2026-04-10T15:01:56Z</time></rtept><rtept lat="38.372199" lon="-105.851919"><ele>2632.0</ele><time>2026-04-10T15:01:56Z</time></rtept><rtept lat="38.372679" lon="-105.852041"><ele>2631.8</ele><time>2026-04-10T15:01:56Z</time></rtept><rtept lat="38.373441" lon="-105.85241"><ele>2633.4</ele><time>2026-04-10T15:01:56Z</time></rtept><rtept lat="38.37401" lon="-105.852817"><ele>2636.6</ele><time>2026-04-10T15:01:56Z</time></rtept><rtept lat="38.374517" lon="-105.853003"><ele>2636.0</ele><time>2026-04-10T15:01:56Z</time></rtept><rtept lat="38.374731" lon="-105.853101"><ele>2638.6</ele><time>2026-04-10T15:01:56Z</time></rtept><rtept lat="38.375068" lon="-105.853293"><ele>2641.0</ele><time>2026-04-10T15:01:56Z</time></rtept><rtept lat="38.375627" lon="-105.853563"><ele>2644.4</ele><time>2026-04-10T15:01:56Z</time></rtept><rtept lat="38.375826" lon="-105.853596"><ele>2643.6</ele><time>2026-04-10T15:01:56Z</time></rtept><rtept lat="38.376171" lon="-105.853705"><ele>2646.2</ele><time>2026-04-10T15:01:56Z</time></rtept><rtept lat="38.376427" lon="-105.853835"><ele>2647.2</ele><time>2026-04-10T15:01:56Z</time></rtept><rtept lat="38.376606" lon="-105.854106"><ele>2651.8</ele><time>2026-04-10T15:01:56Z</time></rtept><rtept lat="38.376663" lon="-105.854194"><ele>2653.4</ele><time>2026-04-10T15:01:56Z</time></rtept><rtept lat="38.376663" lon="-105.854194"><ele>2653.4</ele><time>2026-04-10T15:01:56Z</time></rtept><rtept lat="38.376825" lon="-105.854444"><ele>2659.0</ele><time>2026-04-10T15:01:56Z</time></rtept><rtept lat="38.37718" lon="-105.854624"><ele>2662.2</ele><time>2026-04-10T15:01:56Z</time></rtept><rtept lat="38.37745" lon="-105.854808"><ele>2668.8</ele><time>2026-04-10T15:01:56Z</time></rtept><rtept lat="38.377788" lon="-105.855018"><ele>2677.2</ele><time>2026-04-10T15:01:56Z</time></rtept><rtept lat="38.377886" lon="-105.855121"><ele>2678.4</ele><time>2026-04-10T15:01:56Z</time></rtept><rtept lat="38.378027" lon="-105.855237"><ele>2677.2</ele><time>2026-04-10T15:01:56Z</time></rtept><rtept lat="38.378112" lon="-105.855383"><ele>2676.4</ele><time>2026-04-10T15:01:56Z</time></rtept><rtept lat="38.378131" lon="-105.855799"><ele>2675.2</ele><time>2026-04-10T15:01:56Z</time></rtept><rtept lat="38.378107" lon="-105.856204"><ele>2673.8</ele><time>2026-04-10T15:01:56Z</time></rtept><rtept lat="38.378127" lon="-105.856402"><ele>2675.4</ele><time>2026-04-10T15:01:56Z</time></rtept><rtept lat="38.378236" lon="-105.856486"><ele>2671.8</ele><time>2026-04-10T15:01:56Z</time></rtept><rtept lat="38.37838" lon="-105.856502"><ele>2667.4</ele><time>2026-04-10T15:01:56Z</time></rtept><rtept lat="38.37864" lon="-105.856537"><ele>2661.6</ele><time>2026-04-10T15:01:56Z</time></rtept><rtept lat="38.378953" lon="-105.856605"><ele>2652.8</ele><time>2026-04-10T15:01:56Z</time></rtept><rtept lat="38.379153" lon="-105.856698"><ele>2651.6</ele><time>2026-04-10T15:01:56Z</time></rtept><rtept lat="38.379324" lon="-105.856704"><ele>2649.0</ele><time>2026-04-10T15:01:56Z</time></rtept><rtept lat="38.379444" lon="-105.856671"><ele>2646.2</ele><time>2026-04-10T15:01:56Z</time></rtept><rtept lat="38.379553" lon="-105.856762"><ele>2644.4</ele><time>2026-04-10T15:01:56Z</time></rtept><rtept lat="38.379646" lon="-105.857005"><ele>2642.2</ele><time>2026-04-10T15:01:56Z</time></rtept><rtept lat="38.379748" lon="-105.857096"><ele>2638.8</ele><time>2026-04-10T15:01:56Z</time></rtept><rtept lat="38.379722" lon="-105.857229"><ele>2637.4</ele><time>2026-04-10T15:01:56Z</time></rtept><rtept lat="38.379621" lon="-105.857522"><ele>2638.6</ele><time>2026-04-10T15:01:56Z</time></rtept><rtept lat="38.379582" lon="-105.857895"><ele>2638.2</ele><time>2026-04-10T15:01:56Z</time></rtept><rtept lat="38.379666" lon="-105.85816"><ele>2632.8</ele><time>2026-04-10T15:01:56Z</time></rtept><rtept lat="38.379799" lon="-105.858203"><ele>2630.6</ele><time>2026-04-10T15:01:56Z</time></rtept><rtept lat="38.38013" lon="-105.858174"><ele>2627.4</ele><time>2026-04-10T15:01:56Z</time></rtept><rtept lat="38.380398" lon="-105.85819"><ele>2623.2</ele><time>2026-04-10T15:01:56Z</time></rtept><rtept lat="38.380657" lon="-105.858427"><ele>2622.0</ele><time>2026-04-10T15:01:56Z</time></rtept><rtept lat="38.380854" lon="-105.858587"><ele>2622.2</ele><time>2026-04-10T15:01:56Z</time></rtept><rtept lat="38.381107" lon="-105.858618"><ele>2620.8</ele><time>2026-04-10T15:01:56Z</time></rtept><rtept lat="38.381409" lon="-105.858668"><ele>2614.6</ele><time>2026-04-10T15:01:56Z</time></rtept><rtept lat="38.381495" lon="-105.858739"><ele>2614.2</ele><time>2026-04-10T15:01:56Z</time></rtept><rtept lat="38.381464" lon="-105.858903"><ele>2614.8</ele><time>2026-04-10T15:01:56Z</time></rtept><rtept lat="38.381365" lon="-105.859137"><ele>2615.8</ele><time>2026-04-10T15:01:56Z</time></rtept><rtept lat="38.381384" lon="-105.859222"><ele>2615.4</ele><time>2026-04-10T15:01:56Z</time></rtept><rtept lat="38.381546" lon="-105.859339"><ele>2610.8</ele><time>2026-04-10T15:01:56Z</time></rtept><rtept lat="38.381798" lon="-105.859478"><ele>2606.0</ele><time>2026-04-10T15:01:56Z</time></rtept><rtept lat="38.381822" lon="-105.859619"><ele>2606.8</ele><time>2026-04-10T15:01:56Z</time></rtept><rtept lat="38.381933" lon="-105.859757"><ele>2608.2</ele><time>2026-04-10T15:01:56Z</time></rtept><rtept lat="38.382319" lon="-105.859907"><ele>2615.2</ele><time>2026-04-10T15:01:56Z</time></rtept><rtept lat="38.382633" lon="-105.859787"><ele>2613.0</ele><time>2026-04-10T15:01:56Z</time></rtept><rtept lat="38.383064" lon="-105.859655"><ele>2621.4</ele><time>2026-04-10T15:01:56Z</time></rtept><rtept lat="38.38335" lon="-105.859502"><ele>2625.8</ele><time>2026-04-10T15:01:56Z</time></rtept><rtept lat="38.383485" lon="-105.859387"><ele>2626.2</ele><time>2026-04-10T15:01:56Z</time></rtept><rtept lat="38.383558" lon="-105.859563"><ele>2624.2</ele><time>2026-04-10T15:01:56Z</time></rtept><rtept lat="38.383614" lon="-105.860042"><ele>2617.4</ele><time>2026-04-10T15:01:56Z</time></rtept><rtept lat="38.383812" lon="-105.860487"><ele>2607.4</ele><time>2026-04-10T15:01:56Z</time></rtept><rtept lat="38.383811" lon="-105.860775"><ele>2607.2</ele><time>2026-04-10T15:01:56Z</time></rtept><rtept lat="38.383775" lon="-105.861048"><ele>2609.4</ele><time>2026-04-10T15:01:56Z</time></rtept><rtept lat="38.383935" lon="-105.861247"><ele>2606.4</ele><time>2026-04-10T15:01:56Z</time></rtept><rtept lat="38.384158" lon="-105.861195"><ele>2603.0</ele><time>2026-04-10T15:01:56Z</time></rtept><rtept lat="38.384291" lon="-105.861055"><ele>2599.2</ele><time>2026-04-10T15:01:56Z</time></rtept><rtept lat="38.384916" lon="-105.860898"><ele>2593.6</ele><time>2026-04-10T15:01:56Z</time></rtept><rtept lat="38.385267" lon="-105.860735"><ele>2588.4</ele><time>2026-04-10T15:01:56Z</time></rtept><rtept lat="38.38549" lon="-105.860613"><ele>2585.0</ele><time>2026-04-10T15:01:56Z</time></rtept><rtept lat="38.385741" lon="-105.860508"><ele>2582.2</ele><time>2026-04-10T15:01:56Z</time></rtept><rtept lat="38.385936" lon="-105.860545"><ele>2582.0</ele><time>2026-04-10T15:01:56Z</time></rtept><rtept lat="38.386247" lon="-105.860677"><ele>2583.8</ele><time>2026-04-10T15:01:56Z</time></rtept><rtept lat="38.38643" lon="-105.860816"><ele>2582.8</ele><time>2026-04-10T15:01:56Z</time></rtept><rtept lat="38.386858" lon="-105.861171"><ele>2583.6</ele><time>2026-04-10T15:01:56Z</time></rtept><rtept lat="38.38697" lon="-105.861273"><ele>2583.8</ele><time>2026-04-10T15:01:56Z</time></rtept><rtept lat="38.387219" lon="-105.861497"><ele>2584.0</ele><time>2026-04-10T15:01:56Z</time></rtept><rtept lat="38.387957" lon="-105.861884"><ele>2586.0</ele><time>2026-04-10T15:01:56Z</time></rtept><rtept lat="38.38828" lon="-105.862089"><ele>2584.2</ele><time>2026-04-10T15:01:56Z</time></rtept><rtept lat="38.388382" lon="-105.862155"><ele>2582.8</ele><time>2026-04-10T15:01:56Z</time></rtept><rtept lat="38.388706" lon="-105.862244"><ele>2580.0</ele><time>2026-04-10T15:01:56Z</time></rtept><rtept lat="38.38909" lon="-105.861685"><ele>2572.2</ele><time>2026-04-10T15:01:56Z</time></rtept><rtept lat="38.389638" lon="-105.861467"><ele>2560.8</ele><time>2026-04-10T15:01:56Z</time></rtept><rtept lat="38.390049" lon="-105.860768"><ele>2545.8</ele><time>2026-04-10T15:01:56Z</time></rtept><rtept lat="38.390289" lon="-105.85972"><ele>2533.2</ele><time>2026-04-10T15:01:56Z</time></rtept><rtept lat="38.390632" lon="-105.858367"><ele>2512.8</ele><time>2026-04-10T15:01:56Z</time></rtept><rtept lat="38.391303" lon="-105.858402"><ele>2505.0</ele><time>2026-04-10T15:01:56Z</time></rtept><rtept lat="38.392311" lon="-105.858454"><ele>2489.6</ele><time>2026-04-10T15:01:56Z</time></rtept><rtept lat="38.392551" lon="-105.858629"><ele>2482.0</ele><time>2026-04-10T15:01:56Z</time></rtept><rtept lat="38.392551" lon="-105.85924"><ele>2490.4</ele><time>2026-04-10T15:01:56Z</time></rtept><rtept lat="38.392043" lon="-105.862681"><ele>2547.0</ele><time>2026-04-10T15:01:56Z</time></rtept><rtept lat="38.392312" lon="-105.863926"><ele>2553.4</ele><time>2026-04-10T15:01:56Z</time></rtept><rtept lat="38.392754" lon="-105.865345"><ele>2551.8</ele><time>2026-04-10T15:01:56Z</time></rtept><rtept lat="38.393377" lon="-105.866937"><ele>2562.8</ele><time>2026-04-10T15:01:56Z</time></rtept><rtept lat="38.393327" lon="-105.867968"><ele>2576.2</ele><time>2026-04-10T15:01:56Z</time></rtept><rtept lat="38.393044" lon="-105.868478"><ele>2588.6</ele><time>2026-04-10T15:01:56Z</time></rtept><rtept lat="38.393148" lon="-105.868852"><ele>2587.2</ele><time>2026-04-10T15:01:56Z</time></rtept><rtept lat="38.393179" lon="-105.868962"><ele>2587.6</ele><time>2026-04-10T15:01:56Z</time></rtept><rtept lat="38.393081" lon="-105.869583"><ele>2589.8</ele><time>2026-04-10T15:01:56Z</time></rtept><rtept lat="38.393051" lon="-105.869765"><ele>2592.0</ele><time>2026-04-10T15:01:56Z</time></rtept><rtept lat="38.393026" lon="-105.869947"><ele>2592.4</ele><time>2026-04-10T15:01:56Z</time></rtept><rtept lat="38.392901" lon="-105.870842"><ele>2599.2</ele><time>2026-04-10T15:01:56Z</time></rtept><rtept lat="38.392894" lon="-105.871302"><ele>2599.8</ele><time>2026-04-10T15:01:56Z</time></rtept><rtept lat="38.392687" lon="-105.871621"><ele>2605.2</ele><time>2026-04-10T15:01:56Z</time></rtept><rtept lat="38.392604" lon="-105.871778"><ele>2607.2</ele><time>2026-04-10T15:01:56Z</time></rtept><rtept lat="38.3925" lon="-105.872232"><ele>2614.2</ele><time>2026-04-10T15:01:56Z</time></rtept><rtept lat="38.392824" lon="-105.8725"><ele>2620.6</ele><time>2026-04-10T15:01:56Z</time></rtept><rtept lat="38.393134" lon="-105.872599"><ele>2622.4</ele><time>2026-04-10T15:01:56Z</time></rtept><rtept lat="38.393462" lon="-105.872675"><ele>2629.8</ele><time>2026-04-10T15:01:56Z</time></rtept><rtept lat="38.393608" lon="-105.872758"><ele>2633.6</ele><time>2026-04-10T15:01:56Z</time></rtept><rtept lat="38.39379" lon="-105.872977"><ele>2639.6</ele><time>2026-04-10T15:01:56Z</time></rtept><rtept lat="38.39398" lon="-105.873238"><ele>2645.0</ele><time>2026-04-10T15:01:56Z</time></rtept><rtept lat="38.394196" lon="-105.873536"><ele>2649.4</ele><time>2026-04-10T15:01:56Z</time></rtept><rtept lat="38.39446" lon="-105.874005"><ele>2652.8</ele><time>2026-04-10T15:01:56Z</time></rtept><rtept lat="38.394588" lon="-105.874258"><ele>2655.2</ele><time>2026-04-10T15:01:56Z</time></rtept><rtept lat="38.394721" lon="-105.874519"><ele>2662.2</ele><time>2026-04-10T15:01:56Z</time></rtept><rtept lat="38.394826" lon="-105.874641"><ele>2667.2</ele><time>2026-04-10T15:01:56Z</time></rtept><rtept lat="38.395336" lon="-105.874565"><ele>2673.0</ele><time>2026-04-10T15:01:56Z</time></rtept><rtept lat="38.395624" lon="-105.874618"><ele>2679.0</ele><time>2026-04-10T15:01:56Z</time></rtept><rtept lat="38.395783" lon="-105.874397"><ele>2685.2</ele><time>2026-04-10T15:01:56Z</time></rtept><rtept lat="38.395783" lon="-105.873914"><ele>2688.8</ele><time>2026-04-10T15:01:56Z</time></rtept><rtept lat="38.395678" lon="-105.873681"><ele>2688.0</ele><time>2026-04-10T15:01:56Z</time></rtept><rtept lat="38.395719" lon="-105.873588"><ele>2691.0</ele><time>2026-04-10T15:01:56Z</time></rtept><rtept lat="38.395956" lon="-105.873524"><ele>2696.0</ele><time>2026-04-10T15:01:56Z</time></rtept><rtept lat="38.396171" lon="-105.873774"><ele>2700.0</ele><time>2026-04-10T15:01:56Z</time></rtept><rtept lat="38.396435" lon="-105.87385"><ele>2705.2</ele><time>2026-04-10T15:01:56Z</time></rtept><rtept lat="38.396768" lon="-105.874054"><ele>2713.4</ele><time>2026-04-10T15:01:56Z</time></rtept><rtept lat="38.396987" lon="-105.874286"><ele>2722.8</ele><time>2026-04-10T15:01:56Z</time></rtept><rtept lat="38.396983" lon="-105.874484"><ele>2726.4</ele><time>2026-04-10T15:01:56Z</time></rtept><rtept lat="38.396877" lon="-105.874659"><ele>2723.2</ele><time>2026-04-10T15:01:56Z</time></rtept><rtept lat="38.397002" lon="-105.875084"><ele>2729.4</ele><time>2026-04-10T15:01:56Z</time></rtept><rtept lat="38.396964" lon="-105.875316"><ele>2727.4</ele><time>2026-04-10T15:01:56Z</time></rtept><rtept lat="38.397085" lon="-105.875398"><ele>2733.4</ele><time>2026-04-10T15:01:56Z</time></rtept><rtept lat="38.397178" lon="-105.875462"><ele>2741.4</ele><time>2026-04-10T15:01:56Z</time></rtept><rtept lat="38.397288" lon="-105.875572"><ele>2745.6</ele><time>2026-04-10T15:01:56Z</time></rtept><rtept lat="38.397188" lon="-105.8757"><ele>2745.6</ele><time>2026-04-10T15:01:56Z</time></rtept><rtept lat="38.397101" lon="-105.875985"><ele>2745.8</ele><time>2026-04-10T15:01:56Z</time></rtept><rtept lat="38.397233" lon="-105.876678"><ele>2756.0</ele><time>2026-04-10T15:01:56Z</time></rtept><rtept lat="38.397247" lon="-105.8773"><ele>2754.4</ele><time>2026-04-10T15:01:56Z</time></rtept><rtept lat="38.397247" lon="-105.877998"><ele>2756.8</ele><time>2026-04-10T15:01:56Z</time></rtept><rtept lat="38.397238" lon="-105.878679"><ele>2763.0</ele><time>2026-04-10T15:01:56Z</time></rtept><rtept lat="38.397087" lon="-105.878825"><ele>2764.0</ele><time>2026-04-10T15:01:56Z</time></rtept><rtept lat="38.396837" lon="-105.878947"><ele>2760.4</ele><time>2026-04-10T15:01:56Z</time></rtept><rtept lat="38.396545" lon="-105.878929"><ele>2762.4</ele><time>2026-04-10T15:01:56Z</time></rtept><rtept lat="38.396317" lon="-105.879069"><ele>2757.8</ele><time>2026-04-10T15:01:56Z</time></rtept><rtept lat="38.396098" lon="-105.879238"><ele>2754.2</ele><time>2026-04-10T15:01:56Z</time></rtept><rtept lat="38.395888" lon="-105.87936"><ele>2755.4</ele><time>2026-04-10T15:01:56Z</time></rtept><rtept lat="38.395678" lon="-105.879447"><ele>2755.2</ele><time>2026-04-10T15:01:56Z</time></rtept><rtept lat="38.395387" lon="-105.879488"><ele>2756.4</ele><time>2026-04-10T15:01:56Z</time></rtept><rtept lat="38.395181" lon="-105.879488"><ele>2761.6</ele><time>2026-04-10T15:01:56Z</time></rtept><rtept lat="38.395095" lon="-105.879534"><ele>2763.8</ele><time>2026-04-10T15:01:56Z</time></rtept><rtept lat="38.394844" lon="-105.879703"><ele>2766.2</ele><time>2026-04-10T15:01:56Z</time></rtept><rtept lat="38.394666" lon="-105.879884"><ele>2765.0</ele><time>2026-04-10T15:01:56Z</time></rtept><rtept lat="38.394414" lon="-105.880216"><ele>2767.0</ele><time>2026-04-10T15:01:56Z</time></rtept><rtept lat="38.394254" lon="-105.880416"><ele>2771.6</ele><time>2026-04-10T15:01:56Z</time></rtept><rtept lat="38.39431" lon="-105.880963"><ele>2764.4</ele><time>2026-04-10T15:01:56Z</time></rtept><rtept lat="38.394789" lon="-105.881185"><ele>2774.0</ele><time>2026-04-10T15:01:56Z</time></rtept><rtept lat="38.395254" lon="-105.881257"><ele>2774.8</ele><time>2026-04-10T15:01:56Z</time></rtept><rtept lat="38.395432" lon="-105.881431"><ele>2773.6</ele><time>2026-04-10T15:01:56Z</time></rtept><rtept lat="38.395446" lon="-105.881612"><ele>2776.0</ele><time>2026-04-10T15:01:56Z</time></rtept><rtept lat="38.395433" lon="-105.881693"><ele>2776.2</ele><time>2026-04-10T15:01:56Z</time></rtept><rtept lat="38.395432" lon="-105.881702"><ele>2776.2</ele><time>2026-04-10T15:01:56Z</time></rtept><rtept lat="38.395267" lon="-105.882798"><ele>2768.4</ele><time>2026-04-10T15:01:56Z</time></rtept><rtept lat="38.395245" lon="-105.882944"><ele>2767.8</ele><time>2026-04-10T15:01:56Z</time></rtept><rtept lat="38.39529" lon="-105.883174"><ele>2763.4</ele><time>2026-04-10T15:01:56Z</time></rtept><rtept lat="38.39535" lon="-105.883479"><ele>2761.6</ele><time>2026-04-10T15:01:56Z</time></rtept><rtept lat="38.395528" lon="-105.883689"><ele>2755.4</ele><time>2026-04-10T15:01:56Z</time></rtept><rtept lat="38.395719" lon="-105.884137"><ele>2755.6</ele><time>2026-04-10T15:01:56Z</time></rtept><rtept lat="38.396276" lon="-105.884387"><ele>2747.6</ele><time>2026-04-10T15:01:56Z</time></rtept><rtept lat="38.396668" lon="-105.88437"><ele>2741.0</ele><time>2026-04-10T15:01:56Z</time></rtept><rtept lat="38.396914" lon="-105.884125"><ele>2730.2</ele><time>2026-04-10T15:01:56Z</time></rtept><rtept lat="38.39701" lon="-105.884015"><ele>2726.8</ele><time>2026-04-10T15:01:56Z</time></rtept><rtept lat="38.397244" lon="-105.88387"><ele>2717.0</ele><time>2026-04-10T15:01:56Z</time></rtept><rtept lat="38.398168" lon="-105.883357"><ele>2695.0</ele><time>2026-04-10T15:01:56Z</time></rtept><rtept lat="38.398834" lon="-105.883171"><ele>2689.6</ele><time>2026-04-10T15:01:56Z</time></rtept><rtept lat="38.399221" lon="-105.883049"><ele>2677.6</ele><time>2026-04-10T15:01:56Z</time></rtept><rtept lat="38.39944" lon="-105.883026"><ele>2672.6</ele><time>2026-04-10T15:01:56Z</time></rtept><rtept lat="38.399646" lon="-105.882921"><ele>2666.4</ele><time>2026-04-10T15:01:56Z</time></rtept><rtept lat="38.399965" lon="-105.882892"><ele>2659.4</ele><time>2026-04-10T15:01:56Z</time></rtept><rtept lat="38.400051" lon="-105.883095"><ele>2655.2</ele><time>2026-04-10T15:01:56Z</time></rtept><rtept lat="38.399846" lon="-105.883474"><ele>2655.8</ele><time>2026-04-10T15:01:56Z</time></rtept><rtept lat="38.399823" lon="-105.883916"><ele>2648.4</ele><time>2026-04-10T15:01:56Z</time></rtept><rtept lat="38.399855" lon="-105.884271"><ele>2646.8</ele><time>2026-04-10T15:01:56Z</time></rtept><rtept lat="38.399883" lon="-105.884631"><ele>2641.8</ele><time>2026-04-10T15:01:56Z</time></rtept><rtept lat="38.399696" lon="-105.884917"><ele>2645.2</ele><time>2026-04-10T15:01:56Z</time></rtept><rtept lat="38.399746" lon="-105.885219"><ele>2634.6</ele><time>2026-04-10T15:01:56Z</time></rtept><rtept lat="38.399769" lon="-105.885493"><ele>2630.8</ele><time>2026-04-10T15:01:56Z</time></rtept><rtept lat="38.399513" lon="-105.885725"><ele>2634.2</ele><time>2026-04-10T15:01:56Z</time></rtept><rtept lat="38.399304" lon="-105.886191"><ele>2635.2</ele><time>2026-04-10T15:01:56Z</time></rtept><rtept lat="38.399202" lon="-105.886656"><ele>2630.0</ele><time>2026-04-10T15:01:56Z</time></rtept><rtept lat="38.399664" lon="-105.886744"><ele>2627.6</ele><time>2026-04-10T15:01:56Z</time></rtept><rtept lat="38.400147" lon="-105.886895"><ele>2632.4</ele><time>2026-04-10T15:01:56Z</time></rtept><rtept lat="38.400494" lon="-105.887128"><ele>2640.8</ele><time>2026-04-10T15:01:56Z</time></rtept><rtept lat="38.40084" lon="-105.887395"><ele>2647.2</ele><time>2026-04-10T15:01:56Z</time></rtept><rtept lat="38.401173" lon="-105.887552"><ele>2648.4</ele><time>2026-04-10T15:01:56Z</time></rtept><rtept lat="38.401579" lon="-105.888024"><ele>2654.2</ele><time>2026-04-10T15:01:56Z</time></rtept><rtept lat="38.401611" lon="-105.888285"><ele>2661.6</ele><time>2026-04-10T15:01:56Z</time></rtept><rtept lat="38.401415" lon="-105.888751"><ele>2671.4</ele><time>2026-04-10T15:01:56Z</time></rtept><rtept lat="38.401342" lon="-105.88931"><ele>2685.0</ele><time>2026-04-10T15:01:56Z</time></rtept><rtept lat="38.401333" lon="-105.889688"><ele>2688.0</ele><time>2026-04-10T15:01:56Z</time></rtept><rtept lat="38.401378" lon="-105.890089"><ele>2686.0</ele><time>2026-04-10T15:01:56Z</time></rtept><rtept lat="38.401328" lon="-105.890339"><ele>2689.0</ele><time>2026-04-10T15:01:56Z</time></rtept><rtept lat="38.40115" lon="-105.890589"><ele>2695.2</ele><time>2026-04-10T15:01:56Z</time></rtept><rtept lat="38.401219" lon="-105.890956"><ele>2704.0</ele><time>2026-04-10T15:01:56Z</time></rtept><rtept lat="38.4012" lon="-105.891422"><ele>2716.2</ele><time>2026-04-10T15:01:56Z</time></rtept><rtept lat="38.4011" lon="-105.891695"><ele>2718.4</ele><time>2026-04-10T15:01:56Z</time></rtept><rtept lat="38.400845" lon="-105.891922"><ele>2721.8</ele><time>2026-04-10T15:01:56Z</time></rtept><rtept lat="38.400644" lon="-105.892132"><ele>2722.8</ele><time>2026-04-10T15:01:56Z</time></rtept><rtept lat="38.400476" lon="-105.892347"><ele>2724.8</ele><time>2026-04-10T15:01:56Z</time></rtept><rtept lat="38.400275" lon="-105.892981"><ele>2729.6</ele><time>2026-04-10T15:01:56Z</time></rtept><rtept lat="38.399978" lon="-105.893446"><ele>2732.2</ele><time>2026-04-10T15:01:56Z</time></rtept><rtept lat="38.399864" lon="-105.894069"><ele>2741.4</ele><time>2026-04-10T15:01:56Z</time></rtept><rtept lat="38.399531" lon="-105.894378"><ele>2747.6</ele><time>2026-04-10T15:01:56Z</time></rtept><rtept lat="38.399226" lon="-105.894476"><ele>2754.0</ele><time>2026-04-10T15:01:56Z</time></rtept><rtept lat="38.398975" lon="-105.894959"><ele>2762.2</ele><time>2026-04-10T15:01:56Z</time></rtept><rtept lat="38.398943" lon="-105.895332"><ele>2770.6</ele><time>2026-04-10T15:01:56Z</time></rtept><rtept lat="38.399081" lon="-105.895402"><ele>2771.8</ele><time>2026-04-10T15:01:56Z</time></rtept><rtept lat="38.399345" lon="-105.895535"><ele>2779.2</ele><time>2026-04-10T15:01:56Z</time></rtept><rtept lat="38.399455" lon="-105.895591"><ele>2781.0</ele><time>2026-04-10T15:01:56Z</time></rtept><rtept lat="38.399504" lon="-105.895616"><ele>2780.4</ele><time>2026-04-10T15:01:56Z</time></rtept><rtept lat="38.399641" lon="-105.895873"><ele>2778.0</ele><time>2026-04-10T15:01:56Z</time></rtept><rtept lat="38.399579" lon="-105.896015"><ele>2779.8</ele><time>2026-04-10T15:01:56Z</time></rtept><rtept lat="38.399534" lon="-105.896179"><ele>2777.6</ele><time>2026-04-10T15:01:56Z</time></rtept><rtept lat="38.399626" lon="-105.896715"><ele>2779.8</ele><time>2026-04-10T15:01:56Z</time></rtept><rtept lat="38.39949" lon="-105.89678"><ele>2779.8</ele><time>2026-04-10T15:01:56Z</time></rtept><rtept lat="38.399611" lon="-105.896901"><ele>2780.4</ele><time>2026-04-10T15:01:56Z</time></rtept><rtept lat="38.400066" lon="-105.897358"><ele>2777.6</ele><time>2026-04-10T15:01:56Z</time></rtept><rtept lat="38.400591" lon="-105.897362"><ele>2775.4</ele><time>2026-04-10T15:01:56Z</time></rtept><rtept lat="38.400833" lon="-105.897393"><ele>2771.4</ele><time>2026-04-10T15:01:56Z</time></rtept><rtept lat="38.400968" lon="-105.897508"><ele>2768.0</ele><time>2026-04-10T15:01:56Z</time></rtept><rtept lat="38.400907" lon="-105.897727"><ele>2769.8</ele><time>2026-04-10T15:01:56Z</time></rtept><rtept lat="38.400856" lon="-105.897884"><ele>2774.4</ele><time>2026-04-10T15:01:56Z</time></rtept><rtept lat="38.400896" lon="-105.897946"><ele>2775.2</ele><time>2026-04-10T15:01:56Z</time></rtept><rtept lat="38.40102" lon="-105.897971"><ele>2774.0</ele><time>2026-04-10T15:01:56Z</time></rtept><rtept lat="38.401237" lon="-105.897964"><ele>2773.2</ele><time>2026-04-10T15:01:56Z</time></rtept><rtept lat="38.401428" lon="-105.897962"><ele>2772.0</ele><time>2026-04-10T15:01:56Z</time></rtept><rtept lat="38.401577" lon="-105.898088"><ele>2771.8</ele><time>2026-04-10T15:01:56Z</time></rtept><rtept lat="38.401586" lon="-105.898313"><ele>2773.2</ele><time>2026-04-10T15:01:56Z</time></rtept><rtept lat="38.401496" lon="-105.898585"><ele>2776.2</ele><time>2026-04-10T15:01:56Z</time></rtept><rtept lat="38.401671" lon="-105.899023"><ele>2775.6</ele><time>2026-04-10T15:01:56Z</time></rtept><rtept lat="38.401785" lon="-105.899453"><ele>2768.8</ele><time>2026-04-10T15:01:56Z</time></rtept><rtept lat="38.401693" lon="-105.899774"><ele>2765.6</ele><time>2026-04-10T15:01:56Z</time></rtept><rtept lat="38.401487" lon="-105.900115"><ele>2767.2</ele><time>2026-04-10T15:01:56Z</time></rtept><rtept lat="38.401371" lon="-105.900502"><ele>2765.4</ele><time>2026-04-10T15:01:56Z</time></rtept><rtept lat="38.401372" lon="-105.900794"><ele>2765.6</ele><time>2026-04-10T15:01:56Z</time></rtept><rtept lat="38.401424" lon="-105.900981"><ele>2764.0</ele><time>2026-04-10T15:01:56Z</time></rtept><rtept lat="38.401525" lon="-105.901003"><ele>2765.0</ele><time>2026-04-10T15:01:56Z</time></rtept><rtept lat="38.401711" lon="-105.900822"><ele>2763.4</ele><time>2026-04-10T15:01:56Z</time></rtept><rtept lat="38.401943" lon="-105.900704"><ele>2761.2</ele><time>2026-04-10T15:01:56Z</time></rtept><rtept lat="38.402155" lon="-105.900825"><ele>2767.4</ele><time>2026-04-10T15:01:56Z</time></rtept><rtept lat="38.402308" lon="-105.901046"><ele>2770.8</ele><time>2026-04-10T15:01:56Z</time></rtept><rtept lat="38.402687" lon="-105.901057"><ele>2766.2</ele><time>2026-04-10T15:01:56Z</time></rtept><rtept lat="38.403344" lon="-105.901039"><ele>2773.8</ele><time>2026-04-10T15:01:56Z</time></rtept><rtept lat="38.403577" lon="-105.900912"><ele>2773.8</ele><time>2026-04-10T15:01:56Z</time></rtept><rtept lat="38.404027" lon="-105.900859"><ele>2774.8</ele><time>2026-04-10T15:01:56Z</time></rtept><rtept lat="38.404255" lon="-105.900673"><ele>2771.6</ele><time>2026-04-10T15:01:56Z</time></rtept><rtept lat="38.404484" lon="-105.900772"><ele>2775.6</ele><time>2026-04-10T15:01:56Z</time></rtept><rtept lat="38.404702" lon="-105.90072"><ele>2774.0</ele><time>2026-04-10T15:01:56Z</time></rtept><rtept lat="38.40485" lon="-105.90057"><ele>2774.6</ele><time>2026-04-10T15:01:56Z</time></rtept><rtept lat="38.405156" lon="-105.900375"><ele>2772.0</ele><time>2026-04-10T15:01:56Z</time></rtept><rtept lat="38.405782" lon="-105.89992"><ele>2771.6</ele><time>2026-04-10T15:01:56Z</time></rtept><rtept lat="38.405905" lon="-105.899896"><ele>2773.4</ele><time>2026-04-10T15:01:56Z</time></rtept><rtept lat="38.406069" lon="-105.899833"><ele>2773.0</ele><time>2026-04-10T15:01:56Z</time></rtept><rtept lat="38.406076" lon="-105.900026"><ele>2775.0</ele><time>2026-04-10T15:01:56Z</time></rtept><rtept lat="38.40571" lon="-105.900241"><ele>2780.4</ele><time>2026-04-10T15:01:56Z</time></rtept></rte></gpx>