<?xml version="1.0" ?><gpx xmlns="http://www.topografix.com/GPX/1/1" creator="GaiaGPS" version="1.1" xmlns:xsi="http://www.w3.org/2001/XMLSchema-instance" xsi:schemaLocation="http://www.topografix.com/GPX/1/1 http://www.topografix.com/GPX/1/1/gpx.xsd"><rte><name>TD05:S1:D5 Hunts Lake Tr to Salida</name><desc>Town night in Salida</desc><extensions><line xmlns="http://www.topografix.com/GPX/gpx_style/0/2"><color>E834EC</color></line></extensions><rtept lat="38.40614" lon="-105.900614"><ele>2781.0</ele><time>2026-04-10T15:05:12Z</time></rtept><rtept lat="38.406257" lon="-105.900522"><ele>2777.6</ele><time>2026-04-10T15:05:12Z</time></rtept><rtept lat="38.406556" lon="-105.901139"><ele>2778.2</ele><time>2026-04-10T15:05:12Z</time></rtept><rtept lat="38.406741" lon="-105.901326"><ele>2775.2</ele><time>2026-04-10T15:05:12Z</time></rtept><rtept lat="38.406907" lon="-105.901476"><ele>2773.0</ele><time>2026-04-10T15:05:12Z</time></rtept><rtept lat="38.406965" lon="-105.901661"><ele>2771.2</ele><time>2026-04-10T15:05:12Z</time></rtept><rtept lat="38.406969" lon="-105.901899"><ele>2768.4</ele><time>2026-04-10T15:05:12Z</time></rtept><rtept lat="38.406819" lon="-105.902174"><ele>2766.4</ele><time>2026-04-10T15:05:12Z</time></rtept><rtept lat="38.406585" lon="-105.902356"><ele>2767.4</ele><time>2026-04-10T15:05:12Z</time></rtept><rtept lat="38.40626" lon="-105.902588"><ele>2766.2</ele><time>2026-04-10T15:05:12Z</time></rtept><rtept lat="38.405977" lon="-105.902838"><ele>2769.6</ele><time>2026-04-10T15:05:12Z</time></rtept><rtept lat="38.405888" lon="-105.902978"><ele>2768.6</ele><time>2026-04-10T15:05:12Z</time></rtept><rtept lat="38.405873" lon="-105.903168"><ele>2766.8</ele><time>2026-04-10T15:05:12Z</time></rtept><rtept lat="38.405764" lon="-105.903282"><ele>2770.2</ele><time>2026-04-10T15:05:12Z</time></rtept><rtept lat="38.4057" lon="-105.903362"><ele>2773.4</ele><time>2026-04-10T15:05:12Z</time></rtept><rtept lat="38.405787" lon="-105.903463"><ele>2771.6</ele><time>2026-04-10T15:05:12Z</time></rtept><rtept lat="38.406009" lon="-105.903544"><ele>2771.8</ele><time>2026-04-10T15:05:12Z</time></rtept><rtept lat="38.40622" lon="-105.903448"><ele>2765.8</ele><time>2026-04-10T15:05:12Z</time></rtept><rtept lat="38.406418" lon="-105.90352"><ele>2763.0</ele><time>2026-04-10T15:05:12Z</time></rtept><rtept lat="38.406738" lon="-105.903671"><ele>2761.6</ele><time>2026-04-10T15:05:12Z</time></rtept><rtept lat="38.407059" lon="-105.903765"><ele>2758.0</ele><time>2026-04-10T15:05:12Z</time></rtept><rtept lat="38.407209" lon="-105.903872"><ele>2753.8</ele><time>2026-04-10T15:05:12Z</time></rtept><rtept lat="38.407621" lon="-105.904141"><ele>2748.4</ele><time>2026-04-10T15:05:12Z</time></rtept><rtept lat="38.407803" lon="-105.904357"><ele>2745.8</ele><time>2026-04-10T15:05:12Z</time></rtept><rtept lat="38.407853" lon="-105.904834"><ele>2748.6</ele><time>2026-04-10T15:05:12Z</time></rtept><rtept lat="38.407814" lon="-105.905359"><ele>2751.0</ele><time>2026-04-10T15:05:12Z</time></rtept><rtept lat="38.407877" lon="-105.905887"><ele>2758.0</ele><time>2026-04-10T15:05:12Z</time></rtept><rtept lat="38.408012" lon="-105.906199"><ele>2751.8</ele><time>2026-04-10T15:05:12Z</time></rtept><rtept lat="38.408333" lon="-105.906353"><ele>2754.4</ele><time>2026-04-10T15:05:12Z</time></rtept><rtept lat="38.408643" lon="-105.906335"><ele>2760.8</ele><time>2026-04-10T15:05:12Z</time></rtept><rtept lat="38.408907" lon="-105.906118"><ele>2758.0</ele><time>2026-04-10T15:05:12Z</time></rtept><rtept lat="38.409182" lon="-105.905908"><ele>2755.6</ele><time>2026-04-10T15:05:12Z</time></rtept><rtept lat="38.409404" lon="-105.905798"><ele>2749.8</ele><time>2026-04-10T15:05:12Z</time></rtept><rtept lat="38.409591" lon="-105.905942"><ele>2752.0</ele><time>2026-04-10T15:05:12Z</time></rtept><rtept lat="38.409714" lon="-105.906108"><ele>2755.8</ele><time>2026-04-10T15:05:12Z</time></rtept><rtept lat="38.409953" lon="-105.906028"><ele>2746.6</ele><time>2026-04-10T15:05:12Z</time></rtept><rtept lat="38.410034" lon="-105.906239"><ele>2755.4</ele><time>2026-04-10T15:05:12Z</time></rtept><rtept lat="38.409985" lon="-105.906511"><ele>2763.6</ele><time>2026-04-10T15:05:12Z</time></rtept><rtept lat="38.410068" lon="-105.906632"><ele>2765.4</ele><time>2026-04-10T15:05:12Z</time></rtept><rtept lat="38.410274" lon="-105.9066"><ele>2765.4</ele><time>2026-04-10T15:05:12Z</time></rtept><rtept lat="38.410588" lon="-105.906404"><ele>2762.8</ele><time>2026-04-10T15:05:12Z</time></rtept><rtept lat="38.410847" lon="-105.906201"><ele>2761.2</ele><time>2026-04-10T15:05:12Z</time></rtept><rtept lat="38.411177" lon="-105.906208"><ele>2767.0</ele><time>2026-04-10T15:05:12Z</time></rtept><rtept lat="38.411586" lon="-105.906217"><ele>2766.6</ele><time>2026-04-10T15:05:12Z</time></rtept><rtept lat="38.411785" lon="-105.906368"><ele>2769.6</ele><time>2026-04-10T15:05:12Z</time></rtept><rtept lat="38.412173" lon="-105.906623"><ele>2768.4</ele><time>2026-04-10T15:05:12Z</time></rtept><rtept lat="38.412396" lon="-105.907007"><ele>2764.6</ele><time>2026-04-10T15:05:12Z</time></rtept><rtept lat="38.412815" lon="-105.907107"><ele>2756.2</ele><time>2026-04-10T15:05:12Z</time></rtept><rtept lat="38.412776" lon="-105.907275"><ele>2755.6</ele><time>2026-04-10T15:05:12Z</time></rtept><rtept lat="38.412749" lon="-105.907559"><ele>2751.2</ele><time>2026-04-10T15:05:12Z</time></rtept><rtept lat="38.412501" lon="-105.907793"><ele>2752.2</ele><time>2026-04-10T15:05:12Z</time></rtept><rtept lat="38.412265" lon="-105.908561"><ele>2742.8</ele><time>2026-04-10T15:05:12Z</time></rtept><rtept lat="38.412069" lon="-105.90918"><ele>2743.6</ele><time>2026-04-10T15:05:12Z</time></rtept><rtept lat="38.412239" lon="-105.910016"><ele>2744.2</ele><time>2026-04-10T15:05:12Z</time></rtept><rtept lat="38.412409" lon="-105.910668"><ele>2742.6</ele><time>2026-04-10T15:05:12Z</time></rtept><rtept lat="38.412265" lon="-105.911186"><ele>2748.0</ele><time>2026-04-10T15:05:12Z</time></rtept><rtept lat="38.412297" lon="-105.911705"><ele>2751.8</ele><time>2026-04-10T15:05:12Z</time></rtept><rtept lat="38.412317" lon="-105.912038"><ele>2749.6</ele><time>2026-04-10T15:05:12Z</time></rtept><rtept lat="38.412465" lon="-105.91229"><ele>2742.8</ele><time>2026-04-10T15:05:12Z</time></rtept><rtept lat="38.412632" lon="-105.912573"><ele>2734.6</ele><time>2026-04-10T15:05:12Z</time></rtept><rtept lat="38.41264" lon="-105.913064"><ele>2733.2</ele><time>2026-04-10T15:05:12Z</time></rtept><rtept lat="38.412645" lon="-105.913325"><ele>2730.4</ele><time>2026-04-10T15:05:12Z</time></rtept><rtept lat="38.412849" lon="-105.913907"><ele>2723.6</ele><time>2026-04-10T15:05:12Z</time></rtept><rtept lat="38.413024" lon="-105.914528"><ele>2720.8</ele><time>2026-04-10T15:05:12Z</time></rtept><rtept lat="38.413286" lon="-105.915147"><ele>2717.8</ele><time>2026-04-10T15:05:12Z</time></rtept><rtept lat="38.413299" lon="-105.915797"><ele>2718.4</ele><time>2026-04-10T15:05:12Z</time></rtept><rtept lat="38.413432" lon="-105.916331"><ele>2709.4</ele><time>2026-04-10T15:05:12Z</time></rtept><rtept lat="38.413485" lon="-105.916542"><ele>2698.6</ele><time>2026-04-10T15:05:12Z</time></rtept><rtept lat="38.413032" lon="-105.917011"><ele>2694.8</ele><time>2026-04-10T15:05:12Z</time></rtept><rtept lat="38.412797" lon="-105.917331"><ele>2699.6</ele><time>2026-04-10T15:05:12Z</time></rtept><rtept lat="38.41327" lon="-105.91793"><ele>2702.0</ele><time>2026-04-10T15:05:12Z</time></rtept><rtept lat="38.413336" lon="-105.918621"><ele>2710.6</ele><time>2026-04-10T15:05:12Z</time></rtept><rtept lat="38.413784" lon="-105.919158"><ele>2713.4</ele><time>2026-04-10T15:05:12Z</time></rtept><rtept lat="38.414203" lon="-105.919643"><ele>2710.2</ele><time>2026-04-10T15:05:12Z</time></rtept><rtept lat="38.414875" lon="-105.91962"><ele>2722.0</ele><time>2026-04-10T15:05:12Z</time></rtept><rtept lat="38.415146" lon="-105.918958"><ele>2719.4</ele><time>2026-04-10T15:05:12Z</time></rtept><rtept lat="38.41584" lon="-105.918473"><ele>2733.8</ele><time>2026-04-10T15:05:12Z</time></rtept><rtept lat="38.41663" lon="-105.918547"><ele>2749.4</ele><time>2026-04-10T15:05:12Z</time></rtept><rtept lat="38.416744" lon="-105.918558"><ele>2750.2</ele><time>2026-04-10T15:05:12Z</time></rtept><rtept lat="38.417347" lon="-105.918617"><ele>2751.0</ele><time>2026-04-10T15:05:12Z</time></rtept><rtept lat="38.417582" lon="-105.91864"><ele>2749.2</ele><time>2026-04-10T15:05:12Z</time></rtept><rtept lat="38.417281" lon="-105.919457"><ele>2745.8</ele><time>2026-04-10T15:05:12Z</time></rtept><rtept lat="38.417177" lon="-105.920133"><ele>2744.2</ele><time>2026-04-10T15:05:12Z</time></rtept><rtept lat="38.417161" lon="-105.920236"><ele>2745.2</ele><time>2026-04-10T15:05:12Z</time></rtept><rtept lat="38.417261" lon="-105.920271"><ele>2744.2</ele><time>2026-04-10T15:05:12Z</time></rtept><rtept lat="38.417713" lon="-105.920429"><ele>2740.0</ele><time>2026-04-10T15:05:12Z</time></rtept><rtept lat="38.418355" lon="-105.920495"><ele>2723.4</ele><time>2026-04-10T15:05:12Z</time></rtept><rtept lat="38.418512" lon="-105.920897"><ele>2716.2</ele><time>2026-04-10T15:05:12Z</time></rtept><rtept lat="38.418472" lon="-105.92195"><ele>2707.2</ele><time>2026-04-10T15:05:12Z</time></rtept><rtept lat="38.418276" lon="-105.922501"><ele>2700.6</ele><time>2026-04-10T15:05:12Z</time></rtept><rtept lat="38.41808" lon="-105.922735"><ele>2701.6</ele><time>2026-04-10T15:05:12Z</time></rtept><rtept lat="38.418053" lon="-105.92322"><ele>2693.4</ele><time>2026-04-10T15:05:12Z</time></rtept><rtept lat="38.417818" lon="-105.923671"><ele>2692.6</ele><time>2026-04-10T15:05:12Z</time></rtept><rtept lat="38.41856" lon="-105.924227"><ele>2689.6</ele><time>2026-04-10T15:05:12Z</time></rtept><rtept lat="38.418589" lon="-105.924249"><ele>2689.6</ele><time>2026-04-10T15:05:12Z</time></rtept><rtept lat="38.419572" lon="-105.924373"><ele>2687.0</ele><time>2026-04-10T15:05:12Z</time></rtept><rtept lat="38.420405" lon="-105.924349"><ele>2687.6</ele><time>2026-04-10T15:05:12Z</time></rtept><rtept lat="38.420777" lon="-105.92439"><ele>2690.2</ele><time>2026-04-10T15:05:12Z</time></rtept><rtept lat="38.421226" lon="-105.924781"><ele>2688.0</ele><time>2026-04-10T15:05:12Z</time></rtept><rtept lat="38.421252" lon="-105.925091"><ele>2693.0</ele><time>2026-04-10T15:05:12Z</time></rtept><rtept lat="38.421628" lon="-105.924707"><ele>2696.6</ele><time>2026-04-10T15:05:12Z</time></rtept><rtept lat="38.42193" lon="-105.924824"><ele>2704.0</ele><time>2026-04-10T15:05:12Z</time></rtept><rtept lat="38.422231" lon="-105.925293"><ele>2701.6</ele><time>2026-04-10T15:05:12Z</time></rtept><rtept lat="38.422571" lon="-105.926011"><ele>2698.8</ele><time>2026-04-10T15:05:12Z</time></rtept><rtept lat="38.423003" lon="-105.927119"><ele>2700.0</ele><time>2026-04-10T15:05:12Z</time></rtept><rtept lat="38.423488" lon="-105.927482"><ele>2700.8</ele><time>2026-04-10T15:05:12Z</time></rtept><rtept lat="38.424169" lon="-105.927632"><ele>2696.8</ele><time>2026-04-10T15:05:12Z</time></rtept><rtept lat="38.424637" lon="-105.927535"><ele>2693.6</ele><time>2026-04-10T15:05:12Z</time></rtept><rtept lat="38.425295" lon="-105.927114"><ele>2702.8</ele><time>2026-04-10T15:05:12Z</time></rtept><rtept lat="38.425779" lon="-105.926864"><ele>2710.6</ele><time>2026-04-10T15:05:12Z</time></rtept><rtept lat="38.426067" lon="-105.92683"><ele>2717.8</ele><time>2026-04-10T15:05:12Z</time></rtept><rtept lat="38.426473" lon="-105.927165"><ele>2723.0</ele><time>2026-04-10T15:05:12Z</time></rtept><rtept lat="38.426827" lon="-105.927348"><ele>2724.8</ele><time>2026-04-10T15:05:12Z</time></rtept><rtept lat="38.427212" lon="-105.927665"><ele>2727.8</ele><time>2026-04-10T15:05:12Z</time></rtept><rtept lat="38.42742" lon="-105.928131"><ele>2735.4</ele><time>2026-04-10T15:05:12Z</time></rtept><rtept lat="38.426919" lon="-105.928485"><ele>2742.6</ele><time>2026-04-10T15:05:12Z</time></rtept><rtept lat="38.426774" lon="-105.928986"><ele>2750.0</ele><time>2026-04-10T15:05:12Z</time></rtept><rtept lat="38.426918" lon="-105.929447"><ele>2756.2</ele><time>2026-04-10T15:05:12Z</time></rtept><rtept lat="38.427063" lon="-105.929655"><ele>2760.4</ele><time>2026-04-10T15:05:12Z</time></rtept><rtept lat="38.427494" lon="-105.929808"><ele>2770.2</ele><time>2026-04-10T15:05:12Z</time></rtept><rtept lat="38.427739" lon="-105.929946"><ele>2779.2</ele><time>2026-04-10T15:05:12Z</time></rtept><rtept lat="38.427888" lon="-105.930029"><ele>2781.8</ele><time>2026-04-10T15:05:12Z</time></rtept><rtept lat="38.428149" lon="-105.930176"><ele>2783.0</ele><time>2026-04-10T15:05:12Z</time></rtept><rtept lat="38.428569" lon="-105.930463"><ele>2791.0</ele><time>2026-04-10T15:05:12Z</time></rtept><rtept lat="38.428895" lon="-105.930718"><ele>2804.6</ele><time>2026-04-10T15:05:12Z</time></rtept><rtept lat="38.429813" lon="-105.931076"><ele>2820.2</ele><time>2026-04-10T15:05:12Z</time></rtept><rtept lat="38.430345" lon="-105.93132"><ele>2834.6</ele><time>2026-04-10T15:05:12Z</time></rtept><rtept lat="38.430889" lon="-105.931698"><ele>2843.8</ele><time>2026-04-10T15:05:12Z</time></rtept><rtept lat="38.431246" lon="-105.932186"><ele>2852.4</ele><time>2026-04-10T15:05:12Z</time></rtept><rtept lat="38.431671" lon="-105.932714"><ele>2868.0</ele><time>2026-04-10T15:05:12Z</time></rtept><rtept lat="38.431798" lon="-105.932913"><ele>2873.2</ele><time>2026-04-10T15:05:12Z</time></rtept><rtept lat="38.431797" lon="-105.933092"><ele>2875.0</ele><time>2026-04-10T15:05:12Z</time></rtept><rtept lat="38.431825" lon="-105.933201"><ele>2877.8</ele><time>2026-04-10T15:05:12Z</time></rtept><rtept lat="38.431917" lon="-105.933376"><ele>2880.6</ele><time>2026-04-10T15:05:12Z</time></rtept><rtept lat="38.43209" lon="-105.934017"><ele>2890.0</ele><time>2026-04-10T15:05:12Z</time></rtept><rtept lat="38.432496" lon="-105.934586"><ele>2893.8</ele><time>2026-04-10T15:05:12Z</time></rtept><rtept lat="38.432998" lon="-105.935148"><ele>2901.8</ele><time>2026-04-10T15:05:12Z</time></rtept><rtept lat="38.433129" lon="-105.935224"><ele>2903.8</ele><time>2026-04-10T15:05:12Z</time></rtept><rtept lat="38.433265" lon="-105.93525"><ele>2906.8</ele><time>2026-04-10T15:05:12Z</time></rtept><rtept lat="38.433387" lon="-105.935221"><ele>2909.4</ele><time>2026-04-10T15:05:12Z</time></rtept><rtept lat="38.433774" lon="-105.935238"><ele>2917.2</ele><time>2026-04-10T15:05:12Z</time></rtept><rtept lat="38.433881" lon="-105.935318"><ele>2918.4</ele><time>2026-04-10T15:05:12Z</time></rtept><rtept lat="38.433993" lon="-105.935413"><ele>2921.6</ele><time>2026-04-10T15:05:12Z</time></rtept><rtept lat="38.434178" lon="-105.935491"><ele>2925.6</ele><time>2026-04-10T15:05:12Z</time></rtept><rtept lat="38.434306" lon="-105.935502"><ele>2927.8</ele><time>2026-04-10T15:05:12Z</time></rtept><rtept lat="38.434385" lon="-105.935508"><ele>2929.0</ele><time>2026-04-10T15:05:12Z</time></rtept><rtept lat="38.434457" lon="-105.935551"><ele>2930.2</ele><time>2026-04-10T15:05:12Z</time></rtept><rtept lat="38.434453" lon="-105.935656"><ele>2930.8</ele><time>2026-04-10T15:05:12Z</time></rtept><rtept lat="38.434438" lon="-105.935832"><ele>2932.6</ele><time>2026-04-10T15:05:12Z</time></rtept><rtept lat="38.434443" lon="-105.936053"><ele>2937.0</ele><time>2026-04-10T15:05:12Z</time></rtept><rtept lat="38.4344" lon="-105.936172"><ele>2937.6</ele><time>2026-04-10T15:05:12Z</time></rtept><rtept lat="38.4343" lon="-105.93637"><ele>2942.2</ele><time>2026-04-10T15:05:12Z</time></rtept><rtept lat="38.434205" lon="-105.9365"><ele>2941.8</ele><time>2026-04-10T15:05:12Z</time></rtept><rtept lat="38.43412" lon="-105.936749"><ele>2947.2</ele><time>2026-04-10T15:05:12Z</time></rtept><rtept lat="38.434049" lon="-105.936856"><ele>2948.4</ele><time>2026-04-10T15:05:12Z</time></rtept><rtept lat="38.433916" lon="-105.937056"><ele>2953.8</ele><time>2026-04-10T15:05:12Z</time></rtept><rtept lat="38.43386" lon="-105.937185"><ele>2955.0</ele><time>2026-04-10T15:05:12Z</time></rtept><rtept lat="38.433797" lon="-105.937235"><ele>2956.2</ele><time>2026-04-10T15:05:12Z</time></rtept><rtept lat="38.433726" lon="-105.937334"><ele>2956.8</ele><time>2026-04-10T15:05:12Z</time></rtept><rtept lat="38.43369" lon="-105.93744"><ele>2957.0</ele><time>2026-04-10T15:05:12Z</time></rtept><rtept lat="38.433654" lon="-105.937461"><ele>2957.0</ele><time>2026-04-10T15:05:12Z</time></rtept><rtept lat="38.4336" lon="-105.93761"><ele>2958.2</ele><time>2026-04-10T15:05:12Z</time></rtept><rtept lat="38.433622" lon="-105.937717"><ele>2959.2</ele><time>2026-04-10T15:05:12Z</time></rtept><rtept lat="38.433559" lon="-105.937878"><ele>2961.4</ele><time>2026-04-10T15:05:12Z</time></rtept><rtept lat="38.433428" lon="-105.937998"><ele>2962.4</ele><time>2026-04-10T15:05:12Z</time></rtept><rtept lat="38.433277" lon="-105.938388"><ele>2964.0</ele><time>2026-04-10T15:05:12Z</time></rtept><rtept lat="38.433214" lon="-105.93885"><ele>2971.4</ele><time>2026-04-10T15:05:12Z</time></rtept><rtept lat="38.432866" lon="-105.93912"><ele>2976.6</ele><time>2026-04-10T15:05:12Z</time></rtept><rtept lat="38.432772" lon="-105.939263"><ele>2977.8</ele><time>2026-04-10T15:05:12Z</time></rtept><rtept lat="38.43272" lon="-105.939544"><ele>2979.6</ele><time>2026-04-10T15:05:12Z</time></rtept><rtept lat="38.432712" lon="-105.939952"><ele>2980.2</ele><time>2026-04-10T15:05:12Z</time></rtept><rtept lat="38.432584" lon="-105.940157"><ele>2978.6</ele><time>2026-04-10T15:05:12Z</time></rtept><rtept lat="38.432489" lon="-105.940357"><ele>2976.6</ele><time>2026-04-10T15:05:12Z</time></rtept><rtept lat="38.432321" lon="-105.940425"><ele>2974.8</ele><time>2026-04-10T15:05:12Z</time></rtept><rtept lat="38.432071" lon="-105.94041"><ele>2972.2</ele><time>2026-04-10T15:05:12Z</time></rtept><rtept lat="38.431748" lon="-105.940415"><ele>2969.2</ele><time>2026-04-10T15:05:12Z</time></rtept><rtept lat="38.43168" lon="-105.940866"><ele>2964.4</ele><time>2026-04-10T15:05:12Z</time></rtept><rtept lat="38.43155" lon="-105.941268"><ele>2957.6</ele><time>2026-04-10T15:05:12Z</time></rtept><rtept lat="38.431569" lon="-105.941506"><ele>2953.8</ele><time>2026-04-10T15:05:12Z</time></rtept><rtept lat="38.431662" lon="-105.942147"><ele>2945.4</ele><time>2026-04-10T15:05:12Z</time></rtept><rtept lat="38.431783" lon="-105.942821"><ele>2932.2</ele><time>2026-04-10T15:05:12Z</time></rtept><rtept lat="38.432088" lon="-105.943286"><ele>2925.6</ele><time>2026-04-10T15:05:12Z</time></rtept><rtept lat="38.432169" lon="-105.943991"><ele>2914.6</ele><time>2026-04-10T15:05:12Z</time></rtept><rtept lat="38.432378" lon="-105.944994"><ele>2894.0</ele><time>2026-04-10T15:05:12Z</time></rtept><rtept lat="38.432583" lon="-105.945197"><ele>2893.4</ele><time>2026-04-10T15:05:12Z</time></rtept><rtept lat="38.432804" lon="-105.945382"><ele>2892.2</ele><time>2026-04-10T15:05:12Z</time></rtept><rtept lat="38.432774" lon="-105.945698"><ele>2886.8</ele><time>2026-04-10T15:05:12Z</time></rtept><rtept lat="38.432939" lon="-105.945924"><ele>2884.2</ele><time>2026-04-10T15:05:12Z</time></rtept><rtept lat="38.433229" lon="-105.946021"><ele>2886.2</ele><time>2026-04-10T15:05:12Z</time></rtept><rtept lat="38.432842" lon="-105.946117"><ele>2879.4</ele><time>2026-04-10T15:05:12Z</time></rtept><rtept lat="38.432251" lon="-105.946111"><ele>2866.2</ele><time>2026-04-10T15:05:12Z</time></rtept><rtept lat="38.432257" lon="-105.946462"><ele>2861.0</ele><time>2026-04-10T15:05:12Z</time></rtept><rtept lat="38.432337" lon="-105.946608"><ele>2859.6</ele><time>2026-04-10T15:05:12Z</time></rtept><rtept lat="38.432694" lon="-105.947253"><ele>2851.8</ele><time>2026-04-10T15:05:12Z</time></rtept><rtept lat="38.433066" lon="-105.94786"><ele>2847.6</ele><time>2026-04-10T15:05:12Z</time></rtept><rtept lat="38.433485" lon="-105.948963"><ele>2837.4</ele><time>2026-04-10T15:05:12Z</time></rtept><rtept lat="38.4338" lon="-105.949514"><ele>2829.0</ele><time>2026-04-10T15:05:12Z</time></rtept><rtept lat="38.434094" lon="-105.950064"><ele>2821.0</ele><time>2026-04-10T15:05:12Z</time></rtept><rtept lat="38.434117" lon="-105.950107"><ele>2821.2</ele><time>2026-04-10T15:05:12Z</time></rtept><rtept lat="38.434411" lon="-105.950657"><ele>2814.0</ele><time>2026-04-10T15:05:12Z</time></rtept><rtept lat="38.434473" lon="-105.951373"><ele>2806.8</ele><time>2026-04-10T15:05:12Z</time></rtept><rtept lat="38.434662" lon="-105.951671"><ele>2795.2</ele><time>2026-04-10T15:05:12Z</time></rtept><rtept lat="38.434337" lon="-105.951657"><ele>2796.6</ele><time>2026-04-10T15:05:12Z</time></rtept><rtept lat="38.433885" lon="-105.952001"><ele>2791.2</ele><time>2026-04-10T15:05:12Z</time></rtept><rtept lat="38.433959" lon="-105.952369"><ele>2788.8</ele><time>2026-04-10T15:05:12Z</time></rtept><rtept lat="38.434323" lon="-105.95265"><ele>2782.8</ele><time>2026-04-10T15:05:12Z</time></rtept><rtept lat="38.434984" lon="-105.952869"><ele>2765.8</ele><time>2026-04-10T15:05:12Z</time></rtept><rtept lat="38.435246" lon="-105.953185"><ele>2759.2</ele><time>2026-04-10T15:05:12Z</time></rtept><rtept lat="38.435612" lon="-105.953596"><ele>2750.8</ele><time>2026-04-10T15:05:12Z</time></rtept><rtept lat="38.435821" lon="-105.953933"><ele>2748.0</ele><time>2026-04-10T15:05:12Z</time></rtept><rtept lat="38.435966" lon="-105.954039"><ele>2745.4</ele><time>2026-04-10T15:05:12Z</time></rtept><rtept lat="38.436246" lon="-105.95453"><ele>2737.0</ele><time>2026-04-10T15:05:12Z</time></rtept><rtept lat="38.436474" lon="-105.954865"><ele>2734.6</ele><time>2026-04-10T15:05:12Z</time></rtept><rtept lat="38.436522" lon="-105.954996"><ele>2734.2</ele><time>2026-04-10T15:05:12Z</time></rtept><rtept lat="38.436605" lon="-105.955175"><ele>2734.2</ele><time>2026-04-10T15:05:12Z</time></rtept><rtept lat="38.436926" lon="-105.95539"><ele>2733.4</ele><time>2026-04-10T15:05:12Z</time></rtept><rtept lat="38.436963" lon="-105.955414"><ele>2734.2</ele><time>2026-04-10T15:05:12Z</time></rtept><rtept lat="38.436963" lon="-105.955414"><ele>2734.2</ele><time>2026-04-10T15:05:12Z</time></rtept><rtept lat="38.43728" lon="-105.95562"><ele>2730.0</ele><time>2026-04-10T15:05:12Z</time></rtept><rtept lat="38.437413" lon="-105.955773"><ele>2728.8</ele><time>2026-04-10T15:05:12Z</time></rtept><rtept lat="38.437635" lon="-105.955929"><ele>2726.2</ele><time>2026-04-10T15:05:12Z</time></rtept><rtept lat="38.437684" lon="-105.955811"><ele>2723.8</ele><time>2026-04-10T15:05:12Z</time></rtept><rtept lat="38.437766" lon="-105.955662"><ele>2721.6</ele><time>2026-04-10T15:05:12Z</time></rtept><rtept lat="38.43795" lon="-105.955594"><ele>2716.0</ele><time>2026-04-10T15:05:12Z</time></rtept><rtept lat="38.438122" lon="-105.955695"><ele>2712.2</ele><time>2026-04-10T15:05:12Z</time></rtept><rtept lat="38.438652" lon="-105.956005"><ele>2708.4</ele><time>2026-04-10T15:05:12Z</time></rtept><rtept lat="38.439158" lon="-105.956414"><ele>2705.2</ele><time>2026-04-10T15:05:12Z</time></rtept><rtept lat="38.43917" lon="-105.956559"><ele>2699.8</ele><time>2026-04-10T15:05:12Z</time></rtept><rtept lat="38.439076" lon="-105.956689"><ele>2696.6</ele><time>2026-04-10T15:05:12Z</time></rtept><rtept lat="38.439074" lon="-105.956825"><ele>2694.2</ele><time>2026-04-10T15:05:12Z</time></rtept><rtept lat="38.439131" lon="-105.957017"><ele>2692.0</ele><time>2026-04-10T15:05:12Z</time></rtept><rtept lat="38.439261" lon="-105.957309"><ele>2687.8</ele><time>2026-04-10T15:05:12Z</time></rtept><rtept lat="38.439396" lon="-105.957304"><ele>2688.0</ele><time>2026-04-10T15:05:12Z</time></rtept><rtept lat="38.439686" lon="-105.957259"><ele>2690.0</ele><time>2026-04-10T15:05:12Z</time></rtept><rtept lat="38.440005" lon="-105.957497"><ele>2686.2</ele><time>2026-04-10T15:05:12Z</time></rtept><rtept lat="38.440149" lon="-105.957604"><ele>2683.8</ele><time>2026-04-10T15:05:12Z</time></rtept><rtept lat="38.440612" lon="-105.958541"><ele>2670.6</ele><time>2026-04-10T15:05:12Z</time></rtept><rtept lat="38.440764" lon="-105.958688"><ele>2668.0</ele><time>2026-04-10T15:05:12Z</time></rtept><rtept lat="38.440798" lon="-105.958865"><ele>2665.8</ele><time>2026-04-10T15:05:12Z</time></rtept><rtept lat="38.44085" lon="-105.959274"><ele>2659.0</ele><time>2026-04-10T15:05:12Z</time></rtept><rtept lat="38.44095" lon="-105.959485"><ele>2657.8</ele><time>2026-04-10T15:05:12Z</time></rtept><rtept lat="38.44128" lon="-105.959865"><ele>2652.4</ele><time>2026-04-10T15:05:12Z</time></rtept><rtept lat="38.441334" lon="-105.960011"><ele>2650.8</ele><time>2026-04-10T15:05:12Z</time></rtept><rtept lat="38.441451" lon="-105.960322"><ele>2648.4</ele><time>2026-04-10T15:05:12Z</time></rtept><rtept lat="38.44166" lon="-105.960411"><ele>2645.4</ele><time>2026-04-10T15:05:12Z</time></rtept><rtept lat="38.441811" lon="-105.960474"><ele>2643.6</ele><time>2026-04-10T15:05:12Z</time></rtept><rtept lat="38.441962" lon="-105.960538"><ele>2641.0</ele><time>2026-04-10T15:05:12Z</time></rtept><rtept lat="38.441971" lon="-105.960543"><ele>2641.0</ele><time>2026-04-10T15:05:12Z</time></rtept><rtept lat="38.442729" lon="-105.960939"><ele>2632.6</ele><time>2026-04-10T15:05:12Z</time></rtept><rtept lat="38.442877" lon="-105.960983"><ele>2629.4</ele><time>2026-04-10T15:05:12Z</time></rtept><rtept lat="38.443427" lon="-105.961147"><ele>2623.4</ele><time>2026-04-10T15:05:12Z</time></rtept><rtept lat="38.444444" lon="-105.961005"><ele>2608.2</ele><time>2026-04-10T15:05:12Z</time></rtept><rtept lat="38.445758" lon="-105.960957"><ele>2599.2</ele><time>2026-04-10T15:05:12Z</time></rtept><rtept lat="38.445931" lon="-105.961004"><ele>2592.8</ele><time>2026-04-10T15:05:12Z</time></rtept><rtept lat="38.446125" lon="-105.960934"><ele>2592.2</ele><time>2026-04-10T15:05:12Z</time></rtept><rtept lat="38.44636" lon="-105.960822"><ele>2589.4</ele><time>2026-04-10T15:05:12Z</time></rtept><rtept lat="38.448064" lon="-105.959806"><ele>2567.2</ele><time>2026-04-10T15:05:12Z</time></rtept><rtept lat="38.448274" lon="-105.95968"><ele>2566.8</ele><time>2026-04-10T15:05:12Z</time></rtept><rtept lat="38.448597" lon="-105.959198"><ele>2567.4</ele><time>2026-04-10T15:05:12Z</time></rtept><rtept lat="38.448784" lon="-105.959138"><ele>2562.6</ele><time>2026-04-10T15:05:12Z</time></rtept><rtept lat="38.449311" lon="-105.959348"><ele>2547.8</ele><time>2026-04-10T15:05:12Z</time></rtept><rtept lat="38.449414" lon="-105.959389"><ele>2547.2</ele><time>2026-04-10T15:05:12Z</time></rtept><rtept lat="38.449725" lon="-105.95968"><ele>2545.4</ele><time>2026-04-10T15:05:12Z</time></rtept><rtept lat="38.45026" lon="-105.959775"><ele>2537.8</ele><time>2026-04-10T15:05:12Z</time></rtept><rtept lat="38.450743" lon="-105.959714"><ele>2534.4</ele><time>2026-04-10T15:05:12Z</time></rtept><rtept lat="38.450967" lon="-105.959909"><ele>2531.8</ele><time>2026-04-10T15:05:12Z</time></rtept><rtept lat="38.451228" lon="-105.960371"><ele>2524.0</ele><time>2026-04-10T15:05:12Z</time></rtept><rtept lat="38.451403" lon="-105.960613"><ele>2521.2</ele><time>2026-04-10T15:05:12Z</time></rtept><rtept lat="38.451575" lon="-105.96085"><ele>2518.0</ele><time>2026-04-10T15:05:12Z</time></rtept><rtept lat="38.451838" lon="-105.961084"><ele>2515.4</ele><time>2026-04-10T15:05:12Z</time></rtept><rtept lat="38.452511" lon="-105.961681"><ele>2510.8</ele><time>2026-04-10T15:05:12Z</time></rtept><rtept lat="38.452822" lon="-105.961746"><ele>2510.0</ele><time>2026-04-10T15:05:12Z</time></rtept><rtept lat="38.453944" lon="-105.961422"><ele>2510.2</ele><time>2026-04-10T15:05:12Z</time></rtept><rtept lat="38.454059" lon="-105.96145"><ele>2510.0</ele><time>2026-04-10T15:05:12Z</time></rtept><rtept lat="38.454097" lon="-105.961537"><ele>2510.8</ele><time>2026-04-10T15:05:12Z</time></rtept><rtept lat="38.453911" lon="-105.961902"><ele>2514.6</ele><time>2026-04-10T15:05:12Z</time></rtept><rtept lat="38.453458" lon="-105.962373"><ele>2515.2</ele><time>2026-04-10T15:05:12Z</time></rtept><rtept lat="38.453162" lon="-105.962531"><ele>2516.6</ele><time>2026-04-10T15:05:12Z</time></rtept><rtept lat="38.452999" lon="-105.962786"><ele>2513.4</ele><time>2026-04-10T15:05:12Z</time></rtept><rtept lat="38.452808" lon="-105.96337"><ele>2509.6</ele><time>2026-04-10T15:05:12Z</time></rtept><rtept lat="38.452871" lon="-105.963584"><ele>2506.6</ele><time>2026-04-10T15:05:12Z</time></rtept><rtept lat="38.45287" lon="-105.963979"><ele>2504.0</ele><time>2026-04-10T15:05:12Z</time></rtept><rtept lat="38.452715" lon="-105.964464"><ele>2500.2</ele><time>2026-04-10T15:05:12Z</time></rtept><rtept lat="38.452628" lon="-105.965031"><ele>2500.4</ele><time>2026-04-10T15:05:12Z</time></rtept><rtept lat="38.452708" lon="-105.965164"><ele>2499.8</ele><time>2026-04-10T15:05:12Z</time></rtept><rtept lat="38.452725" lon="-105.965193"><ele>2499.6</ele><time>2026-04-10T15:05:12Z</time></rtept><rtept lat="38.452809" lon="-105.96522"><ele>2500.8</ele><time>2026-04-10T15:05:12Z</time></rtept><rtept lat="38.45373" lon="-105.964224"><ele>2490.6</ele><time>2026-04-10T15:05:12Z</time></rtept><rtept lat="38.45406" lon="-105.964264"><ele>2489.8</ele><time>2026-04-10T15:05:12Z</time></rtept><rtept lat="38.454403" lon="-105.964177"><ele>2484.4</ele><time>2026-04-10T15:05:12Z</time></rtept><rtept lat="38.455305" lon="-105.964083"><ele>2472.8</ele><time>2026-04-10T15:05:12Z</time></rtept><rtept lat="38.455477" lon="-105.963994"><ele>2469.6</ele><time>2026-04-10T15:05:12Z</time></rtept><rtept lat="38.455782" lon="-105.964202"><ele>2466.6</ele><time>2026-04-10T15:05:12Z</time></rtept><rtept lat="38.456245" lon="-105.964258"><ele>2461.8</ele><time>2026-04-10T15:05:12Z</time></rtept><rtept lat="38.456421" lon="-105.964279"><ele>2460.4</ele><time>2026-04-10T15:05:12Z</time></rtept><rtept lat="38.456549" lon="-105.964383"><ele>2460.8</ele><time>2026-04-10T15:05:12Z</time></rtept><rtept lat="38.456749" lon="-105.964404"><ele>2458.4</ele><time>2026-04-10T15:05:12Z</time></rtept><rtept lat="38.456941" lon="-105.964305"><ele>2455.0</ele><time>2026-04-10T15:05:12Z</time></rtept><rtept lat="38.457348" lon="-105.964326"><ele>2449.8</ele><time>2026-04-10T15:05:12Z</time></rtept><rtept lat="38.457517" lon="-105.964334"><ele>2447.8</ele><time>2026-04-10T15:05:12Z</time></rtept><rtept lat="38.457584" lon="-105.964338"><ele>2448.2</ele><time>2026-04-10T15:05:12Z</time></rtept><rtept lat="38.457944" lon="-105.964107"><ele>2446.0</ele><time>2026-04-10T15:05:12Z</time></rtept><rtept lat="38.458208" lon="-105.963938"><ele>2444.2</ele><time>2026-04-10T15:05:12Z</time></rtept><rtept lat="38.458247" lon="-105.963913"><ele>2444.0</ele><time>2026-04-10T15:05:12Z</time></rtept><rtept lat="38.458483" lon="-105.963755"><ele>2441.4</ele><time>2026-04-10T15:05:12Z</time></rtept><rtept lat="38.458858" lon="-105.9637"><ele>2438.8</ele><time>2026-04-10T15:05:12Z</time></rtept><rtept lat="38.459532" lon="-105.963761"><ele>2437.6</ele><time>2026-04-10T15:05:12Z</time></rtept><rtept lat="38.459755" lon="-105.963633"><ele>2436.2</ele><time>2026-04-10T15:05:12Z</time></rtept><rtept lat="38.460598" lon="-105.963005"><ele>2431.6</ele><time>2026-04-10T15:05:12Z</time></rtept><rtept lat="38.460706" lon="-105.96289"><ele>2429.8</ele><time>2026-04-10T15:05:12Z</time></rtept><rtept lat="38.460687" lon="-105.962742"><ele>2426.8</ele><time>2026-04-10T15:05:12Z</time></rtept><rtept lat="38.460582" lon="-105.962606"><ele>2424.2</ele><time>2026-04-10T15:05:12Z</time></rtept><rtept lat="38.460561" lon="-105.962388"><ele>2421.2</ele><time>2026-04-10T15:05:12Z</time></rtept><rtept lat="38.46087" lon="-105.962144"><ele>2418.4</ele><time>2026-04-10T15:05:12Z</time></rtept><rtept lat="38.461272" lon="-105.961826"><ele>2411.6</ele><time>2026-04-10T15:05:12Z</time></rtept><rtept lat="38.461673" lon="-105.961801"><ele>2411.2</ele><time>2026-04-10T15:05:12Z</time></rtept><rtept lat="38.461944" lon="-105.961683"><ele>2409.4</ele><time>2026-04-10T15:05:12Z</time></rtept><rtept lat="38.462173" lon="-105.961607"><ele>2408.0</ele><time>2026-04-10T15:05:12Z</time></rtept><rtept lat="38.462567" lon="-105.96155"><ele>2407.4</ele><time>2026-04-10T15:05:12Z</time></rtept><rtept lat="38.463025" lon="-105.961546"><ele>2406.2</ele><time>2026-04-10T15:05:12Z</time></rtept><rtept lat="38.463224" lon="-105.961496"><ele>2406.6</ele><time>2026-04-10T15:05:12Z</time></rtept><rtept lat="38.463304" lon="-105.961489"><ele>2407.2</ele><time>2026-04-10T15:05:12Z</time></rtept><rtept lat="38.46321" lon="-105.961842"><ele>2410.6</ele><time>2026-04-10T15:05:12Z</time></rtept><rtept lat="38.463223" lon="-105.962034"><ele>2413.2</ele><time>2026-04-10T15:05:12Z</time></rtept><rtept lat="38.463533" lon="-105.962124"><ele>2417.8</ele><time>2026-04-10T15:05:12Z</time></rtept><rtept lat="38.463523" lon="-105.96237"><ele>2420.0</ele><time>2026-04-10T15:05:12Z</time></rtept><rtept lat="38.463486" lon="-105.962583"><ele>2421.4</ele><time>2026-04-10T15:05:12Z</time></rtept><rtept lat="38.463461" lon="-105.962881"><ele>2424.0</ele><time>2026-04-10T15:05:12Z</time></rtept><rtept lat="38.463373" lon="-105.963265"><ele>2428.4</ele><time>2026-04-10T15:05:12Z</time></rtept><rtept lat="38.463223" lon="-105.963697"><ele>2435.0</ele><time>2026-04-10T15:05:12Z</time></rtept><rtept lat="38.463074" lon="-105.964369"><ele>2438.8</ele><time>2026-04-10T15:05:12Z</time></rtept><rtept lat="38.463073" lon="-105.9652"><ele>2443.6</ele><time>2026-04-10T15:05:12Z</time></rtept><rtept lat="38.463073" lon="-105.965524"><ele>2444.4</ele><time>2026-04-10T15:05:12Z</time></rtept><rtept lat="38.463072" lon="-105.965787"><ele>2446.4</ele><time>2026-04-10T15:05:12Z</time></rtept><rtept lat="38.463072" lon="-105.966171"><ele>2450.4</ele><time>2026-04-10T15:05:12Z</time></rtept><rtept lat="38.462938" lon="-105.966727"><ele>2456.2</ele><time>2026-04-10T15:05:12Z</time></rtept><rtept lat="38.463115" lon="-105.967261"><ele>2468.4</ele><time>2026-04-10T15:05:12Z</time></rtept><rtept lat="38.463071" lon="-105.967449"><ele>2471.8</ele><time>2026-04-10T15:05:12Z</time></rtept><rtept lat="38.462762" lon="-105.968156"><ele>2476.8</ele><time>2026-04-10T15:05:12Z</time></rtept><rtept lat="38.462959" lon="-105.968006"><ele>2479.4</ele><time>2026-04-10T15:05:12Z</time></rtept><rtept lat="38.462985" lon="-105.968036"><ele>2480.6</ele><time>2026-04-10T15:05:12Z</time></rtept><rtept lat="38.462791" lon="-105.968412"><ele>2479.8</ele><time>2026-04-10T15:05:12Z</time></rtept><rtept lat="38.462633" lon="-105.968511"><ele>2478.8</ele><time>2026-04-10T15:05:12Z</time></rtept><rtept lat="38.462685" lon="-105.969353"><ele>2487.0</ele><time>2026-04-10T15:05:12Z</time></rtept><rtept lat="38.46272" lon="-105.969917"><ele>2496.2</ele><time>2026-04-10T15:05:12Z</time></rtept><rtept lat="38.462623" lon="-105.970333"><ele>2503.4</ele><time>2026-04-10T15:05:12Z</time></rtept><rtept lat="38.462631" lon="-105.970442"><ele>2506.0</ele><time>2026-04-10T15:05:12Z</time></rtept><rtept lat="38.462646" lon="-105.970483"><ele>2506.0</ele><time>2026-04-10T15:05:12Z</time></rtept><rtept lat="38.46282" lon="-105.970255"><ele>2502.4</ele><time>2026-04-10T15:05:12Z</time></rtept><rtept lat="38.462874" lon="-105.969947"><ele>2502.4</ele><time>2026-04-10T15:05:12Z</time></rtept><rtept lat="38.462991" lon="-105.969744"><ele>2503.6</ele><time>2026-04-10T15:05:12Z</time></rtept><rtept lat="38.462942" lon="-105.970138"><ele>2507.4</ele><time>2026-04-10T15:05:12Z</time></rtept><rtept lat="38.462962" lon="-105.970393"><ele>2509.0</ele><time>2026-04-10T15:05:12Z</time></rtept><rtept lat="38.4629" lon="-105.970667"><ele>2509.8</ele><time>2026-04-10T15:05:12Z</time></rtept><rtept lat="38.462873" lon="-105.971068"><ele>2516.2</ele><time>2026-04-10T15:05:12Z</time></rtept><rtept lat="38.46285" lon="-105.971354"><ele>2517.8</ele><time>2026-04-10T15:05:12Z</time></rtept><rtept lat="38.46281" lon="-105.971496"><ele>2520.2</ele><time>2026-04-10T15:05:12Z</time></rtept><rtept lat="38.462785" lon="-105.971583"><ele>2520.6</ele><time>2026-04-10T15:05:12Z</time></rtept><rtept lat="38.462801" lon="-105.971791"><ele>2523.2</ele><time>2026-04-10T15:05:12Z</time></rtept><rtept lat="38.462845" lon="-105.972125"><ele>2527.2</ele><time>2026-04-10T15:05:12Z</time></rtept><rtept lat="38.462921" lon="-105.972429"><ele>2532.0</ele><time>2026-04-10T15:05:12Z</time></rtept><rtept lat="38.462944" lon="-105.97273"><ele>2535.4</ele><time>2026-04-10T15:05:12Z</time></rtept><rtept lat="38.462955" lon="-105.972981"><ele>2538.4</ele><time>2026-04-10T15:05:12Z</time></rtept><rtept lat="38.462944" lon="-105.973174"><ele>2539.8</ele><time>2026-04-10T15:05:12Z</time></rtept><rtept lat="38.462991" lon="-105.973392"><ele>2542.0</ele><time>2026-04-10T15:05:12Z</time></rtept><rtept lat="38.463038" lon="-105.973603"><ele>2543.8</ele><time>2026-04-10T15:05:12Z</time></rtept><rtept lat="38.463139" lon="-105.973841"><ele>2547.4</ele><time>2026-04-10T15:05:12Z</time></rtept><rtept lat="38.463186" lon="-105.97414"><ele>2549.6</ele><time>2026-04-10T15:05:12Z</time></rtept><rtept lat="38.463133" lon="-105.974295"><ele>2551.4</ele><time>2026-04-10T15:05:12Z</time></rtept><rtept lat="38.462903" lon="-105.973964"><ele>2550.0</ele><time>2026-04-10T15:05:12Z</time></rtept><rtept lat="38.462756" lon="-105.973889"><ele>2550.4</ele><time>2026-04-10T15:05:12Z</time></rtept><rtept lat="38.462642" lon="-105.97388"><ele>2551.6</ele><time>2026-04-10T15:05:12Z</time></rtept><rtept lat="38.462605" lon="-105.973797"><ele>2550.8</ele><time>2026-04-10T15:05:12Z</time></rtept><rtept lat="38.46243" lon="-105.973617"><ele>2550.8</ele><time>2026-04-10T15:05:12Z</time></rtept><rtept lat="38.462343" lon="-105.973708"><ele>2552.0</ele><time>2026-04-10T15:05:12Z</time></rtept><rtept lat="38.462402" lon="-105.973911"><ele>2553.2</ele><time>2026-04-10T15:05:12Z</time></rtept><rtept lat="38.462491" lon="-105.974114"><ele>2554.2</ele><time>2026-04-10T15:05:12Z</time></rtept><rtept lat="38.462608" lon="-105.974317"><ele>2556.0</ele><time>2026-04-10T15:05:12Z</time></rtept><rtept lat="38.462667" lon="-105.974498"><ele>2557.4</ele><time>2026-04-10T15:05:12Z</time></rtept><rtept lat="38.462715" lon="-105.974656"><ele>2559.2</ele><time>2026-04-10T15:05:12Z</time></rtept><rtept lat="38.462785" lon="-105.974859"><ele>2560.4</ele><time>2026-04-10T15:05:12Z</time></rtept><rtept lat="38.462778" lon="-105.975104"><ele>2562.8</ele><time>2026-04-10T15:05:12Z</time></rtept><rtept lat="38.462756" lon="-105.975334"><ele>2564.8</ele><time>2026-04-10T15:05:12Z</time></rtept><rtept lat="38.462687" lon="-105.975613"><ele>2567.2</ele><time>2026-04-10T15:05:12Z</time></rtept><rtept lat="38.46268" lon="-105.975626"><ele>2567.2</ele><time>2026-04-10T15:05:12Z</time></rtept><rtept lat="38.462561" lon="-105.975852"><ele>2571.0</ele><time>2026-04-10T15:05:12Z</time></rtept><rtept lat="38.462455" lon="-105.975754"><ele>2571.6</ele><time>2026-04-10T15:05:12Z</time></rtept><rtept lat="38.462351" lon="-105.975728"><ele>2571.6</ele><time>2026-04-10T15:05:12Z</time></rtept><rtept lat="38.462225" lon="-105.975701"><ele>2572.8</ele><time>2026-04-10T15:05:12Z</time></rtept><rtept lat="38.461982" lon="-105.975859"><ele>2576.0</ele><time>2026-04-10T15:05:12Z</time></rtept><rtept lat="38.461683" lon="-105.975884"><ele>2576.4</ele><time>2026-04-10T15:05:12Z</time></rtept><rtept lat="38.461641" lon="-105.975999"><ele>2577.2</ele><time>2026-04-10T15:05:12Z</time></rtept><rtept lat="38.461535" lon="-105.97606"><ele>2578.0</ele><time>2026-04-10T15:05:12Z</time></rtept><rtept lat="38.461418" lon="-105.976189"><ele>2580.0</ele><time>2026-04-10T15:05:12Z</time></rtept><rtept lat="38.461147" lon="-105.97623"><ele>2579.6</ele><time>2026-04-10T15:05:12Z</time></rtept><rtept lat="38.461025" lon="-105.976406"><ele>2581.2</ele><time>2026-04-10T15:05:12Z</time></rtept><rtept lat="38.460786" lon="-105.976589"><ele>2582.2</ele><time>2026-04-10T15:05:12Z</time></rtept><rtept lat="38.460605" lon="-105.976888"><ele>2584.8</ele><time>2026-04-10T15:05:12Z</time></rtept><rtept lat="38.46044" lon="-105.97712"><ele>2584.4</ele><time>2026-04-10T15:05:12Z</time></rtept><rtept lat="38.460393" lon="-105.97743"><ele>2587.6</ele><time>2026-04-10T15:05:12Z</time></rtept><rtept lat="38.460271" lon="-105.977824"><ele>2590.8</ele><time>2026-04-10T15:05:12Z</time></rtept><rtept lat="38.460074" lon="-105.978095"><ele>2591.2</ele><time>2026-04-10T15:05:12Z</time></rtept><rtept lat="38.459957" lon="-105.978333"><ele>2592.4</ele><time>2026-04-10T15:05:12Z</time></rtept><rtept lat="38.459855" lon="-105.9787"><ele>2595.6</ele><time>2026-04-10T15:05:12Z</time></rtept><rtept lat="38.459858" lon="-105.978869"><ele>2597.6</ele><time>2026-04-10T15:05:12Z</time></rtept><rtept lat="38.46001" lon="-105.978767"><ele>2599.0</ele><time>2026-04-10T15:05:12Z</time></rtept><rtept lat="38.460275" lon="-105.9786"><ele>2602.0</ele><time>2026-04-10T15:05:12Z</time></rtept><rtept lat="38.46066" lon="-105.978461"><ele>2603.2</ele><time>2026-04-10T15:05:12Z</time></rtept><rtept lat="38.460739" lon="-105.978486"><ele>2603.4</ele><time>2026-04-10T15:05:12Z</time></rtept><rtept lat="38.460792" lon="-105.978665"><ele>2606.6</ele><time>2026-04-10T15:05:12Z</time></rtept><rtept lat="38.460879" lon="-105.978865"><ele>2610.2</ele><time>2026-04-10T15:05:12Z</time></rtept><rtept lat="38.460992" lon="-105.979122"><ele>2611.6</ele><time>2026-04-10T15:05:12Z</time></rtept><rtept lat="38.461115" lon="-105.979334"><ele>2613.2</ele><time>2026-04-10T15:05:12Z</time></rtept><rtept lat="38.461269" lon="-105.979466"><ele>2614.2</ele><time>2026-04-10T15:05:12Z</time></rtept><rtept lat="38.461301" lon="-105.97954"><ele>2615.2</ele><time>2026-04-10T15:05:12Z</time></rtept><rtept lat="38.461252" lon="-105.979657"><ele>2616.4</ele><time>2026-04-10T15:05:12Z</time></rtept><rtept lat="38.461342" lon="-105.979903"><ele>2618.6</ele><time>2026-04-10T15:05:12Z</time></rtept><rtept lat="38.461437" lon="-105.980108"><ele>2619.8</ele><time>2026-04-10T15:05:12Z</time></rtept><rtept lat="38.461546" lon="-105.980282"><ele>2621.4</ele><time>2026-04-10T15:05:12Z</time></rtept><rtept lat="38.461659" lon="-105.980556"><ele>2624.0</ele><time>2026-04-10T15:05:12Z</time></rtept><rtept lat="38.461565" lon="-105.98054"><ele>2624.6</ele><time>2026-04-10T15:05:12Z</time></rtept><rtept lat="38.461423" lon="-105.980368"><ele>2622.6</ele><time>2026-04-10T15:05:12Z</time></rtept><rtept lat="38.4612" lon="-105.980368"><ele>2624.4</ele><time>2026-04-10T15:05:12Z</time></rtept><rtept lat="38.461091" lon="-105.98042"><ele>2628.2</ele><time>2026-04-10T15:05:12Z</time></rtept><rtept lat="38.460903" lon="-105.980375"><ele>2631.2</ele><time>2026-04-10T15:05:12Z</time></rtept><rtept lat="38.460616" lon="-105.980196"><ele>2634.2</ele><time>2026-04-10T15:05:12Z</time></rtept><rtept lat="38.460404" lon="-105.979982"><ele>2633.4</ele><time>2026-04-10T15:05:12Z</time></rtept><rtept lat="38.460412" lon="-105.980108"><ele>2635.2</ele><time>2026-04-10T15:05:12Z</time></rtept><rtept lat="38.460563" lon="-105.98032"><ele>2638.4</ele><time>2026-04-10T15:05:12Z</time></rtept><rtept lat="38.460685" lon="-105.980543"><ele>2638.8</ele><time>2026-04-10T15:05:12Z</time></rtept><rtept lat="38.460779" lon="-105.980929"><ele>2643.8</ele><time>2026-04-10T15:05:12Z</time></rtept><rtept lat="38.460853" lon="-105.981484"><ele>2646.2</ele><time>2026-04-10T15:05:12Z</time></rtept><rtept lat="38.460853" lon="-105.981859"><ele>2649.2</ele><time>2026-04-10T15:05:12Z</time></rtept><rtept lat="38.460855" lon="-105.982286"><ele>2652.4</ele><time>2026-04-10T15:05:12Z</time></rtept><rtept lat="38.460855" lon="-105.982681"><ele>2655.4</ele><time>2026-04-10T15:05:12Z</time></rtept><rtept lat="38.460881" lon="-105.98281"><ele>2656.0</ele><time>2026-04-10T15:05:12Z</time></rtept><rtept lat="38.460882" lon="-105.983053"><ele>2657.2</ele><time>2026-04-10T15:05:12Z</time></rtept><rtept lat="38.461" lon="-105.983286"><ele>2658.0</ele><time>2026-04-10T15:05:12Z</time></rtept><rtept lat="38.461139" lon="-105.983469"><ele>2658.8</ele><time>2026-04-10T15:05:12Z</time></rtept><rtept lat="38.461" lon="-105.983286"><ele>2658.0</ele><time>2026-04-10T15:05:12Z</time></rtept><rtept lat="38.461244" lon="-105.983608"><ele>2660.0</ele><time>2026-04-10T15:05:12Z</time></rtept><rtept lat="38.461233" lon="-105.983761"><ele>2661.4</ele><time>2026-04-10T15:05:12Z</time></rtept><rtept lat="38.461104" lon="-105.983719"><ele>2662.0</ele><time>2026-04-10T15:05:12Z</time></rtept><rtept lat="38.460926" lon="-105.983686"><ele>2663.0</ele><time>2026-04-10T15:05:12Z</time></rtept><rtept lat="38.460828" lon="-105.983542"><ele>2662.4</ele><time>2026-04-10T15:05:12Z</time></rtept><rtept lat="38.460648" lon="-105.983624"><ele>2664.6</ele><time>2026-04-10T15:05:12Z</time></rtept><rtept lat="38.460483" lon="-105.983583"><ele>2667.2</ele><time>2026-04-10T15:05:12Z</time></rtept><rtept lat="38.460372" lon="-105.9836"><ele>2669.0</ele><time>2026-04-10T15:05:12Z</time></rtept><rtept lat="38.460267" lon="-105.98348"><ele>2669.4</ele><time>2026-04-10T15:05:12Z</time></rtept><rtept lat="38.460177" lon="-105.983203"><ele>2669.8</ele><time>2026-04-10T15:05:12Z</time></rtept><rtept lat="38.460235" lon="-105.982844"><ele>2670.4</ele><time>2026-04-10T15:05:12Z</time></rtept><rtept lat="38.460122" lon="-105.982313"><ele>2672.4</ele><time>2026-04-10T15:05:12Z</time></rtept><rtept lat="38.459788" lon="-105.982136"><ele>2677.0</ele><time>2026-04-10T15:05:12Z</time></rtept><rtept lat="38.45958" lon="-105.982203"><ele>2678.6</ele><time>2026-04-10T15:05:12Z</time></rtept><rtept lat="38.459782" lon="-105.982396"><ele>2682.2</ele><time>2026-04-10T15:05:12Z</time></rtept><rtept lat="38.459832" lon="-105.982616"><ele>2683.0</ele><time>2026-04-10T15:05:12Z</time></rtept><rtept lat="38.459755" lon="-105.982857"><ele>2684.6</ele><time>2026-04-10T15:05:12Z</time></rtept><rtept lat="38.459633" lon="-105.983281"><ele>2687.2</ele><time>2026-04-10T15:05:12Z</time></rtept><rtept lat="38.459444" lon="-105.983662"><ele>2689.0</ele><time>2026-04-10T15:05:12Z</time></rtept><rtept lat="38.459305" lon="-105.984204"><ele>2691.8</ele><time>2026-04-10T15:05:12Z</time></rtept><rtept lat="38.45933" lon="-105.984424"><ele>2692.0</ele><time>2026-04-10T15:05:12Z</time></rtept><rtept lat="38.459405" lon="-105.984755"><ele>2691.6</ele><time>2026-04-10T15:05:12Z</time></rtept><rtept lat="38.459624" lon="-105.984913"><ele>2690.4</ele><time>2026-04-10T15:05:12Z</time></rtept><rtept lat="38.459664" lon="-105.985031"><ele>2690.8</ele><time>2026-04-10T15:05:12Z</time></rtept><rtept lat="38.459728" lon="-105.985096"><ele>2690.0</ele><time>2026-04-10T15:05:12Z</time></rtept><rtept lat="38.459864" lon="-105.985178"><ele>2689.6</ele><time>2026-04-10T15:05:12Z</time></rtept><rtept lat="38.460061" lon="-105.985436"><ele>2690.4</ele><time>2026-04-10T15:05:12Z</time></rtept><rtept lat="38.460171" lon="-105.985616"><ele>2691.4</ele><time>2026-04-10T15:05:12Z</time></rtept><rtept lat="38.460369" lon="-105.985838"><ele>2691.2</ele><time>2026-04-10T15:05:12Z</time></rtept><rtept lat="38.460456" lon="-105.985994"><ele>2691.0</ele><time>2026-04-10T15:05:12Z</time></rtept><rtept lat="38.460539" lon="-105.986093"><ele>2691.2</ele><time>2026-04-10T15:05:12Z</time></rtept><rtept lat="38.460614" lon="-105.986133"><ele>2690.6</ele><time>2026-04-10T15:05:12Z</time></rtept><rtept lat="38.46071" lon="-105.986184"><ele>2691.6</ele><time>2026-04-10T15:05:12Z</time></rtept><rtept lat="38.46086" lon="-105.986208"><ele>2691.6</ele><time>2026-04-10T15:05:12Z</time></rtept><rtept lat="38.4612" lon="-105.986305"><ele>2695.0</ele><time>2026-04-10T15:05:12Z</time></rtept><rtept lat="38.461315" lon="-105.986276"><ele>2696.2</ele><time>2026-04-10T15:05:12Z</time></rtept><rtept lat="38.461428" lon="-105.986206"><ele>2697.8</ele><time>2026-04-10T15:05:12Z</time></rtept><rtept lat="38.461554" lon="-105.9861"><ele>2699.8</ele><time>2026-04-10T15:05:12Z</time></rtept><rtept lat="38.461812" lon="-105.985806"><ele>2701.8</ele><time>2026-04-10T15:05:12Z</time></rtept><rtept lat="38.461992" lon="-105.985661"><ele>2703.4</ele><time>2026-04-10T15:05:12Z</time></rtept><rtept lat="38.462109" lon="-105.985526"><ele>2701.2</ele><time>2026-04-10T15:05:12Z</time></rtept><rtept lat="38.462173" lon="-105.985468"><ele>2703.0</ele><time>2026-04-10T15:05:12Z</time></rtept><rtept lat="38.462304" lon="-105.985393"><ele>2705.0</ele><time>2026-04-10T15:05:12Z</time></rtept><rtept lat="38.462405" lon="-105.985284"><ele>2706.6</ele><time>2026-04-10T15:05:12Z</time></rtept><rtept lat="38.462472" lon="-105.985163"><ele>2704.8</ele><time>2026-04-10T15:05:12Z</time></rtept><rtept lat="38.462531" lon="-105.9851"><ele>2704.8</ele><time>2026-04-10T15:05:12Z</time></rtept><rtept lat="38.462692" lon="-105.985041"><ele>2708.8</ele><time>2026-04-10T15:05:12Z</time></rtept><rtept lat="38.462786" lon="-105.984965"><ele>2709.2</ele><time>2026-04-10T15:05:12Z</time></rtept><rtept lat="38.462862" lon="-105.984871"><ele>2709.8</ele><time>2026-04-10T15:05:12Z</time></rtept><rtept lat="38.462922" lon="-105.98483"><ele>2710.2</ele><time>2026-04-10T15:05:12Z</time></rtept><rtept lat="38.46296" lon="-105.984829"><ele>2710.8</ele><time>2026-04-10T15:05:12Z</time></rtept><rtept lat="38.463004" lon="-105.984874"><ele>2710.2</ele><time>2026-04-10T15:05:12Z</time></rtept><rtept lat="38.463013" lon="-105.985007"><ele>2709.8</ele><time>2026-04-10T15:05:12Z</time></rtept><rtept lat="38.462972" lon="-105.985367"><ele>2707.8</ele><time>2026-04-10T15:05:12Z</time></rtept><rtept lat="38.462964" lon="-105.98559"><ele>2706.4</ele><time>2026-04-10T15:05:12Z</time></rtept><rtept lat="38.462932" lon="-105.985822"><ele>2704.2</ele><time>2026-04-10T15:05:12Z</time></rtept><rtept lat="38.462922" lon="-105.986"><ele>2706.0</ele><time>2026-04-10T15:05:12Z</time></rtept><rtept lat="38.462932" lon="-105.986158"><ele>2701.6</ele><time>2026-04-10T15:05:12Z</time></rtept><rtept lat="38.46296" lon="-105.986371"><ele>2701.2</ele><time>2026-04-10T15:05:12Z</time></rtept><rtept lat="38.463005" lon="-105.986542"><ele>2698.4</ele><time>2026-04-10T15:05:12Z</time></rtept><rtept lat="38.463119" lon="-105.986779"><ele>2698.2</ele><time>2026-04-10T15:05:12Z</time></rtept><rtept lat="38.463301" lon="-105.987006"><ele>2697.6</ele><time>2026-04-10T15:05:12Z</time></rtept><rtept lat="38.463401" lon="-105.987089"><ele>2698.6</ele><time>2026-04-10T15:05:12Z</time></rtept><rtept lat="38.463494" lon="-105.987125"><ele>2696.2</ele><time>2026-04-10T15:05:12Z</time></rtept><rtept lat="38.463758" lon="-105.987139"><ele>2693.0</ele><time>2026-04-10T15:05:12Z</time></rtept><rtept lat="38.463877" lon="-105.987174"><ele>2694.0</ele><time>2026-04-10T15:05:12Z</time></rtept><rtept lat="38.464026" lon="-105.987186"><ele>2692.4</ele><time>2026-04-10T15:05:12Z</time></rtept><rtept lat="38.464168" lon="-105.987233"><ele>2689.6</ele><time>2026-04-10T15:05:12Z</time></rtept><rtept lat="38.464228" lon="-105.98729"><ele>2689.6</ele><time>2026-04-10T15:05:12Z</time></rtept><rtept lat="38.464509" lon="-105.987975"><ele>2690.0</ele><time>2026-04-10T15:05:12Z</time></rtept><rtept lat="38.46464" lon="-105.988203"><ele>2686.2</ele><time>2026-04-10T15:05:12Z</time></rtept><rtept lat="38.464824" lon="-105.988443"><ele>2681.4</ele><time>2026-04-10T15:05:12Z</time></rtept><rtept lat="38.465067" lon="-105.988635"><ele>2680.8</ele><time>2026-04-10T15:05:12Z</time></rtept><rtept lat="38.465271" lon="-105.988894"><ele>2679.4</ele><time>2026-04-10T15:05:12Z</time></rtept><rtept lat="38.465415" lon="-105.989001"><ele>2678.4</ele><time>2026-04-10T15:05:12Z</time></rtept><rtept lat="38.4655" lon="-105.989063"><ele>2681.0</ele><time>2026-04-10T15:05:12Z</time></rtept><rtept lat="38.465563" lon="-105.989094"><ele>2682.4</ele><time>2026-04-10T15:05:12Z</time></rtept><rtept lat="38.465628" lon="-105.989095"><ele>2684.0</ele><time>2026-04-10T15:05:12Z</time></rtept><rtept lat="38.46588" lon="-105.988857"><ele>2683.8</ele><time>2026-04-10T15:05:12Z</time></rtept><rtept lat="38.466268" lon="-105.988697"><ele>2688.8</ele><time>2026-04-10T15:05:12Z</time></rtept><rtept lat="38.466785" lon="-105.988531"><ele>2691.4</ele><time>2026-04-10T15:05:12Z</time></rtept><rtept lat="38.467138" lon="-105.98849"><ele>2694.4</ele><time>2026-04-10T15:05:12Z</time></rtept><rtept lat="38.46725" lon="-105.988516"><ele>2694.4</ele><time>2026-04-10T15:05:12Z</time></rtept><rtept lat="38.467589" lon="-105.988691"><ele>2697.0</ele><time>2026-04-10T15:05:12Z</time></rtept><rtept lat="38.467702" lon="-105.988806"><ele>2701.4</ele><time>2026-04-10T15:05:12Z</time></rtept><rtept lat="38.46805" lon="-105.988994"><ele>2702.0</ele><time>2026-04-10T15:05:12Z</time></rtept><rtept lat="38.46816" lon="-105.989108"><ele>2703.0</ele><time>2026-04-10T15:05:12Z</time></rtept><rtept lat="38.468448" lon="-105.989511"><ele>2706.8</ele><time>2026-04-10T15:05:12Z</time></rtept><rtept lat="38.468525" lon="-105.989596"><ele>2707.8</ele><time>2026-04-10T15:05:12Z</time></rtept><rtept lat="38.468771" lon="-105.989795"><ele>2709.6</ele><time>2026-04-10T15:05:12Z</time></rtept><rtept lat="38.468866" lon="-105.989899"><ele>2710.2</ele><time>2026-04-10T15:05:12Z</time></rtept><rtept lat="38.469034" lon="-105.98999"><ele>2711.4</ele><time>2026-04-10T15:05:12Z</time></rtept><rtept lat="38.469091" lon="-105.990041"><ele>2712.0</ele><time>2026-04-10T15:05:12Z</time></rtept><rtept lat="38.469136" lon="-105.990122"><ele>2710.8</ele><time>2026-04-10T15:05:12Z</time></rtept><rtept lat="38.469148" lon="-105.990185"><ele>2710.2</ele><time>2026-04-10T15:05:12Z</time></rtept><rtept lat="38.469132" lon="-105.990281"><ele>2709.2</ele><time>2026-04-10T15:05:12Z</time></rtept><rtept lat="38.469055" lon="-105.990421"><ele>2708.8</ele><time>2026-04-10T15:05:12Z</time></rtept><rtept lat="38.468861" lon="-105.990652"><ele>2708.2</ele><time>2026-04-10T15:05:12Z</time></rtept><rtept lat="38.468786" lon="-105.990793"><ele>2706.8</ele><time>2026-04-10T15:05:12Z</time></rtept><rtept lat="38.468734" lon="-105.990999"><ele>2706.0</ele><time>2026-04-10T15:05:12Z</time></rtept><rtept lat="38.46873" lon="-105.991117"><ele>2705.6</ele><time>2026-04-10T15:05:12Z</time></rtept><rtept lat="38.46875" lon="-105.991251"><ele>2705.8</ele><time>2026-04-10T15:05:12Z</time></rtept><rtept lat="38.468863" lon="-105.991458"><ele>2702.4</ele><time>2026-04-10T15:05:12Z</time></rtept><rtept lat="38.468929" lon="-105.991654"><ele>2702.2</ele><time>2026-04-10T15:05:12Z</time></rtept><rtept lat="38.469062" lon="-105.991946"><ele>2701.2</ele><time>2026-04-10T15:05:12Z</time></rtept><rtept lat="38.469129" lon="-105.992154"><ele>2701.2</ele><time>2026-04-10T15:05:12Z</time></rtept><rtept lat="38.469283" lon="-105.992518"><ele>2699.4</ele><time>2026-04-10T15:05:12Z</time></rtept><rtept lat="38.469364" lon="-105.992767"><ele>2700.0</ele><time>2026-04-10T15:05:12Z</time></rtept><rtept lat="38.469437" lon="-105.993067"><ele>2698.8</ele><time>2026-04-10T15:05:12Z</time></rtept><rtept lat="38.469461" lon="-105.993294"><ele>2699.4</ele><time>2026-04-10T15:05:12Z</time></rtept><rtept lat="38.469631" lon="-105.993439"><ele>2699.4</ele><time>2026-04-10T15:05:12Z</time></rtept><rtept lat="38.469709" lon="-105.993528"><ele>2699.4</ele><time>2026-04-10T15:05:12Z</time></rtept><rtept lat="38.469802" lon="-105.993589"><ele>2695.6</ele><time>2026-04-10T15:05:12Z</time></rtept><rtept lat="38.470273" lon="-105.993783"><ele>2692.2</ele><time>2026-04-10T15:05:12Z</time></rtept><rtept lat="38.470406" lon="-105.99379"><ele>2688.8</ele><time>2026-04-10T15:05:12Z</time></rtept><rtept lat="38.470705" lon="-105.993756"><ele>2683.6</ele><time>2026-04-10T15:05:12Z</time></rtept><rtept lat="38.470811" lon="-105.993766"><ele>2682.8</ele><time>2026-04-10T15:05:12Z</time></rtept><rtept lat="38.471488" lon="-105.994186"><ele>2682.8</ele><time>2026-04-10T15:05:12Z</time></rtept><rtept lat="38.471618" lon="-105.994324"><ele>2683.0</ele><time>2026-04-10T15:05:12Z</time></rtept><rtept lat="38.471796" lon="-105.994619"><ele>2684.0</ele><time>2026-04-10T15:05:12Z</time></rtept><rtept lat="38.472131" lon="-105.994968"><ele>2682.6</ele><time>2026-04-10T15:05:12Z</time></rtept><rtept lat="38.472447" lon="-105.995426"><ele>2685.8</ele><time>2026-04-10T15:05:12Z</time></rtept><rtept lat="38.472606" lon="-105.995572"><ele>2683.6</ele><time>2026-04-10T15:05:12Z</time></rtept><rtept lat="38.472655" lon="-105.995636"><ele>2683.6</ele><time>2026-04-10T15:05:12Z</time></rtept><rtept lat="38.472702" lon="-105.995768"><ele>2684.8</ele><time>2026-04-10T15:05:12Z</time></rtept><rtept lat="38.472741" lon="-105.996"><ele>2687.8</ele><time>2026-04-10T15:05:12Z</time></rtept><rtept lat="38.472735" lon="-105.996086"><ele>2689.2</ele><time>2026-04-10T15:05:12Z</time></rtept><rtept lat="38.472689" lon="-105.996231"><ele>2690.8</ele><time>2026-04-10T15:05:12Z</time></rtept><rtept lat="38.472554" lon="-105.99647"><ele>2696.8</ele><time>2026-04-10T15:05:12Z</time></rtept><rtept lat="38.472526" lon="-105.996553"><ele>2701.2</ele><time>2026-04-10T15:05:12Z</time></rtept><rtept lat="38.472519" lon="-105.996651"><ele>2702.4</ele><time>2026-04-10T15:05:12Z</time></rtept><rtept lat="38.47256" lon="-105.996826"><ele>2701.8</ele><time>2026-04-10T15:05:12Z</time></rtept><rtept lat="38.472596" lon="-105.996898"><ele>2704.4</ele><time>2026-04-10T15:05:12Z</time></rtept><rtept lat="38.472651" lon="-105.996944"><ele>2700.8</ele><time>2026-04-10T15:05:12Z</time></rtept><rtept lat="38.472773" lon="-105.99695"><ele>2695.8</ele><time>2026-04-10T15:05:12Z</time></rtept><rtept lat="38.472884" lon="-105.996926"><ele>2691.6</ele><time>2026-04-10T15:05:12Z</time></rtept><rtept lat="38.472933" lon="-105.996936"><ele>2691.6</ele><time>2026-04-10T15:05:12Z</time></rtept><rtept lat="38.473002" lon="-105.996982"><ele>2691.2</ele><time>2026-04-10T15:05:12Z</time></rtept><rtept lat="38.473055" lon="-105.997033"><ele>2689.4</ele><time>2026-04-10T15:05:12Z</time></rtept><rtept lat="38.47315" lon="-105.997126"><ele>2694.0</ele><time>2026-04-10T15:05:12Z</time></rtept><rtept lat="38.47328" lon="-105.99731"><ele>2697.8</ele><time>2026-04-10T15:05:12Z</time></rtept><rtept lat="38.473433" lon="-105.997424"><ele>2696.6</ele><time>2026-04-10T15:05:12Z</time></rtept><rtept lat="38.473468" lon="-105.997499"><ele>2697.6</ele><time>2026-04-10T15:05:12Z</time></rtept><rtept lat="38.473532" lon="-105.997808"><ele>2698.4</ele><time>2026-04-10T15:05:12Z</time></rtept><rtept lat="38.473485" lon="-105.998197"><ele>2704.0</ele><time>2026-04-10T15:05:12Z</time></rtept><rtept lat="38.473506" lon="-105.998346"><ele>2707.0</ele><time>2026-04-10T15:05:12Z</time></rtept><rtept lat="38.47355" lon="-105.998409"><ele>2705.2</ele><time>2026-04-10T15:05:12Z</time></rtept><rtept lat="38.47367" lon="-105.998507"><ele>2707.4</ele><time>2026-04-10T15:05:12Z</time></rtept><rtept lat="38.473786" lon="-105.998687"><ele>2709.4</ele><time>2026-04-10T15:05:12Z</time></rtept><rtept lat="38.47397" lon="-105.998914"><ele>2709.0</ele><time>2026-04-10T15:05:12Z</time></rtept><rtept lat="38.474038" lon="-105.999042"><ele>2709.8</ele><time>2026-04-10T15:05:12Z</time></rtept><rtept lat="38.474121" lon="-105.999425"><ele>2710.6</ele><time>2026-04-10T15:05:12Z</time></rtept><rtept lat="38.474268" lon="-105.999788"><ele>2707.8</ele><time>2026-04-10T15:05:12Z</time></rtept><rtept lat="38.474289" lon="-105.999794"><ele>2707.4</ele><time>2026-04-10T15:05:12Z</time></rtept><rtept lat="38.474478" lon="-105.999671"><ele>2705.8</ele><time>2026-04-10T15:05:12Z</time></rtept><rtept lat="38.474562" lon="-105.999645"><ele>2707.0</ele><time>2026-04-10T15:05:12Z</time></rtept><rtept lat="38.47477" lon="-105.999651"><ele>2710.2</ele><time>2026-04-10T15:05:12Z</time></rtept><rtept lat="38.474871" lon="-105.999606"><ele>2707.8</ele><time>2026-04-10T15:05:12Z</time></rtept><rtept lat="38.474946" lon="-105.99951"><ele>2705.6</ele><time>2026-04-10T15:05:12Z</time></rtept><rtept lat="38.47501" lon="-105.999453"><ele>2706.6</ele><time>2026-04-10T15:05:12Z</time></rtept><rtept lat="38.475075" lon="-105.999421"><ele>2704.8</ele><time>2026-04-10T15:05:12Z</time></rtept><rtept lat="38.475223" lon="-105.999382"><ele>2707.0</ele><time>2026-04-10T15:05:12Z</time></rtept><rtept lat="38.475366" lon="-105.999367"><ele>2708.6</ele><time>2026-04-10T15:05:12Z</time></rtept><rtept lat="38.475472" lon="-105.999377"><ele>2708.6</ele><time>2026-04-10T15:05:12Z</time></rtept><rtept lat="38.475596" lon="-105.999435"><ele>2707.8</ele><time>2026-04-10T15:05:12Z</time></rtept><rtept lat="38.475715" lon="-105.999573"><ele>2710.2</ele><time>2026-04-10T15:05:12Z</time></rtept><rtept lat="38.475787" lon="-105.999704"><ele>2713.0</ele><time>2026-04-10T15:05:12Z</time></rtept><rtept lat="38.476012" lon="-106.000212"><ele>2716.2</ele><time>2026-04-10T15:05:12Z</time></rtept><rtept lat="38.476072" lon="-106.000376"><ele>2717.4</ele><time>2026-04-10T15:05:12Z</time></rtept><rtept lat="38.476197" lon="-106.000845"><ele>2723.4</ele><time>2026-04-10T15:05:12Z</time></rtept><rtept lat="38.476557" lon="-106.001786"><ele>2725.2</ele><time>2026-04-10T15:05:12Z</time></rtept><rtept lat="38.476558" lon="-106.001789"><ele>2725.2</ele><time>2026-04-10T15:05:12Z</time></rtept><rtept lat="38.476615" lon="-106.001889"><ele>2724.8</ele><time>2026-04-10T15:05:12Z</time></rtept><rtept lat="38.477276" lon="-106.002256"><ele>2714.2</ele><time>2026-04-10T15:05:12Z</time></rtept><rtept lat="38.477353" lon="-106.002318"><ele>2713.2</ele><time>2026-04-10T15:05:12Z</time></rtept><rtept lat="38.477381" lon="-106.002341"><ele>2712.2</ele><time>2026-04-10T15:05:12Z</time></rtept><rtept lat="38.477448" lon="-106.002429"><ele>2710.8</ele><time>2026-04-10T15:05:12Z</time></rtept><rtept lat="38.477476" lon="-106.002561"><ele>2708.2</ele><time>2026-04-10T15:05:12Z</time></rtept><rtept lat="38.47744" lon="-106.002712"><ele>2707.2</ele><time>2026-04-10T15:05:12Z</time></rtept><rtept lat="38.477184" lon="-106.003204"><ele>2705.0</ele><time>2026-04-10T15:05:12Z</time></rtept><rtept lat="38.477094" lon="-106.003443"><ele>2702.4</ele><time>2026-04-10T15:05:12Z</time></rtept><rtept lat="38.476805" lon="-106.004066"><ele>2692.6</ele><time>2026-04-10T15:05:12Z</time></rtept><rtept lat="38.476774" lon="-106.004182"><ele>2690.6</ele><time>2026-04-10T15:05:12Z</time></rtept><rtept lat="38.476767" lon="-106.004354"><ele>2689.4</ele><time>2026-04-10T15:05:12Z</time></rtept><rtept lat="38.476902" lon="-106.004295"><ele>2685.8</ele><time>2026-04-10T15:05:12Z</time></rtept><rtept lat="38.477023" lon="-106.004207"><ele>2686.0</ele><time>2026-04-10T15:05:12Z</time></rtept><rtept lat="38.477046" lon="-106.004345"><ele>2682.6</ele><time>2026-04-10T15:05:12Z</time></rtept><rtept lat="38.477024" lon="-106.004452"><ele>2682.4</ele><time>2026-04-10T15:05:12Z</time></rtept><rtept lat="38.477024" lon="-106.004452"><ele>2682.4</ele><time>2026-04-10T15:05:12Z</time></rtept><rtept lat="38.477046" lon="-106.004345"><ele>2682.6</ele><time>2026-04-10T15:05:12Z</time></rtept><rtept lat="38.477023" lon="-106.004207"><ele>2686.0</ele><time>2026-04-10T15:05:12Z</time></rtept><rtept lat="38.477496" lon="-106.00387"><ele>2680.6</ele><time>2026-04-10T15:05:12Z</time></rtept><rtept lat="38.477723" lon="-106.003816"><ele>2676.0</ele><time>2026-04-10T15:05:12Z</time></rtept><rtept lat="38.477829" lon="-106.003771"><ele>2674.4</ele><time>2026-04-10T15:05:12Z</time></rtept><rtept lat="38.477956" lon="-106.003685"><ele>2672.0</ele><time>2026-04-10T15:05:12Z</time></rtept><rtept lat="38.478079" lon="-106.003655"><ele>2667.6</ele><time>2026-04-10T15:05:12Z</time></rtept><rtept lat="38.478152" lon="-106.003658"><ele>2665.0</ele><time>2026-04-10T15:05:12Z</time></rtept><rtept lat="38.478208" lon="-106.00367"><ele>2662.4</ele><time>2026-04-10T15:05:12Z</time></rtept><rtept lat="38.478276" lon="-106.003625"><ele>2660.4</ele><time>2026-04-10T15:05:12Z</time></rtept><rtept lat="38.478358" lon="-106.003516"><ele>2659.2</ele><time>2026-04-10T15:05:12Z</time></rtept><rtept lat="38.478405" lon="-106.003486"><ele>2657.6</ele><time>2026-04-10T15:05:12Z</time></rtept><rtept lat="38.478502" lon="-106.003456"><ele>2656.6</ele><time>2026-04-10T15:05:12Z</time></rtept><rtept lat="38.478687" lon="-106.003489"><ele>2651.0</ele><time>2026-04-10T15:05:12Z</time></rtept><rtept lat="38.478805" lon="-106.003497"><ele>2647.8</ele><time>2026-04-10T15:05:12Z</time></rtept><rtept lat="38.478993" lon="-106.003452"><ele>2643.6</ele><time>2026-04-10T15:05:12Z</time></rtept><rtept lat="38.479166" lon="-106.003403"><ele>2641.2</ele><time>2026-04-10T15:05:12Z</time></rtept><rtept lat="38.479331" lon="-106.003369"><ele>2638.0</ele><time>2026-04-10T15:05:12Z</time></rtept><rtept lat="38.479522" lon="-106.003373"><ele>2635.6</ele><time>2026-04-10T15:05:12Z</time></rtept><rtept lat="38.479783" lon="-106.003527"><ele>2628.8</ele><time>2026-04-10T15:05:12Z</time></rtept><rtept lat="38.480001" lon="-106.003613"><ele>2623.2</ele><time>2026-04-10T15:05:12Z</time></rtept><rtept lat="38.480209" lon="-106.003696"><ele>2618.8</ele><time>2026-04-10T15:05:12Z</time></rtept><rtept lat="38.480309" lon="-106.003703"><ele>2617.4</ele><time>2026-04-10T15:05:12Z</time></rtept><rtept lat="38.480406" lon="-106.003651"><ele>2615.0</ele><time>2026-04-10T15:05:12Z</time></rtept><rtept lat="38.480553" lon="-106.003538"><ele>2613.6</ele><time>2026-04-10T15:05:12Z</time></rtept><rtept lat="38.48068" lon="-106.003538"><ele>2611.6</ele><time>2026-04-10T15:05:12Z</time></rtept><rtept lat="38.480832" lon="-106.003553"><ele>2609.0</ele><time>2026-04-10T15:05:12Z</time></rtept><rtept lat="38.480959" lon="-106.003519"><ele>2605.6</ele><time>2026-04-10T15:05:12Z</time></rtept><rtept lat="38.4811" lon="-106.003373"><ele>2603.8</ele><time>2026-04-10T15:05:12Z</time></rtept><rtept lat="38.481197" lon="-106.003294"><ele>2603.0</ele><time>2026-04-10T15:05:12Z</time></rtept><rtept lat="38.481294" lon="-106.00323"><ele>2601.4</ele><time>2026-04-10T15:05:12Z</time></rtept><rtept lat="38.481461" lon="-106.003253"><ele>2599.6</ele><time>2026-04-10T15:05:12Z</time></rtept><rtept lat="38.481702" lon="-106.003294"><ele>2594.4</ele><time>2026-04-10T15:05:12Z</time></rtept><rtept lat="38.481861" lon="-106.003268"><ele>2591.6</ele><time>2026-04-10T15:05:12Z</time></rtept><rtept lat="38.48202" lon="-106.003208"><ele>2589.2</ele><time>2026-04-10T15:05:12Z</time></rtept><rtept lat="38.482166" lon="-106.003212"><ele>2588.0</ele><time>2026-04-10T15:05:12Z</time></rtept><rtept lat="38.482457" lon="-106.0032"><ele>2583.6</ele><time>2026-04-10T15:05:12Z</time></rtept><rtept lat="38.482687" lon="-106.00317"><ele>2577.6</ele><time>2026-04-10T15:05:12Z</time></rtept><rtept lat="38.482828" lon="-106.003095"><ele>2577.4</ele><time>2026-04-10T15:05:12Z</time></rtept><rtept lat="38.482954" lon="-106.003061"><ele>2576.8</ele><time>2026-04-10T15:05:12Z</time></rtept><rtept lat="38.483169" lon="-106.003043"><ele>2574.8</ele><time>2026-04-10T15:05:12Z</time></rtept><rtept lat="38.483409" lon="-106.003073"><ele>2569.0</ele><time>2026-04-10T15:05:12Z</time></rtept><rtept lat="38.483642" lon="-106.003043"><ele>2565.2</ele><time>2026-04-10T15:05:12Z</time></rtept><rtept lat="38.484009" lon="-106.002941"><ele>2560.8</ele><time>2026-04-10T15:05:12Z</time></rtept><rtept lat="38.484335" lon="-106.002795"><ele>2553.0</ele><time>2026-04-10T15:05:12Z</time></rtept><rtept lat="38.484723" lon="-106.002724"><ele>2551.0</ele><time>2026-04-10T15:05:12Z</time></rtept><rtept lat="38.484928" lon="-106.002641"><ele>2547.4</ele><time>2026-04-10T15:05:12Z</time></rtept><rtept lat="38.485064" lon="-106.002562"><ele>2544.6</ele><time>2026-04-10T15:05:12Z</time></rtept><rtept lat="38.485169" lon="-106.002551"><ele>2543.6</ele><time>2026-04-10T15:05:12Z</time></rtept><rtept lat="38.485393" lon="-106.002502"><ele>2540.2</ele><time>2026-04-10T15:05:12Z</time></rtept><rtept lat="38.485581" lon="-106.002322"><ele>2536.2</ele><time>2026-04-10T15:05:12Z</time></rtept><rtept lat="38.485804" lon="-106.002179"><ele>2531.0</ele><time>2026-04-10T15:05:12Z</time></rtept><rtept lat="38.485933" lon="-106.002078"><ele>2528.8</ele><time>2026-04-10T15:05:12Z</time></rtept><rtept lat="38.486104" lon="-106.001992"><ele>2526.6</ele><time>2026-04-10T15:05:12Z</time></rtept><rtept lat="38.486233" lon="-106.001857"><ele>2523.8</ele><time>2026-04-10T15:05:12Z</time></rtept><rtept lat="38.486389" lon="-106.001811"><ele>2520.0</ele><time>2026-04-10T15:05:12Z</time></rtept><rtept lat="38.486577" lon="-106.0015"><ele>2516.2</ele><time>2026-04-10T15:05:12Z</time></rtept><rtept lat="38.486774" lon="-106.001256"><ele>2513.0</ele><time>2026-04-10T15:05:12Z</time></rtept><rtept lat="38.486918" lon="-106.001155"><ele>2509.6</ele><time>2026-04-10T15:05:12Z</time></rtept><rtept lat="38.487121" lon="-106.001102"><ele>2507.4</ele><time>2026-04-10T15:05:12Z</time></rtept><rtept lat="38.487361" lon="-106.001053"><ele>2503.0</ele><time>2026-04-10T15:05:12Z</time></rtept><rtept lat="38.487588" lon="-106.000873"><ele>2500.8</ele><time>2026-04-10T15:05:12Z</time></rtept><rtept lat="38.487823" lon="-106.000685"><ele>2496.4</ele><time>2026-04-10T15:05:12Z</time></rtept><rtept lat="38.487926" lon="-106.000652"><ele>2495.8</ele><time>2026-04-10T15:05:12Z</time></rtept><rtept lat="38.488064" lon="-106.000697"><ele>2492.8</ele><time>2026-04-10T15:05:12Z</time></rtept><rtept lat="38.488196" lon="-106.000862"><ele>2491.4</ele><time>2026-04-10T15:05:12Z</time></rtept><rtept lat="38.488305" lon="-106.001004"><ele>2488.6</ele><time>2026-04-10T15:05:12Z</time></rtept><rtept lat="38.488425" lon="-106.001038"><ele>2487.0</ele><time>2026-04-10T15:05:12Z</time></rtept><rtept lat="38.488628" lon="-106.001023"><ele>2485.0</ele><time>2026-04-10T15:05:12Z</time></rtept><rtept lat="38.488851" lon="-106.001049"><ele>2482.4</ele><time>2026-04-10T15:05:12Z</time></rtept><rtept lat="38.488986" lon="-106.001102"><ele>2480.6</ele><time>2026-04-10T15:05:12Z</time></rtept><rtept lat="38.489066" lon="-106.001147"><ele>2479.6</ele><time>2026-04-10T15:05:12Z</time></rtept><rtept lat="38.489127" lon="-106.001117"><ele>2479.0</ele><time>2026-04-10T15:05:12Z</time></rtept><rtept lat="38.489286" lon="-106.000963"><ele>2475.2</ele><time>2026-04-10T15:05:12Z</time></rtept><rtept lat="38.489491" lon="-106.000813"><ele>2473.2</ele><time>2026-04-10T15:05:12Z</time></rtept><rtept lat="38.489627" lon="-106.000757"><ele>2471.4</ele><time>2026-04-10T15:05:12Z</time></rtept><rtept lat="38.489812" lon="-106.000772"><ele>2467.0</ele><time>2026-04-10T15:05:12Z</time></rtept><rtept lat="38.489956" lon="-106.000715"><ele>2464.0</ele><time>2026-04-10T15:05:12Z</time></rtept><rtept lat="38.490047" lon="-106.000727"><ele>2463.2</ele><time>2026-04-10T15:05:12Z</time></rtept><rtept lat="38.490232" lon="-106.000719"><ele>2459.8</ele><time>2026-04-10T15:05:12Z</time></rtept><rtept lat="38.490373" lon="-106.000697"><ele>2457.6</ele><time>2026-04-10T15:05:12Z</time></rtept><rtept lat="38.490464" lon="-106.000648"><ele>2456.6</ele><time>2026-04-10T15:05:12Z</time></rtept><rtept lat="38.490526" lon="-106.000667"><ele>2455.6</ele><time>2026-04-10T15:05:12Z</time></rtept><rtept lat="38.490573" lon="-106.000745"><ele>2454.4</ele><time>2026-04-10T15:05:12Z</time></rtept><rtept lat="38.490555" lon="-106.000843"><ele>2454.2</ele><time>2026-04-10T15:05:12Z</time></rtept><rtept lat="38.490511" lon="-106.000952"><ele>2455.0</ele><time>2026-04-10T15:05:12Z</time></rtept><rtept lat="38.490467" lon="-106.001038"><ele>2456.0</ele><time>2026-04-10T15:05:12Z</time></rtept><rtept lat="38.490493" lon="-106.001125"><ele>2454.4</ele><time>2026-04-10T15:05:12Z</time></rtept><rtept lat="38.49057" lon="-106.001155"><ele>2453.0</ele><time>2026-04-10T15:05:12Z</time></rtept><rtept lat="38.490749" lon="-106.001215"><ele>2450.4</ele><time>2026-04-10T15:05:12Z</time></rtept><rtept lat="38.490925" lon="-106.001369"><ele>2446.6</ele><time>2026-04-10T15:05:12Z</time></rtept><rtept lat="38.491046" lon="-106.001481"><ele>2444.0</ele><time>2026-04-10T15:05:12Z</time></rtept><rtept lat="38.491204" lon="-106.001564"><ele>2441.8</ele><time>2026-04-10T15:05:12Z</time></rtept><rtept lat="38.491372" lon="-106.001628"><ele>2438.8</ele><time>2026-04-10T15:05:12Z</time></rtept><rtept lat="38.491516" lon="-106.001793"><ele>2436.8</ele><time>2026-04-10T15:05:12Z</time></rtept><rtept lat="38.491663" lon="-106.002003"><ele>2434.6</ele><time>2026-04-10T15:05:12Z</time></rtept><rtept lat="38.492153" lon="-106.00252"><ele>2428.4</ele><time>2026-04-10T15:05:12Z</time></rtept><rtept lat="38.492262" lon="-106.002618"><ele>2426.2</ele><time>2026-04-10T15:05:12Z</time></rtept><rtept lat="38.49264" lon="-106.00313"><ele>2419.2</ele><time>2026-04-10T15:05:12Z</time></rtept><rtept lat="38.492836" lon="-106.003444"><ele>2415.8</ele><time>2026-04-10T15:05:12Z</time></rtept><rtept lat="38.493049" lon="-106.003926"><ele>2409.8</ele><time>2026-04-10T15:05:12Z</time></rtept><rtept lat="38.493099" lon="-106.004076"><ele>2409.4</ele><time>2026-04-10T15:05:12Z</time></rtept><rtept lat="38.49312" lon="-106.004424"><ele>2406.6</ele><time>2026-04-10T15:05:12Z</time></rtept><rtept lat="38.493167" lon="-106.004564"><ele>2406.4</ele><time>2026-04-10T15:05:12Z</time></rtept><rtept lat="38.493298" lon="-106.004699"><ele>2404.6</ele><time>2026-04-10T15:05:12Z</time></rtept><rtept lat="38.493507" lon="-106.00488"><ele>2401.4</ele><time>2026-04-10T15:05:12Z</time></rtept><rtept lat="38.493651" lon="-106.004996"><ele>2399.8</ele><time>2026-04-10T15:05:12Z</time></rtept><rtept lat="38.493777" lon="-106.00503"><ele>2398.2</ele><time>2026-04-10T15:05:12Z</time></rtept><rtept lat="38.493985" lon="-106.005097"><ele>2395.6</ele><time>2026-04-10T15:05:12Z</time></rtept><rtept lat="38.49407" lon="-106.005169"><ele>2394.6</ele><time>2026-04-10T15:05:12Z</time></rtept><rtept lat="38.494112" lon="-106.005216"><ele>2394.0</ele><time>2026-04-10T15:05:12Z</time></rtept><rtept lat="38.494385" lon="-106.005519"><ele>2391.4</ele><time>2026-04-10T15:05:12Z</time></rtept><rtept lat="38.494446" lon="-106.005572"><ele>2390.6</ele><time>2026-04-10T15:05:12Z</time></rtept><rtept lat="38.494515" lon="-106.005632"><ele>2389.4</ele><time>2026-04-10T15:05:12Z</time></rtept><rtept lat="38.494571" lon="-106.005668"><ele>2389.4</ele><time>2026-04-10T15:05:12Z</time></rtept><rtept lat="38.494636" lon="-106.005693"><ele>2388.2</ele><time>2026-04-10T15:05:12Z</time></rtept><rtept lat="38.496255" lon="-106.005437"><ele>2371.0</ele><time>2026-04-10T15:05:12Z</time></rtept><rtept lat="38.496716" lon="-106.00536"><ele>2368.2</ele><time>2026-04-10T15:05:12Z</time></rtept><rtept lat="38.49704" lon="-106.005306"><ele>2364.6</ele><time>2026-04-10T15:05:12Z</time></rtept><rtept lat="38.497152" lon="-106.005285"><ele>2362.4</ele><time>2026-04-10T15:05:12Z</time></rtept><rtept lat="38.497613" lon="-106.005198"><ele>2357.6</ele><time>2026-04-10T15:05:12Z</time></rtept><rtept lat="38.498148" lon="-106.005183"><ele>2355.0</ele><time>2026-04-10T15:05:12Z</time></rtept><rtept lat="38.498413" lon="-106.00514"><ele>2354.4</ele><time>2026-04-10T15:05:12Z</time></rtept><rtept lat="38.498675" lon="-106.005024"><ele>2354.4</ele><time>2026-04-10T15:05:12Z</time></rtept><rtept lat="38.498854" lon="-106.004891"><ele>2354.2</ele><time>2026-04-10T15:05:12Z</time></rtept><rtept lat="38.499521" lon="-106.004465"><ele>2349.8</ele><time>2026-04-10T15:05:12Z</time></rtept><rtept lat="38.500108" lon="-106.004166"><ele>2337.0</ele><time>2026-04-10T15:05:12Z</time></rtept><rtept lat="38.500426" lon="-106.004004"><ele>2330.6</ele><time>2026-04-10T15:05:12Z</time></rtept><rtept lat="38.500451" lon="-106.003991"><ele>2330.6</ele><time>2026-04-10T15:05:12Z</time></rtept><rtept lat="38.500623" lon="-106.003899"><ele>2328.4</ele><time>2026-04-10T15:05:12Z</time></rtept><rtept lat="38.500873" lon="-106.003786"><ele>2322.6</ele><time>2026-04-10T15:05:12Z</time></rtept><rtept lat="38.501037" lon="-106.003755"><ele>2320.2</ele><time>2026-04-10T15:05:12Z</time></rtept><rtept lat="38.501146" lon="-106.003735"><ele>2319.6</ele><time>2026-04-10T15:05:12Z</time></rtept><rtept lat="38.502647" lon="-106.003602"><ele>2309.8</ele><time>2026-04-10T15:05:12Z</time></rtept><rtept lat="38.503085" lon="-106.003507"><ele>2307.4</ele><time>2026-04-10T15:05:12Z</time></rtept><rtept lat="38.503633" lon="-106.003305"><ele>2301.6</ele><time>2026-04-10T15:05:12Z</time></rtept><rtept lat="38.504169" lon="-106.003101"><ele>2295.4</ele><time>2026-04-10T15:05:12Z</time></rtept><rtept lat="38.504932" lon="-106.002722"><ele>2287.4</ele><time>2026-04-10T15:05:12Z</time></rtept><rtept lat="38.505561" lon="-106.002385"><ele>2283.6</ele><time>2026-04-10T15:05:12Z</time></rtept><rtept lat="38.506185" lon="-106.002071"><ele>2278.6</ele><time>2026-04-10T15:05:12Z</time></rtept><rtept lat="38.506434" lon="-106.001974"><ele>2275.0</ele><time>2026-04-10T15:05:12Z</time></rtept><rtept lat="38.506562" lon="-106.001924"><ele>2273.4</ele><time>2026-04-10T15:05:12Z</time></rtept><rtept lat="38.506879" lon="-106.001793"><ele>2271.6</ele><time>2026-04-10T15:05:12Z</time></rtept><rtept lat="38.507079" lon="-106.001736"><ele>2270.2</ele><time>2026-04-10T15:05:12Z</time></rtept><rtept lat="38.50766" lon="-106.00157"><ele>2265.8</ele><time>2026-04-10T15:05:12Z</time></rtept><rtept lat="38.507863" lon="-106.001531"><ele>2264.2</ele><time>2026-04-10T15:05:12Z</time></rtept><rtept lat="38.508462" lon="-106.001416"><ele>2260.0</ele><time>2026-04-10T15:05:12Z</time></rtept><rtept lat="38.508892" lon="-106.001334"><ele>2257.2</ele><time>2026-04-10T15:05:12Z</time></rtept><rtept lat="38.509426" lon="-106.00122"><ele>2251.6</ele><time>2026-04-10T15:05:12Z</time></rtept><rtept lat="38.509615" lon="-106.001135"><ele>2249.8</ele><time>2026-04-10T15:05:12Z</time></rtept><rtept lat="38.509868" lon="-106.00093"><ele>2247.2</ele><time>2026-04-10T15:05:12Z</time></rtept><rtept lat="38.509942" lon="-106.00084"><ele>2246.6</ele><time>2026-04-10T15:05:12Z</time></rtept><rtept lat="38.510274" lon="-106.00023"><ele>2242.8</ele><time>2026-04-10T15:05:12Z</time></rtept><rtept lat="38.510395" lon="-106.000051"><ele>2242.2</ele><time>2026-04-10T15:05:12Z</time></rtept><rtept lat="38.510549" lon="-105.999918"><ele>2242.0</ele><time>2026-04-10T15:05:12Z</time></rtept><rtept lat="38.510974" lon="-105.999702"><ele>2239.0</ele><time>2026-04-10T15:05:12Z</time></rtept><rtept lat="38.511345" lon="-105.9994"><ele>2236.6</ele><time>2026-04-10T15:05:12Z</time></rtept><rtept lat="38.511701" lon="-105.99901"><ele>2235.2</ele><time>2026-04-10T15:05:12Z</time></rtept><rtept lat="38.511939" lon="-105.998658"><ele>2235.6</ele><time>2026-04-10T15:05:12Z</time></rtept><rtept lat="38.512305" lon="-105.998116"><ele>2235.4</ele><time>2026-04-10T15:05:12Z</time></rtept><rtept lat="38.51257" lon="-105.997723"><ele>2232.8</ele><time>2026-04-10T15:05:12Z</time></rtept><rtept lat="38.512873" lon="-105.997201"><ele>2226.4</ele><time>2026-04-10T15:05:12Z</time></rtept><rtept lat="38.512988" lon="-105.997037"><ele>2224.4</ele><time>2026-04-10T15:05:12Z</time></rtept><rtept lat="38.513119" lon="-105.996944"><ele>2223.2</ele><time>2026-04-10T15:05:12Z</time></rtept><rtept lat="38.51322" lon="-105.996872"><ele>2222.8</ele><time>2026-04-10T15:05:12Z</time></rtept><rtept lat="38.513484" lon="-105.996812"><ele>2222.2</ele><time>2026-04-10T15:05:12Z</time></rtept><rtept lat="38.513685" lon="-105.996841"><ele>2221.0</ele><time>2026-04-10T15:05:12Z</time></rtept><rtept lat="38.514261" lon="-105.997112"><ele>2207.6</ele><time>2026-04-10T15:05:12Z</time></rtept><rtept lat="38.515056" lon="-105.997586"><ele>2191.4</ele><time>2026-04-10T15:05:12Z</time></rtept><rtept lat="38.515385" lon="-105.997739"><ele>2190.0</ele><time>2026-04-10T15:05:12Z</time></rtept><rtept lat="38.515593" lon="-105.997792"><ele>2188.4</ele><time>2026-04-10T15:05:12Z</time></rtept><rtept lat="38.515901" lon="-105.997772"><ele>2185.4</ele><time>2026-04-10T15:05:12Z</time></rtept><rtept lat="38.516006" lon="-105.99773"><ele>2184.0</ele><time>2026-04-10T15:05:12Z</time></rtept><rtept lat="38.516443" lon="-105.997522"><ele>2180.0</ele><time>2026-04-10T15:05:12Z</time></rtept><rtept lat="38.516632" lon="-105.99741"><ele>2178.0</ele><time>2026-04-10T15:05:12Z</time></rtept><rtept lat="38.516761" lon="-105.997322"><ele>2176.4</ele><time>2026-04-10T15:05:12Z</time></rtept><rtept lat="38.516835" lon="-105.997272"><ele>2175.6</ele><time>2026-04-10T15:05:12Z</time></rtept><rtept lat="38.517008" lon="-105.997174"><ele>2174.0</ele><time>2026-04-10T15:05:12Z</time></rtept><rtept lat="38.517123" lon="-105.997148"><ele>2173.0</ele><time>2026-04-10T15:05:12Z</time></rtept><rtept lat="38.517274" lon="-105.997148"><ele>2172.0</ele><time>2026-04-10T15:05:12Z</time></rtept><rtept lat="38.517444" lon="-105.997147"><ele>2171.4</ele><time>2026-04-10T15:05:12Z</time></rtept><rtept lat="38.517675" lon="-105.997147"><ele>2170.8</ele><time>2026-04-10T15:05:12Z</time></rtept><rtept lat="38.518661" lon="-105.997145"><ele>2168.8</ele><time>2026-04-10T15:05:12Z</time></rtept><rtept lat="38.519573" lon="-105.997144"><ele>2165.0</ele><time>2026-04-10T15:05:12Z</time></rtept><rtept lat="38.520458" lon="-105.997138"><ele>2162.4</ele><time>2026-04-10T15:05:12Z</time></rtept><rtept lat="38.520845" lon="-105.997126"><ele>2161.4</ele><time>2026-04-10T15:05:12Z</time></rtept><rtept lat="38.521893" lon="-105.997132"><ele>2159.0</ele><time>2026-04-10T15:05:12Z</time></rtept><rtept lat="38.522473" lon="-105.997135"><ele>2158.8</ele><time>2026-04-10T15:05:12Z</time></rtept><rtept lat="38.52273" lon="-105.997136"><ele>2159.0</ele><time>2026-04-10T15:05:12Z</time></rtept><rtept lat="38.522973" lon="-105.997098"><ele>2159.2</ele><time>2026-04-10T15:05:12Z</time></rtept><rtept lat="38.5235" lon="-105.996993"><ele>2160.0</ele><time>2026-04-10T15:05:12Z</time></rtept><rtept lat="38.523724" lon="-105.996992"><ele>2160.6</ele><time>2026-04-10T15:05:12Z</time></rtept></rte></gpx>