<?xml version="1.0" ?><gpx xmlns="http://www.topografix.com/GPX/1/1" creator="GaiaGPS" version="1.1" xmlns:xsi="http://www.w3.org/2001/XMLSchema-instance" xsi:schemaLocation="http://www.topografix.com/GPX/1/1 http://www.topografix.com/GPX/1/1/gpx.xsd"><rte><name>TD06:S2:D1 Salida to Murphys Hole</name><desc>Trail day 6, segment 2, day 1</desc><extensions><line xmlns="http://www.topografix.com/GPX/gpx_style/0/2"><color>F42410</color></line></extensions><rtept lat="38.494778" lon="-106.00572"><ele>2385.4</ele><time>2026-04-10T15:06:55Z</time></rtept><rtept lat="38.494773" lon="-106.005671"><ele>2386.0</ele><time>2026-04-10T15:06:55Z</time></rtept><rtept lat="38.494636" lon="-106.005693"><ele>2388.2</ele><time>2026-04-10T15:06:55Z</time></rtept><rtept lat="38.494571" lon="-106.005668"><ele>2389.4</ele><time>2026-04-10T15:06:55Z</time></rtept><rtept lat="38.494515" lon="-106.005632"><ele>2389.4</ele><time>2026-04-10T15:06:55Z</time></rtept><rtept lat="38.494446" lon="-106.005572"><ele>2390.6</ele><time>2026-04-10T15:06:55Z</time></rtept><rtept lat="38.494385" lon="-106.005519"><ele>2391.4</ele><time>2026-04-10T15:06:55Z</time></rtept><rtept lat="38.494112" lon="-106.005216"><ele>2394.0</ele><time>2026-04-10T15:06:55Z</time></rtept><rtept lat="38.49407" lon="-106.005169"><ele>2394.6</ele><time>2026-04-10T15:06:55Z</time></rtept><rtept lat="38.493985" lon="-106.005097"><ele>2395.6</ele><time>2026-04-10T15:06:55Z</time></rtept><rtept lat="38.493777" lon="-106.00503"><ele>2398.2</ele><time>2026-04-10T15:06:55Z</time></rtept><rtept lat="38.493651" lon="-106.004996"><ele>2399.8</ele><time>2026-04-10T15:06:55Z</time></rtept><rtept lat="38.493507" lon="-106.00488"><ele>2401.4</ele><time>2026-04-10T15:06:55Z</time></rtept><rtept lat="38.493298" lon="-106.004699"><ele>2404.6</ele><time>2026-04-10T15:06:55Z</time></rtept><rtept lat="38.493167" lon="-106.004564"><ele>2406.4</ele><time>2026-04-10T15:06:55Z</time></rtept><rtept lat="38.49312" lon="-106.004424"><ele>2406.6</ele><time>2026-04-10T15:06:55Z</time></rtept><rtept lat="38.493099" lon="-106.004076"><ele>2409.4</ele><time>2026-04-10T15:06:55Z</time></rtept><rtept lat="38.493049" lon="-106.003926"><ele>2409.8</ele><time>2026-04-10T15:06:55Z</time></rtept><rtept lat="38.492836" lon="-106.003444"><ele>2415.8</ele><time>2026-04-10T15:06:55Z</time></rtept><rtept lat="38.49264" lon="-106.00313"><ele>2419.2</ele><time>2026-04-10T15:06:55Z</time></rtept><rtept lat="38.492262" lon="-106.002618"><ele>2426.2</ele><time>2026-04-10T15:06:55Z</time></rtept><rtept lat="38.492153" lon="-106.00252"><ele>2428.4</ele><time>2026-04-10T15:06:55Z</time></rtept><rtept lat="38.491663" lon="-106.002003"><ele>2434.6</ele><time>2026-04-10T15:06:55Z</time></rtept><rtept lat="38.491516" lon="-106.001793"><ele>2436.8</ele><time>2026-04-10T15:06:55Z</time></rtept><rtept lat="38.491372" lon="-106.001628"><ele>2438.8</ele><time>2026-04-10T15:06:55Z</time></rtept><rtept lat="38.491204" lon="-106.001564"><ele>2441.8</ele><time>2026-04-10T15:06:55Z</time></rtept><rtept lat="38.491046" lon="-106.001481"><ele>2444.0</ele><time>2026-04-10T15:06:55Z</time></rtept><rtept lat="38.490925" lon="-106.001369"><ele>2446.6</ele><time>2026-04-10T15:06:55Z</time></rtept><rtept lat="38.490749" lon="-106.001215"><ele>2450.4</ele><time>2026-04-10T15:06:55Z</time></rtept><rtept lat="38.49057" lon="-106.001155"><ele>2453.0</ele><time>2026-04-10T15:06:55Z</time></rtept><rtept lat="38.490493" lon="-106.001125"><ele>2454.4</ele><time>2026-04-10T15:06:55Z</time></rtept><rtept lat="38.490467" lon="-106.001038"><ele>2456.0</ele><time>2026-04-10T15:06:55Z</time></rtept><rtept lat="38.490511" lon="-106.000952"><ele>2455.0</ele><time>2026-04-10T15:06:55Z</time></rtept><rtept lat="38.490555" lon="-106.000843"><ele>2454.2</ele><time>2026-04-10T15:06:55Z</time></rtept><rtept lat="38.490573" lon="-106.000745"><ele>2454.4</ele><time>2026-04-10T15:06:55Z</time></rtept><rtept lat="38.490526" lon="-106.000667"><ele>2455.6</ele><time>2026-04-10T15:06:55Z</time></rtept><rtept lat="38.490464" lon="-106.000648"><ele>2456.6</ele><time>2026-04-10T15:06:55Z</time></rtept><rtept lat="38.490373" lon="-106.000697"><ele>2457.6</ele><time>2026-04-10T15:06:55Z</time></rtept><rtept lat="38.490232" lon="-106.000719"><ele>2459.8</ele><time>2026-04-10T15:06:55Z</time></rtept><rtept lat="38.490047" lon="-106.000727"><ele>2463.2</ele><time>2026-04-10T15:06:55Z</time></rtept><rtept lat="38.489956" lon="-106.000715"><ele>2464.0</ele><time>2026-04-10T15:06:55Z</time></rtept><rtept lat="38.489812" lon="-106.000772"><ele>2467.0</ele><time>2026-04-10T15:06:55Z</time></rtept><rtept lat="38.489627" lon="-106.000757"><ele>2471.4</ele><time>2026-04-10T15:06:55Z</time></rtept><rtept lat="38.489491" lon="-106.000813"><ele>2473.2</ele><time>2026-04-10T15:06:55Z</time></rtept><rtept lat="38.489286" lon="-106.000963"><ele>2475.2</ele><time>2026-04-10T15:06:55Z</time></rtept><rtept lat="38.489127" lon="-106.001117"><ele>2479.0</ele><time>2026-04-10T15:06:55Z</time></rtept><rtept lat="38.489066" lon="-106.001147"><ele>2479.6</ele><time>2026-04-10T15:06:55Z</time></rtept><rtept lat="38.488986" lon="-106.001102"><ele>2480.6</ele><time>2026-04-10T15:06:55Z</time></rtept><rtept lat="38.488851" lon="-106.001049"><ele>2482.4</ele><time>2026-04-10T15:06:55Z</time></rtept><rtept lat="38.488628" lon="-106.001023"><ele>2485.0</ele><time>2026-04-10T15:06:55Z</time></rtept><rtept lat="38.488425" lon="-106.001038"><ele>2487.0</ele><time>2026-04-10T15:06:55Z</time></rtept><rtept lat="38.488305" lon="-106.001004"><ele>2488.6</ele><time>2026-04-10T15:06:55Z</time></rtept><rtept lat="38.488196" lon="-106.000862"><ele>2491.4</ele><time>2026-04-10T15:06:55Z</time></rtept><rtept lat="38.488064" lon="-106.000697"><ele>2492.8</ele><time>2026-04-10T15:06:55Z</time></rtept><rtept lat="38.487926" lon="-106.000652"><ele>2495.8</ele><time>2026-04-10T15:06:55Z</time></rtept><rtept lat="38.487823" lon="-106.000685"><ele>2496.4</ele><time>2026-04-10T15:06:55Z</time></rtept><rtept lat="38.487588" lon="-106.000873"><ele>2500.8</ele><time>2026-04-10T15:06:55Z</time></rtept><rtept lat="38.487361" lon="-106.001053"><ele>2503.0</ele><time>2026-04-10T15:06:55Z</time></rtept><rtept lat="38.487121" lon="-106.001102"><ele>2507.4</ele><time>2026-04-10T15:06:55Z</time></rtept><rtept lat="38.486918" lon="-106.001155"><ele>2509.6</ele><time>2026-04-10T15:06:55Z</time></rtept><rtept lat="38.486774" lon="-106.001256"><ele>2513.0</ele><time>2026-04-10T15:06:55Z</time></rtept><rtept lat="38.486577" lon="-106.0015"><ele>2516.2</ele><time>2026-04-10T15:06:55Z</time></rtept><rtept lat="38.486389" lon="-106.001811"><ele>2520.0</ele><time>2026-04-10T15:06:55Z</time></rtept><rtept lat="38.486233" lon="-106.001857"><ele>2523.8</ele><time>2026-04-10T15:06:55Z</time></rtept><rtept lat="38.486104" lon="-106.001992"><ele>2526.6</ele><time>2026-04-10T15:06:55Z</time></rtept><rtept lat="38.485933" lon="-106.002078"><ele>2528.8</ele><time>2026-04-10T15:06:55Z</time></rtept><rtept lat="38.485804" lon="-106.002179"><ele>2531.0</ele><time>2026-04-10T15:06:55Z</time></rtept><rtept lat="38.485581" lon="-106.002322"><ele>2536.2</ele><time>2026-04-10T15:06:55Z</time></rtept><rtept lat="38.485393" lon="-106.002502"><ele>2540.2</ele><time>2026-04-10T15:06:55Z</time></rtept><rtept lat="38.485169" lon="-106.002551"><ele>2543.6</ele><time>2026-04-10T15:06:55Z</time></rtept><rtept lat="38.485064" lon="-106.002562"><ele>2544.6</ele><time>2026-04-10T15:06:55Z</time></rtept><rtept lat="38.484928" lon="-106.002641"><ele>2547.4</ele><time>2026-04-10T15:06:55Z</time></rtept><rtept lat="38.484723" lon="-106.002724"><ele>2551.0</ele><time>2026-04-10T15:06:55Z</time></rtept><rtept lat="38.484335" lon="-106.002795"><ele>2553.0</ele><time>2026-04-10T15:06:55Z</time></rtept><rtept lat="38.484009" lon="-106.002941"><ele>2560.8</ele><time>2026-04-10T15:06:55Z</time></rtept><rtept lat="38.483642" lon="-106.003043"><ele>2565.2</ele><time>2026-04-10T15:06:55Z</time></rtept><rtept lat="38.483409" lon="-106.003073"><ele>2569.0</ele><time>2026-04-10T15:06:55Z</time></rtept><rtept lat="38.483169" lon="-106.003043"><ele>2574.8</ele><time>2026-04-10T15:06:55Z</time></rtept><rtept lat="38.482954" lon="-106.003061"><ele>2576.8</ele><time>2026-04-10T15:06:55Z</time></rtept><rtept lat="38.482828" lon="-106.003095"><ele>2577.4</ele><time>2026-04-10T15:06:55Z</time></rtept><rtept lat="38.482687" lon="-106.00317"><ele>2577.6</ele><time>2026-04-10T15:06:55Z</time></rtept><rtept lat="38.482457" lon="-106.0032"><ele>2583.6</ele><time>2026-04-10T15:06:55Z</time></rtept><rtept lat="38.482166" lon="-106.003212"><ele>2588.0</ele><time>2026-04-10T15:06:55Z</time></rtept><rtept lat="38.48202" lon="-106.003208"><ele>2589.2</ele><time>2026-04-10T15:06:55Z</time></rtept><rtept lat="38.481861" lon="-106.003268"><ele>2591.6</ele><time>2026-04-10T15:06:55Z</time></rtept><rtept lat="38.481702" lon="-106.003294"><ele>2594.4</ele><time>2026-04-10T15:06:55Z</time></rtept><rtept lat="38.481461" lon="-106.003253"><ele>2599.6</ele><time>2026-04-10T15:06:55Z</time></rtept><rtept lat="38.481294" lon="-106.00323"><ele>2601.4</ele><time>2026-04-10T15:06:55Z</time></rtept><rtept lat="38.481197" lon="-106.003294"><ele>2603.0</ele><time>2026-04-10T15:06:55Z</time></rtept><rtept lat="38.4811" lon="-106.003373"><ele>2603.8</ele><time>2026-04-10T15:06:55Z</time></rtept><rtept lat="38.480959" lon="-106.003519"><ele>2605.6</ele><time>2026-04-10T15:06:55Z</time></rtept><rtept lat="38.480832" lon="-106.003553"><ele>2609.0</ele><time>2026-04-10T15:06:55Z</time></rtept><rtept lat="38.48068" lon="-106.003538"><ele>2611.6</ele><time>2026-04-10T15:06:55Z</time></rtept><rtept lat="38.480553" lon="-106.003538"><ele>2613.6</ele><time>2026-04-10T15:06:55Z</time></rtept><rtept lat="38.480406" lon="-106.003651"><ele>2615.0</ele><time>2026-04-10T15:06:55Z</time></rtept><rtept lat="38.480309" lon="-106.003703"><ele>2617.4</ele><time>2026-04-10T15:06:55Z</time></rtept><rtept lat="38.480209" lon="-106.003696"><ele>2618.8</ele><time>2026-04-10T15:06:55Z</time></rtept><rtept lat="38.480001" lon="-106.003613"><ele>2623.2</ele><time>2026-04-10T15:06:55Z</time></rtept><rtept lat="38.479783" lon="-106.003527"><ele>2628.8</ele><time>2026-04-10T15:06:55Z</time></rtept><rtept lat="38.479522" lon="-106.003373"><ele>2635.6</ele><time>2026-04-10T15:06:55Z</time></rtept><rtept lat="38.479331" lon="-106.003369"><ele>2638.0</ele><time>2026-04-10T15:06:55Z</time></rtept><rtept lat="38.479166" lon="-106.003403"><ele>2641.2</ele><time>2026-04-10T15:06:55Z</time></rtept><rtept lat="38.478993" lon="-106.003452"><ele>2643.6</ele><time>2026-04-10T15:06:55Z</time></rtept><rtept lat="38.478805" lon="-106.003497"><ele>2647.8</ele><time>2026-04-10T15:06:55Z</time></rtept><rtept lat="38.478687" lon="-106.003489"><ele>2651.0</ele><time>2026-04-10T15:06:55Z</time></rtept><rtept lat="38.478502" lon="-106.003456"><ele>2656.6</ele><time>2026-04-10T15:06:55Z</time></rtept><rtept lat="38.478405" lon="-106.003486"><ele>2657.6</ele><time>2026-04-10T15:06:55Z</time></rtept><rtept lat="38.478358" lon="-106.003516"><ele>2659.2</ele><time>2026-04-10T15:06:55Z</time></rtept><rtept lat="38.478276" lon="-106.003625"><ele>2660.4</ele><time>2026-04-10T15:06:55Z</time></rtept><rtept lat="38.478208" lon="-106.00367"><ele>2662.4</ele><time>2026-04-10T15:06:55Z</time></rtept><rtept lat="38.478152" lon="-106.003658"><ele>2665.0</ele><time>2026-04-10T15:06:55Z</time></rtept><rtept lat="38.478079" lon="-106.003655"><ele>2667.6</ele><time>2026-04-10T15:06:55Z</time></rtept><rtept lat="38.477956" lon="-106.003685"><ele>2672.0</ele><time>2026-04-10T15:06:55Z</time></rtept><rtept lat="38.477829" lon="-106.003771"><ele>2674.4</ele><time>2026-04-10T15:06:55Z</time></rtept><rtept lat="38.477723" lon="-106.003816"><ele>2676.0</ele><time>2026-04-10T15:06:55Z</time></rtept><rtept lat="38.477496" lon="-106.00387"><ele>2680.6</ele><time>2026-04-10T15:06:55Z</time></rtept><rtept lat="38.477023" lon="-106.004207"><ele>2686.0</ele><time>2026-04-10T15:06:55Z</time></rtept><rtept lat="38.476902" lon="-106.004295"><ele>2685.8</ele><time>2026-04-10T15:06:55Z</time></rtept><rtept lat="38.476767" lon="-106.004354"><ele>2689.4</ele><time>2026-04-10T15:06:55Z</time></rtept><rtept lat="38.476348" lon="-106.004634"><ele>2713.8</ele><time>2026-04-10T15:06:55Z</time></rtept><rtept lat="38.476213" lon="-106.004335"><ele>2716.2</ele><time>2026-04-10T15:06:55Z</time></rtept><rtept lat="38.476078" lon="-106.004037"><ele>2712.4</ele><time>2026-04-10T15:06:55Z</time></rtept><rtept lat="38.475944" lon="-106.003738"><ele>2717.0</ele><time>2026-04-10T15:06:55Z</time></rtept><rtept lat="38.475936" lon="-106.00372"><ele>2718.8</ele><time>2026-04-10T15:06:55Z</time></rtept><rtept lat="38.475936" lon="-106.00372"><ele>2718.8</ele><time>2026-04-10T15:06:55Z</time></rtept><rtept lat="38.476071" lon="-106.004019"><ele>2712.4</ele><time>2026-04-10T15:06:55Z</time></rtept><rtept lat="38.476205" lon="-106.004317"><ele>2713.8</ele><time>2026-04-10T15:06:55Z</time></rtept><rtept lat="38.47634" lon="-106.004616"><ele>2713.8</ele><time>2026-04-10T15:06:55Z</time></rtept><rtept lat="38.476348" lon="-106.004634"><ele>2713.8</ele><time>2026-04-10T15:06:55Z</time></rtept><rtept lat="38.476767" lon="-106.004354"><ele>2689.4</ele><time>2026-04-10T15:06:55Z</time></rtept><rtept lat="38.476902" lon="-106.004295"><ele>2685.8</ele><time>2026-04-10T15:06:55Z</time></rtept><rtept lat="38.477023" lon="-106.004207"><ele>2686.0</ele><time>2026-04-10T15:06:55Z</time></rtept><rtept lat="38.477046" lon="-106.004345"><ele>2682.6</ele><time>2026-04-10T15:06:55Z</time></rtept><rtept lat="38.476993" lon="-106.004608"><ele>2683.0</ele><time>2026-04-10T15:06:55Z</time></rtept><rtept lat="38.477092" lon="-106.004684"><ele>2683.0</ele><time>2026-04-10T15:06:55Z</time></rtept><rtept lat="38.477252" lon="-106.00473"><ele>2679.0</ele><time>2026-04-10T15:06:55Z</time></rtept><rtept lat="38.477285" lon="-106.004826"><ele>2680.6</ele><time>2026-04-10T15:06:55Z</time></rtept><rtept lat="38.477259" lon="-106.005014"><ele>2683.6</ele><time>2026-04-10T15:06:55Z</time></rtept><rtept lat="38.477206" lon="-106.005238"><ele>2685.2</ele><time>2026-04-10T15:06:55Z</time></rtept><rtept lat="38.477203" lon="-106.005253"><ele>2685.2</ele><time>2026-04-10T15:06:55Z</time></rtept><rtept lat="38.477116" lon="-106.005761"><ele>2686.0</ele><time>2026-04-10T15:06:55Z</time></rtept><rtept lat="38.477144" lon="-106.006021"><ele>2688.8</ele><time>2026-04-10T15:06:55Z</time></rtept><rtept lat="38.477308" lon="-106.006234"><ele>2691.6</ele><time>2026-04-10T15:06:55Z</time></rtept><rtept lat="38.47739" lon="-106.006431"><ele>2692.8</ele><time>2026-04-10T15:06:55Z</time></rtept><rtept lat="38.477576" lon="-106.006602"><ele>2694.8</ele><time>2026-04-10T15:06:55Z</time></rtept><rtept lat="38.477976" lon="-106.006736"><ele>2691.6</ele><time>2026-04-10T15:06:55Z</time></rtept><rtept lat="38.47831" lon="-106.006907"><ele>2693.8</ele><time>2026-04-10T15:06:55Z</time></rtept><rtept lat="38.478382" lon="-106.007259"><ele>2702.4</ele><time>2026-04-10T15:06:55Z</time></rtept><rtept lat="38.478316" lon="-106.007664"><ele>2706.0</ele><time>2026-04-10T15:06:55Z</time></rtept><rtept lat="38.478041" lon="-106.008246"><ele>2712.4</ele><time>2026-04-10T15:06:55Z</time></rtept><rtept lat="38.477747" lon="-106.008865"><ele>2717.2</ele><time>2026-04-10T15:06:55Z</time></rtept><rtept lat="38.477599" lon="-106.010237"><ele>2727.6</ele><time>2026-04-10T15:06:55Z</time></rtept><rtept lat="38.478104" lon="-106.010651"><ele>2725.6</ele><time>2026-04-10T15:06:55Z</time></rtept><rtept lat="38.4781" lon="-106.010785"><ele>2724.8</ele><time>2026-04-10T15:06:55Z</time></rtept><rtept lat="38.477652" lon="-106.011144"><ele>2725.8</ele><time>2026-04-10T15:06:55Z</time></rtept><rtept lat="38.477757" lon="-106.012031"><ele>2722.0</ele><time>2026-04-10T15:06:55Z</time></rtept><rtept lat="38.478022" lon="-106.012324"><ele>2719.0</ele><time>2026-04-10T15:06:55Z</time></rtept><rtept lat="38.477774" lon="-106.012611"><ele>2719.8</ele><time>2026-04-10T15:06:55Z</time></rtept><rtept lat="38.477727" lon="-106.012906"><ele>2715.4</ele><time>2026-04-10T15:06:55Z</time></rtept><rtept lat="38.477429" lon="-106.01316"><ele>2718.4</ele><time>2026-04-10T15:06:55Z</time></rtept><rtept lat="38.477108" lon="-106.014085"><ele>2712.4</ele><time>2026-04-10T15:06:55Z</time></rtept><rtept lat="38.477244" lon="-106.0154"><ele>2726.4</ele><time>2026-04-10T15:06:55Z</time></rtept><rtept lat="38.477259" lon="-106.016707"><ele>2736.8</ele><time>2026-04-10T15:06:55Z</time></rtept><rtept lat="38.47762" lon="-106.017529"><ele>2760.2</ele><time>2026-04-10T15:06:55Z</time></rtept><rtept lat="38.477459" lon="-106.018388"><ele>2750.2</ele><time>2026-04-10T15:06:55Z</time></rtept><rtept lat="38.477361" lon="-106.01921"><ele>2748.0</ele><time>2026-04-10T15:06:55Z</time></rtept><rtept lat="38.477287" lon="-106.020766"><ele>2731.2</ele><time>2026-04-10T15:06:55Z</time></rtept><rtept lat="38.477515" lon="-106.020981"><ele>2725.4</ele><time>2026-04-10T15:06:55Z</time></rtept><rtept lat="38.477612" lon="-106.021602"><ele>2727.0</ele><time>2026-04-10T15:06:55Z</time></rtept><rtept lat="38.477965" lon="-106.021628"><ele>2716.6</ele><time>2026-04-10T15:06:55Z</time></rtept><rtept lat="38.478034" lon="-106.021843"><ele>2716.6</ele><time>2026-04-10T15:06:55Z</time></rtept><rtept lat="38.478325" lon="-106.02222"><ele>2708.6</ele><time>2026-04-10T15:06:55Z</time></rtept><rtept lat="38.478379" lon="-106.022546"><ele>2716.4</ele><time>2026-04-10T15:06:55Z</time></rtept><rtept lat="38.478951" lon="-106.023286"><ele>2712.4</ele><time>2026-04-10T15:06:55Z</time></rtept><rtept lat="38.479276" lon="-106.023658"><ele>2719.0</ele><time>2026-04-10T15:06:55Z</time></rtept><rtept lat="38.479285" lon="-106.024118"><ele>2722.2</ele><time>2026-04-10T15:06:55Z</time></rtept><rtept lat="38.47932" lon="-106.024517"><ele>2723.6</ele><time>2026-04-10T15:06:55Z</time></rtept><rtept lat="38.479177" lon="-106.024804"><ele>2726.8</ele><time>2026-04-10T15:06:55Z</time></rtept><rtept lat="38.478721" lon="-106.026146"><ele>2726.8</ele><time>2026-04-10T15:06:55Z</time></rtept><rtept lat="38.478681" lon="-106.026588"><ele>2736.4</ele><time>2026-04-10T15:06:55Z</time></rtept><rtept lat="38.478942" lon="-106.027242"><ele>2737.2</ele><time>2026-04-10T15:06:55Z</time></rtept><rtept lat="38.478742" lon="-106.027824"><ele>2737.2</ele><time>2026-04-10T15:06:55Z</time></rtept><rtept lat="38.47858" lon="-106.028409"><ele>2739.0</ele><time>2026-04-10T15:06:55Z</time></rtept><rtept lat="38.478343" lon="-106.028804"><ele>2733.8</ele><time>2026-04-10T15:06:55Z</time></rtept><rtept lat="38.478327" lon="-106.029033"><ele>2729.8</ele><time>2026-04-10T15:06:55Z</time></rtept><rtept lat="38.478333" lon="-106.029431"><ele>2741.4</ele><time>2026-04-10T15:06:55Z</time></rtept><rtept lat="38.478543" lon="-106.029954"><ele>2737.8</ele><time>2026-04-10T15:06:55Z</time></rtept><rtept lat="38.478385" lon="-106.030147"><ele>2739.0</ele><time>2026-04-10T15:06:55Z</time></rtept><rtept lat="38.478338" lon="-106.030379"><ele>2732.2</ele><time>2026-04-10T15:06:55Z</time></rtept><rtept lat="38.478077" lon="-106.031058"><ele>2723.2</ele><time>2026-04-10T15:06:55Z</time></rtept><rtept lat="38.477888" lon="-106.031862"><ele>2717.2</ele><time>2026-04-10T15:06:55Z</time></rtept><rtept lat="38.477201" lon="-106.032154"><ele>2703.0</ele><time>2026-04-10T15:06:55Z</time></rtept><rtept lat="38.476881" lon="-106.031953"><ele>2717.2</ele><time>2026-04-10T15:06:55Z</time></rtept><rtept lat="38.476708" lon="-106.031974"><ele>2714.4</ele><time>2026-04-10T15:06:55Z</time></rtept><rtept lat="38.476726" lon="-106.032035"><ele>2714.4</ele><time>2026-04-10T15:06:55Z</time></rtept><rtept lat="38.476727" lon="-106.032038"><ele>2714.4</ele><time>2026-04-10T15:06:55Z</time></rtept><rtept lat="38.476699" lon="-106.032094"><ele>2717.0</ele><time>2026-04-10T15:06:55Z</time></rtept><rtept lat="38.476758" lon="-106.032178"><ele>2716.6</ele><time>2026-04-10T15:06:55Z</time></rtept><rtept lat="38.476789" lon="-106.032352"><ele>2719.0</ele><time>2026-04-10T15:06:55Z</time></rtept><rtept lat="38.476879" lon="-106.032542"><ele>2725.4</ele><time>2026-04-10T15:06:55Z</time></rtept><rtept lat="38.477089" lon="-106.032775"><ele>2723.4</ele><time>2026-04-10T15:06:55Z</time></rtept><rtept lat="38.477549" lon="-106.032977"><ele>2720.6</ele><time>2026-04-10T15:06:55Z</time></rtept><rtept lat="38.478146" lon="-106.033873"><ele>2729.4</ele><time>2026-04-10T15:06:55Z</time></rtept><rtept lat="38.478167" lon="-106.034154"><ele>2737.0</ele><time>2026-04-10T15:06:55Z</time></rtept><rtept lat="38.478298" lon="-106.034238"><ele>2735.0</ele><time>2026-04-10T15:06:55Z</time></rtept><rtept lat="38.478319" lon="-106.034425"><ele>2740.4</ele><time>2026-04-10T15:06:55Z</time></rtept><rtept lat="38.478313" lon="-106.034522"><ele>2742.6</ele><time>2026-04-10T15:06:55Z</time></rtept><rtept lat="38.478392" lon="-106.034653"><ele>2744.4</ele><time>2026-04-10T15:06:55Z</time></rtept><rtept lat="38.478688" lon="-106.034459"><ele>2739.8</ele><time>2026-04-10T15:06:55Z</time></rtept><rtept lat="38.478853" lon="-106.034646"><ele>2748.4</ele><time>2026-04-10T15:06:55Z</time></rtept><rtept lat="38.47863" lon="-106.035024"><ele>2750.4</ele><time>2026-04-10T15:06:55Z</time></rtept><rtept lat="38.47845" lon="-106.035064"><ele>2757.4</ele><time>2026-04-10T15:06:55Z</time></rtept><rtept lat="38.478415" lon="-106.035175"><ele>2755.6</ele><time>2026-04-10T15:06:55Z</time></rtept><rtept lat="38.478558" lon="-106.03528"><ele>2747.8</ele><time>2026-04-10T15:06:55Z</time></rtept><rtept lat="38.478774" lon="-106.03562"><ele>2753.2</ele><time>2026-04-10T15:06:55Z</time></rtept><rtept lat="38.478931" lon="-106.036583"><ele>2752.4</ele><time>2026-04-10T15:06:55Z</time></rtept><rtept lat="38.478759" lon="-106.037102"><ele>2755.0</ele><time>2026-04-10T15:06:55Z</time></rtept><rtept lat="38.47879" lon="-106.037418"><ele>2748.6</ele><time>2026-04-10T15:06:55Z</time></rtept><rtept lat="38.478626" lon="-106.037716"><ele>2751.6</ele><time>2026-04-10T15:06:55Z</time></rtept><rtept lat="38.478651" lon="-106.037841"><ele>2750.2</ele><time>2026-04-10T15:06:55Z</time></rtept><rtept lat="38.478757" lon="-106.03805"><ele>2749.6</ele><time>2026-04-10T15:06:55Z</time></rtept><rtept lat="38.478745" lon="-106.038474"><ele>2752.8</ele><time>2026-04-10T15:06:55Z</time></rtept><rtept lat="38.478323" lon="-106.039061"><ele>2753.8</ele><time>2026-04-10T15:06:55Z</time></rtept><rtept lat="38.47819" lon="-106.039538"><ele>2753.8</ele><time>2026-04-10T15:06:55Z</time></rtept><rtept lat="38.478069" lon="-106.040116"><ele>2753.4</ele><time>2026-04-10T15:06:55Z</time></rtept><rtept lat="38.477697" lon="-106.040827"><ele>2754.4</ele><time>2026-04-10T15:06:55Z</time></rtept><rtept lat="38.477271" lon="-106.041517"><ele>2752.6</ele><time>2026-04-10T15:06:55Z</time></rtept><rtept lat="38.47685" lon="-106.041647"><ele>2749.0</ele><time>2026-04-10T15:06:55Z</time></rtept><rtept lat="38.476624" lon="-106.041547"><ele>2745.0</ele><time>2026-04-10T15:06:55Z</time></rtept><rtept lat="38.476477" lon="-106.04135"><ele>2764.0</ele><time>2026-04-10T15:06:55Z</time></rtept><rtept lat="38.476207" lon="-106.041731"><ele>2751.4</ele><time>2026-04-10T15:06:55Z</time></rtept><rtept lat="38.476076" lon="-106.041772"><ele>2746.6</ele><time>2026-04-10T15:06:55Z</time></rtept><rtept lat="38.475839" lon="-106.041731"><ele>2759.0</ele><time>2026-04-10T15:06:55Z</time></rtept><rtept lat="38.475683" lon="-106.04204"><ele>2742.0</ele><time>2026-04-10T15:06:55Z</time></rtept><rtept lat="38.475442" lon="-106.042016"><ele>2735.2</ele><time>2026-04-10T15:06:55Z</time></rtept><rtept lat="38.474971" lon="-106.041956"><ele>2742.4</ele><time>2026-04-10T15:06:55Z</time></rtept><rtept lat="38.475016" lon="-106.042164"><ele>2740.4</ele><time>2026-04-10T15:06:55Z</time></rtept><rtept lat="38.475028" lon="-106.042379"><ele>2742.2</ele><time>2026-04-10T15:06:55Z</time></rtept><rtept lat="38.475221" lon="-106.04285"><ele>2741.4</ele><time>2026-04-10T15:06:55Z</time></rtept><rtept lat="38.475601" lon="-106.043347"><ele>2730.2</ele><time>2026-04-10T15:06:55Z</time></rtept><rtept lat="38.475589" lon="-106.043718"><ele>2733.8</ele><time>2026-04-10T15:06:55Z</time></rtept><rtept lat="38.475725" lon="-106.044223"><ele>2743.2</ele><time>2026-04-10T15:06:55Z</time></rtept><rtept lat="38.476256" lon="-106.044612"><ele>2739.6</ele><time>2026-04-10T15:06:55Z</time></rtept><rtept lat="38.476084" lon="-106.045145"><ele>2745.6</ele><time>2026-04-10T15:06:55Z</time></rtept><rtept lat="38.476113" lon="-106.045553"><ele>2730.4</ele><time>2026-04-10T15:06:55Z</time></rtept><rtept lat="38.475925" lon="-106.045725"><ele>2720.0</ele><time>2026-04-10T15:06:55Z</time></rtept><rtept lat="38.475691" lon="-106.045646"><ele>2723.4</ele><time>2026-04-10T15:06:55Z</time></rtept><rtept lat="38.475532" lon="-106.045908"><ele>2724.0</ele><time>2026-04-10T15:06:55Z</time></rtept><rtept lat="38.475393" lon="-106.046254"><ele>2729.6</ele><time>2026-04-10T15:06:55Z</time></rtept><rtept lat="38.475446" lon="-106.046661"><ele>2715.0</ele><time>2026-04-10T15:06:55Z</time></rtept><rtept lat="38.475335" lon="-106.046829"><ele>2717.2</ele><time>2026-04-10T15:06:55Z</time></rtept><rtept lat="38.475262" lon="-106.047001"><ele>2716.2</ele><time>2026-04-10T15:06:55Z</time></rtept><rtept lat="38.475308" lon="-106.047147"><ele>2711.6</ele><time>2026-04-10T15:06:55Z</time></rtept><rtept lat="38.475389" lon="-106.047273"><ele>2713.4</ele><time>2026-04-10T15:06:55Z</time></rtept><rtept lat="38.475589" lon="-106.047425"><ele>2713.0</ele><time>2026-04-10T15:06:55Z</time></rtept><rtept lat="38.475262" lon="-106.047665"><ele>2721.8</ele><time>2026-04-10T15:06:55Z</time></rtept><rtept lat="38.475145" lon="-106.047935"><ele>2721.6</ele><time>2026-04-10T15:06:55Z</time></rtept><rtept lat="38.475145" lon="-106.047935"><ele>2721.6</ele><time>2026-04-10T15:06:55Z</time></rtept><rtept lat="38.474819" lon="-106.048685"><ele>2723.0</ele><time>2026-04-10T15:06:55Z</time></rtept><rtept lat="38.474721" lon="-106.049187"><ele>2724.8</ele><time>2026-04-10T15:06:55Z</time></rtept><rtept lat="38.474738" lon="-106.049547"><ele>2723.2</ele><time>2026-04-10T15:06:55Z</time></rtept><rtept lat="38.474533" lon="-106.050044"><ele>2725.4</ele><time>2026-04-10T15:06:55Z</time></rtept><rtept lat="38.4744" lon="-106.050395"><ele>2728.4</ele><time>2026-04-10T15:06:55Z</time></rtept><rtept lat="38.47438" lon="-106.050625"><ele>2724.4</ele><time>2026-04-10T15:06:55Z</time></rtept><rtept lat="38.474304" lon="-106.050916"><ele>2719.4</ele><time>2026-04-10T15:06:55Z</time></rtept><rtept lat="38.474159" lon="-106.051209"><ele>2711.6</ele><time>2026-04-10T15:06:55Z</time></rtept><rtept lat="38.474171" lon="-106.05142"><ele>2708.0</ele><time>2026-04-10T15:06:55Z</time></rtept><rtept lat="38.474397" lon="-106.051549"><ele>2708.0</ele><time>2026-04-10T15:06:55Z</time></rtept><rtept lat="38.474442" lon="-106.052321"><ele>2719.0</ele><time>2026-04-10T15:06:55Z</time></rtept><rtept lat="38.474187" lon="-106.053221"><ele>2732.0</ele><time>2026-04-10T15:06:55Z</time></rtept><rtept lat="38.473963" lon="-106.054222"><ele>2747.4</ele><time>2026-04-10T15:06:55Z</time></rtept><rtept lat="38.473733" lon="-106.054441"><ele>2746.8</ele><time>2026-04-10T15:06:55Z</time></rtept><rtept lat="38.473575" lon="-106.055661"><ele>2770.0</ele><time>2026-04-10T15:06:55Z</time></rtept><rtept lat="38.473232" lon="-106.056157"><ele>2779.6</ele><time>2026-04-10T15:06:55Z</time></rtept><rtept lat="38.472997" lon="-106.056431"><ele>2786.4</ele><time>2026-04-10T15:06:55Z</time></rtept><rtept lat="38.472767" lon="-106.05653"><ele>2792.0</ele><time>2026-04-10T15:06:55Z</time></rtept><rtept lat="38.472457" lon="-106.057124"><ele>2807.6</ele><time>2026-04-10T15:06:55Z</time></rtept><rtept lat="38.472376" lon="-106.057624"><ele>2809.2</ele><time>2026-04-10T15:06:55Z</time></rtept><rtept lat="38.472019" lon="-106.057926"><ele>2817.0</ele><time>2026-04-10T15:06:55Z</time></rtept><rtept lat="38.471818" lon="-106.058294"><ele>2821.2</ele><time>2026-04-10T15:06:55Z</time></rtept><rtept lat="38.471572" lon="-106.058515"><ele>2827.8</ele><time>2026-04-10T15:06:55Z</time></rtept><rtept lat="38.471398" lon="-106.058734"><ele>2833.0</ele><time>2026-04-10T15:06:55Z</time></rtept><rtept lat="38.47098" lon="-106.05942"><ele>2846.0</ele><time>2026-04-10T15:06:55Z</time></rtept><rtept lat="38.470794" lon="-106.059662"><ele>2850.2</ele><time>2026-04-10T15:06:55Z</time></rtept><rtept lat="38.470549" lon="-106.060003"><ele>2856.2</ele><time>2026-04-10T15:06:55Z</time></rtept><rtept lat="38.47042" lon="-106.060333"><ele>2864.0</ele><time>2026-04-10T15:06:55Z</time></rtept><rtept lat="38.470137" lon="-106.060678"><ele>2876.0</ele><time>2026-04-10T15:06:55Z</time></rtept><rtept lat="38.469781" lon="-106.060708"><ele>2875.4</ele><time>2026-04-10T15:06:55Z</time></rtept><rtept lat="38.469422" lon="-106.060872"><ele>2879.8</ele><time>2026-04-10T15:06:55Z</time></rtept><rtept lat="38.469298" lon="-106.060875"><ele>2881.4</ele><time>2026-04-10T15:06:55Z</time></rtept><rtept lat="38.469185" lon="-106.060977"><ele>2882.4</ele><time>2026-04-10T15:06:55Z</time></rtept><rtept lat="38.468975" lon="-106.061148"><ele>2886.8</ele><time>2026-04-10T15:06:55Z</time></rtept><rtept lat="38.468568" lon="-106.061333"><ele>2896.2</ele><time>2026-04-10T15:06:55Z</time></rtept><rtept lat="38.468549" lon="-106.061416"><ele>2899.8</ele><time>2026-04-10T15:06:55Z</time></rtept><rtept lat="38.468617" lon="-106.06147"><ele>2899.4</ele><time>2026-04-10T15:06:55Z</time></rtept><rtept lat="38.469057" lon="-106.061445"><ele>2900.4</ele><time>2026-04-10T15:06:55Z</time></rtept><rtept lat="38.469692" lon="-106.061522"><ele>2905.4</ele><time>2026-04-10T15:06:55Z</time></rtept><rtept lat="38.469877" lon="-106.061768"><ele>2912.4</ele><time>2026-04-10T15:06:55Z</time></rtept><rtept lat="38.470288" lon="-106.061678"><ele>2910.8</ele><time>2026-04-10T15:06:55Z</time></rtept><rtept lat="38.471099" lon="-106.062162"><ele>2929.2</ele><time>2026-04-10T15:06:55Z</time></rtept><rtept lat="38.47131" lon="-106.062001"><ele>2924.2</ele><time>2026-04-10T15:06:55Z</time></rtept><rtept lat="38.471679" lon="-106.062452"><ele>2944.0</ele><time>2026-04-10T15:06:55Z</time></rtept><rtept lat="38.471647" lon="-106.062734"><ele>2948.2</ele><time>2026-04-10T15:06:55Z</time></rtept><rtept lat="38.471742" lon="-106.062889"><ele>2951.8</ele><time>2026-04-10T15:06:55Z</time></rtept><rtept lat="38.471853" lon="-106.06297"><ele>2954.0</ele><time>2026-04-10T15:06:55Z</time></rtept><rtept lat="38.471863" lon="-106.063111"><ele>2956.0</ele><time>2026-04-10T15:06:55Z</time></rtept><rtept lat="38.472006" lon="-106.063246"><ele>2960.4</ele><time>2026-04-10T15:06:55Z</time></rtept><rtept lat="38.472074" lon="-106.063266"><ele>2961.2</ele><time>2026-04-10T15:06:55Z</time></rtept><rtept lat="38.472127" lon="-106.063455"><ele>2963.6</ele><time>2026-04-10T15:06:55Z</time></rtept><rtept lat="38.471906" lon="-106.06369"><ele>2975.8</ele><time>2026-04-10T15:06:55Z</time></rtept><rtept lat="38.471115" lon="-106.063912"><ele>2985.2</ele><time>2026-04-10T15:06:55Z</time></rtept><rtept lat="38.471058" lon="-106.064061"><ele>2987.4</ele><time>2026-04-10T15:06:55Z</time></rtept><rtept lat="38.470904" lon="-106.064168"><ele>2990.6</ele><time>2026-04-10T15:06:55Z</time></rtept><rtept lat="38.470509" lon="-106.064175"><ele>2995.6</ele><time>2026-04-10T15:06:55Z</time></rtept><rtept lat="38.470209" lon="-106.06441"><ele>3000.6</ele><time>2026-04-10T15:06:55Z</time></rtept><rtept lat="38.469729" lon="-106.064464"><ele>3016.6</ele><time>2026-04-10T15:06:55Z</time></rtept><rtept lat="38.469503" lon="-106.06437"><ele>3022.8</ele><time>2026-04-10T15:06:55Z</time></rtept><rtept lat="38.469155" lon="-106.064518"><ele>3030.6</ele><time>2026-04-10T15:06:55Z</time></rtept><rtept lat="38.468754" lon="-106.06433"><ele>3033.4</ele><time>2026-04-10T15:06:55Z</time></rtept><rtept lat="38.46847" lon="-106.064484"><ele>3037.8</ele><time>2026-04-10T15:06:55Z</time></rtept><rtept lat="38.468177" lon="-106.064377"><ele>3041.0</ele><time>2026-04-10T15:06:55Z</time></rtept><rtept lat="38.467675" lon="-106.064464"><ele>3039.0</ele><time>2026-04-10T15:06:55Z</time></rtept><rtept lat="38.467303" lon="-106.064758"><ele>3042.0</ele><time>2026-04-10T15:06:55Z</time></rtept><rtept lat="38.466831" lon="-106.064996"><ele>3054.0</ele><time>2026-04-10T15:06:55Z</time></rtept><rtept lat="38.466411" lon="-106.064959"><ele>3061.4</ele><time>2026-04-10T15:06:55Z</time></rtept><rtept lat="38.466046" lon="-106.06542"><ele>3075.6</ele><time>2026-04-10T15:06:55Z</time></rtept><rtept lat="38.465792" lon="-106.065514"><ele>3077.0</ele><time>2026-04-10T15:06:55Z</time></rtept><rtept lat="38.465569" lon="-106.066073"><ele>3084.0</ele><time>2026-04-10T15:06:55Z</time></rtept><rtept lat="38.465244" lon="-106.066544"><ele>3090.6</ele><time>2026-04-10T15:06:55Z</time></rtept><rtept lat="38.464708" lon="-106.066836"><ele>3101.4</ele><time>2026-04-10T15:06:55Z</time></rtept><rtept lat="38.464477" lon="-106.06721"><ele>3112.4</ele><time>2026-04-10T15:06:55Z</time></rtept><rtept lat="38.4643" lon="-106.067451"><ele>3115.4</ele><time>2026-04-10T15:06:55Z</time></rtept><rtept lat="38.464229" lon="-106.067628"><ele>3116.0</ele><time>2026-04-10T15:06:55Z</time></rtept><rtept lat="38.464093" lon="-106.067766"><ele>3119.4</ele><time>2026-04-10T15:06:55Z</time></rtept><rtept lat="38.463738" lon="-106.068388"><ele>3124.8</ele><time>2026-04-10T15:06:55Z</time></rtept><rtept lat="38.463621" lon="-106.069149"><ele>3124.8</ele><time>2026-04-10T15:06:55Z</time></rtept><rtept lat="38.463279" lon="-106.069569"><ele>3123.8</ele><time>2026-04-10T15:06:55Z</time></rtept><rtept lat="38.463084" lon="-106.069499"><ele>3122.8</ele><time>2026-04-10T15:06:55Z</time></rtept><rtept lat="38.462319" lon="-106.06894"><ele>3124.0</ele><time>2026-04-10T15:06:55Z</time></rtept><rtept lat="38.461592" lon="-106.068844"><ele>3124.2</ele><time>2026-04-10T15:06:55Z</time></rtept><rtept lat="38.461293" lon="-106.068858"><ele>3122.0</ele><time>2026-04-10T15:06:55Z</time></rtept><rtept lat="38.461163" lon="-106.068999"><ele>3119.6</ele><time>2026-04-10T15:06:55Z</time></rtept><rtept lat="38.460944" lon="-106.069747"><ele>3115.0</ele><time>2026-04-10T15:06:55Z</time></rtept><rtept lat="38.460692" lon="-106.070207"><ele>3115.6</ele><time>2026-04-10T15:06:55Z</time></rtept><rtept lat="38.460174" lon="-106.071498"><ele>3112.4</ele><time>2026-04-10T15:06:55Z</time></rtept><rtept lat="38.459936" lon="-106.07177"><ele>3112.0</ele><time>2026-04-10T15:06:55Z</time></rtept><rtept lat="38.459642" lon="-106.071794"><ele>3112.2</ele><time>2026-04-10T15:06:55Z</time></rtept><rtept lat="38.459407" lon="-106.071925"><ele>3110.8</ele><time>2026-04-10T15:06:55Z</time></rtept><rtept lat="38.459264" lon="-106.071952"><ele>3111.0</ele><time>2026-04-10T15:06:55Z</time></rtept><rtept lat="38.459147" lon="-106.071875"><ele>3112.2</ele><time>2026-04-10T15:06:55Z</time></rtept><rtept lat="38.458338" lon="-106.071818"><ele>3110.8</ele><time>2026-04-10T15:06:55Z</time></rtept><rtept lat="38.458113" lon="-106.071754"><ele>3109.6</ele><time>2026-04-10T15:06:55Z</time></rtept><rtept lat="38.457873" lon="-106.071646"><ele>3107.2</ele><time>2026-04-10T15:06:55Z</time></rtept><rtept lat="38.45737" lon="-106.0717"><ele>3100.4</ele><time>2026-04-10T15:06:55Z</time></rtept><rtept lat="38.457117" lon="-106.071839"><ele>3094.8</ele><time>2026-04-10T15:06:55Z</time></rtept><rtept lat="38.456861" lon="-106.07199"><ele>3089.0</ele><time>2026-04-10T15:06:55Z</time></rtept><rtept lat="38.456726" lon="-106.071928"><ele>3088.0</ele><time>2026-04-10T15:06:55Z</time></rtept><rtept lat="38.456503" lon="-106.071903"><ele>3085.4</ele><time>2026-04-10T15:06:55Z</time></rtept><rtept lat="38.455958" lon="-106.072687"><ele>3071.6</ele><time>2026-04-10T15:06:55Z</time></rtept><rtept lat="38.45566" lon="-106.072971"><ele>3074.8</ele><time>2026-04-10T15:06:55Z</time></rtept><rtept lat="38.455477" lon="-106.073376"><ele>3073.2</ele><time>2026-04-10T15:06:55Z</time></rtept><rtept lat="38.455093" lon="-106.073695"><ele>3075.2</ele><time>2026-04-10T15:06:55Z</time></rtept><rtept lat="38.454782" lon="-106.074141"><ele>3073.0</ele><time>2026-04-10T15:06:55Z</time></rtept><rtept lat="38.454415" lon="-106.074556"><ele>3071.4</ele><time>2026-04-10T15:06:55Z</time></rtept><rtept lat="38.454002" lon="-106.074924"><ele>3073.8</ele><time>2026-04-10T15:06:55Z</time></rtept><rtept lat="38.453787" lon="-106.075581"><ele>3068.2</ele><time>2026-04-10T15:06:55Z</time></rtept><rtept lat="38.453563" lon="-106.075965"><ele>3065.8</ele><time>2026-04-10T15:06:55Z</time></rtept><rtept lat="38.453326" lon="-106.076275"><ele>3063.8</ele><time>2026-04-10T15:06:55Z</time></rtept><rtept lat="38.453296" lon="-106.076896"><ele>3057.6</ele><time>2026-04-10T15:06:55Z</time></rtept><rtept lat="38.453261" lon="-106.077145"><ele>3053.0</ele><time>2026-04-10T15:06:55Z</time></rtept><rtept lat="38.453063" lon="-106.077322"><ele>3051.4</ele><time>2026-04-10T15:06:55Z</time></rtept><rtept lat="38.452874" lon="-106.077526"><ele>3048.6</ele><time>2026-04-10T15:06:55Z</time></rtept><rtept lat="38.452648" lon="-106.07765"><ele>3043.6</ele><time>2026-04-10T15:06:55Z</time></rtept><rtept lat="38.452309" lon="-106.078219"><ele>3027.8</ele><time>2026-04-10T15:06:55Z</time></rtept><rtept lat="38.452163" lon="-106.078619"><ele>3028.0</ele><time>2026-04-10T15:06:55Z</time></rtept><rtept lat="38.452102" lon="-106.078926"><ele>3030.0</ele><time>2026-04-10T15:06:55Z</time></rtept><rtept lat="38.452146" lon="-106.079265"><ele>3025.2</ele><time>2026-04-10T15:06:55Z</time></rtept><rtept lat="38.452136" lon="-106.079434"><ele>3024.8</ele><time>2026-04-10T15:06:55Z</time></rtept><rtept lat="38.45214" lon="-106.080143"><ele>3020.0</ele><time>2026-04-10T15:06:55Z</time></rtept><rtept lat="38.452217" lon="-106.080689"><ele>3014.8</ele><time>2026-04-10T15:06:55Z</time></rtept><rtept lat="38.452097" lon="-106.081213"><ele>3014.6</ele><time>2026-04-10T15:06:55Z</time></rtept><rtept lat="38.451883" lon="-106.081897"><ele>3011.0</ele><time>2026-04-10T15:06:55Z</time></rtept><rtept lat="38.451783" lon="-106.082234"><ele>3004.4</ele><time>2026-04-10T15:06:55Z</time></rtept><rtept lat="38.451705" lon="-106.082537"><ele>2997.8</ele><time>2026-04-10T15:06:55Z</time></rtept><rtept lat="38.451712" lon="-106.082708"><ele>2991.6</ele><time>2026-04-10T15:06:55Z</time></rtept><rtept lat="38.451746" lon="-106.082799"><ele>2989.6</ele><time>2026-04-10T15:06:55Z</time></rtept><rtept lat="38.452389" lon="-106.082611"><ele>2987.0</ele><time>2026-04-10T15:06:55Z</time></rtept><rtept lat="38.452843" lon="-106.082537"><ele>2982.0</ele><time>2026-04-10T15:06:55Z</time></rtept><rtept lat="38.453075" lon="-106.082469"><ele>2978.2</ele><time>2026-04-10T15:06:55Z</time></rtept><rtept lat="38.453238" lon="-106.08292"><ele>2970.4</ele><time>2026-04-10T15:06:55Z</time></rtept><rtept lat="38.453496" lon="-106.083041"><ele>2964.2</ele><time>2026-04-10T15:06:55Z</time></rtept><rtept lat="38.453765" lon="-106.083344"><ele>2961.4</ele><time>2026-04-10T15:06:55Z</time></rtept><rtept lat="38.453886" lon="-106.083755"><ele>2958.8</ele><time>2026-04-10T15:06:55Z</time></rtept><rtept lat="38.453765" lon="-106.084401"><ele>2952.0</ele><time>2026-04-10T15:06:55Z</time></rtept><rtept lat="38.453797" lon="-106.085148"><ele>2940.6</ele><time>2026-04-10T15:06:55Z</time></rtept><rtept lat="38.454039" lon="-106.085633"><ele>2927.8</ele><time>2026-04-10T15:06:55Z</time></rtept><rtept lat="38.454561" lon="-106.085936"><ele>2916.6</ele><time>2026-04-10T15:06:55Z</time></rtept><rtept lat="38.454972" lon="-106.086245"><ele>2907.2</ele><time>2026-04-10T15:06:55Z</time></rtept><rtept lat="38.455431" lon="-106.086548"><ele>2899.6</ele><time>2026-04-10T15:06:55Z</time></rtept><rtept lat="38.455854" lon="-106.086451"><ele>2898.2</ele><time>2026-04-10T15:06:55Z</time></rtept><rtept lat="38.456134" lon="-106.086205"><ele>2898.2</ele><time>2026-04-10T15:06:55Z</time></rtept><rtept lat="38.456311" lon="-106.085868"><ele>2891.4</ele><time>2026-04-10T15:06:55Z</time></rtept><rtept lat="38.456849" lon="-106.085417"><ele>2884.6</ele><time>2026-04-10T15:06:55Z</time></rtept><rtept lat="38.457349" lon="-106.085195"><ele>2882.0</ele><time>2026-04-10T15:06:55Z</time></rtept><rtept lat="38.457581" lon="-106.085229"><ele>2877.8</ele><time>2026-04-10T15:06:55Z</time></rtept><rtept lat="38.457966" lon="-106.085761"><ele>2858.6</ele><time>2026-04-10T15:06:55Z</time></rtept><rtept lat="38.458103" lon="-106.086265"><ele>2855.6</ele><time>2026-04-10T15:06:55Z</time></rtept><rtept lat="38.458377" lon="-106.086642"><ele>2836.8</ele><time>2026-04-10T15:06:55Z</time></rtept><rtept lat="38.458266" lon="-106.08747"><ele>2842.4</ele><time>2026-04-10T15:06:55Z</time></rtept><rtept lat="38.457871" lon="-106.087827"><ele>2838.0</ele><time>2026-04-10T15:06:55Z</time></rtept><rtept lat="38.457017" lon="-106.088022"><ele>2829.8</ele><time>2026-04-10T15:06:55Z</time></rtept><rtept lat="38.4562" lon="-106.088365"><ele>2816.0</ele><time>2026-04-10T15:06:55Z</time></rtept><rtept lat="38.455494" lon="-106.088978"><ele>2806.0</ele><time>2026-04-10T15:06:55Z</time></rtept><rtept lat="38.45516" lon="-106.089188"><ele>2799.4</ele><time>2026-04-10T15:06:55Z</time></rtept><rtept lat="38.454819" lon="-106.089274"><ele>2795.8</ele><time>2026-04-10T15:06:55Z</time></rtept><rtept lat="38.454624" lon="-106.0892"><ele>2797.4</ele><time>2026-04-10T15:06:55Z</time></rtept><rtept lat="38.454081" lon="-106.088803"><ele>2801.0</ele><time>2026-04-10T15:06:55Z</time></rtept><rtept lat="38.45356" lon="-106.088655"><ele>2798.4</ele><time>2026-04-10T15:06:55Z</time></rtept><rtept lat="38.453286" lon="-106.088609"><ele>2802.2</ele><time>2026-04-10T15:06:55Z</time></rtept><rtept lat="38.452984" lon="-106.088759"><ele>2798.6</ele><time>2026-04-10T15:06:55Z</time></rtept><rtept lat="38.452632" lon="-106.088621"><ele>2810.2</ele><time>2026-04-10T15:06:55Z</time></rtept><rtept lat="38.452404" lon="-106.088791"><ele>2810.6</ele><time>2026-04-10T15:06:55Z</time></rtept><rtept lat="38.452202" lon="-106.089124"><ele>2809.8</ele><time>2026-04-10T15:06:55Z</time></rtept><rtept lat="38.451931" lon="-106.089247"><ele>2810.2</ele><time>2026-04-10T15:06:55Z</time></rtept><rtept lat="38.451383" lon="-106.089685"><ele>2804.0</ele><time>2026-04-10T15:06:55Z</time></rtept><rtept lat="38.451288" lon="-106.089967"><ele>2804.8</ele><time>2026-04-10T15:06:55Z</time></rtept><rtept lat="38.451129" lon="-106.090572"><ele>2803.8</ele><time>2026-04-10T15:06:55Z</time></rtept><rtept lat="38.451087" lon="-106.091256"><ele>2795.6</ele><time>2026-04-10T15:06:55Z</time></rtept><rtept lat="38.450799" lon="-106.091588"><ele>2790.2</ele><time>2026-04-10T15:06:55Z</time></rtept><rtept lat="38.450569" lon="-106.09193"><ele>2780.8</ele><time>2026-04-10T15:06:55Z</time></rtept><rtept lat="38.4505" lon="-106.092201"><ele>2776.4</ele><time>2026-04-10T15:06:55Z</time></rtept><rtept lat="38.450204" lon="-106.092507"><ele>2775.4</ele><time>2026-04-10T15:06:55Z</time></rtept><rtept lat="38.450055" lon="-106.092857"><ele>2772.8</ele><time>2026-04-10T15:06:55Z</time></rtept><rtept lat="38.450076" lon="-106.093101"><ele>2770.6</ele><time>2026-04-10T15:06:55Z</time></rtept><rtept lat="38.450034" lon="-106.093306"><ele>2770.4</ele><time>2026-04-10T15:06:55Z</time></rtept><rtept lat="38.449829" lon="-106.093558"><ele>2774.6</ele><time>2026-04-10T15:06:55Z</time></rtept><rtept lat="38.449794" lon="-106.093993"><ele>2774.0</ele><time>2026-04-10T15:06:55Z</time></rtept><rtept lat="38.449808" lon="-106.094391"><ele>2772.4</ele><time>2026-04-10T15:06:55Z</time></rtept><rtept lat="38.449826" lon="-106.09492"><ele>2772.0</ele><time>2026-04-10T15:06:55Z</time></rtept><rtept lat="38.449758" lon="-106.095379"><ele>2772.2</ele><time>2026-04-10T15:06:55Z</time></rtept><rtept lat="38.449568" lon="-106.095691"><ele>2775.8</ele><time>2026-04-10T15:06:55Z</time></rtept><rtept lat="38.449079" lon="-106.096185"><ele>2777.4</ele><time>2026-04-10T15:06:55Z</time></rtept><rtept lat="38.448652" lon="-106.096185"><ele>2770.6</ele><time>2026-04-10T15:06:55Z</time></rtept><rtept lat="38.447937" lon="-106.096258"><ele>2756.8</ele><time>2026-04-10T15:06:55Z</time></rtept><rtept lat="38.447468" lon="-106.09632"><ele>2750.0</ele><time>2026-04-10T15:06:55Z</time></rtept><rtept lat="38.446833" lon="-106.096159"><ele>2742.4</ele><time>2026-04-10T15:06:55Z</time></rtept><rtept lat="38.446426" lon="-106.096098"><ele>2738.0</ele><time>2026-04-10T15:06:55Z</time></rtept><rtept lat="38.446093" lon="-106.096133"><ele>2731.0</ele><time>2026-04-10T15:06:55Z</time></rtept><rtept lat="38.445774" lon="-106.095856"><ele>2730.6</ele><time>2026-04-10T15:06:55Z</time></rtept><rtept lat="38.445657" lon="-106.095806"><ele>2732.0</ele><time>2026-04-10T15:06:55Z</time></rtept><rtept lat="38.445657" lon="-106.095806"><ele>2732.0</ele><time>2026-04-10T15:06:55Z</time></rtept><rtept lat="38.44555" lon="-106.09576"><ele>2729.2</ele><time>2026-04-10T15:06:55Z</time></rtept><rtept lat="38.445639" lon="-106.096003"><ele>2720.6</ele><time>2026-04-10T15:06:55Z</time></rtept><rtept lat="38.445971" lon="-106.096393"><ele>2720.0</ele><time>2026-04-10T15:06:55Z</time></rtept><rtept lat="38.445964" lon="-106.096722"><ele>2710.8</ele><time>2026-04-10T15:06:55Z</time></rtept><rtept lat="38.446161" lon="-106.09732"><ele>2707.6</ele><time>2026-04-10T15:06:55Z</time></rtept><rtept lat="38.44646" lon="-106.097519"><ele>2709.8</ele><time>2026-04-10T15:06:55Z</time></rtept><rtept lat="38.446694" lon="-106.097663"><ele>2707.4</ele><time>2026-04-10T15:06:55Z</time></rtept><rtept lat="38.446741" lon="-106.097847"><ele>2704.4</ele><time>2026-04-10T15:06:55Z</time></rtept><rtept lat="38.446672" lon="-106.097996"><ele>2699.4</ele><time>2026-04-10T15:06:55Z</time></rtept><rtept lat="38.446516" lon="-106.098046"><ele>2698.6</ele><time>2026-04-10T15:06:55Z</time></rtept><rtept lat="38.446322" lon="-106.097957"><ele>2700.0</ele><time>2026-04-10T15:06:55Z</time></rtept><rtept lat="38.446183" lon="-106.098053"><ele>2698.4</ele><time>2026-04-10T15:06:55Z</time></rtept><rtept lat="38.446038" lon="-106.09811"><ele>2695.8</ele><time>2026-04-10T15:06:55Z</time></rtept><rtept lat="38.445932" lon="-106.098124"><ele>2694.0</ele><time>2026-04-10T15:06:55Z</time></rtept><rtept lat="38.445813" lon="-106.098074"><ele>2689.2</ele><time>2026-04-10T15:06:55Z</time></rtept><rtept lat="38.445679" lon="-106.097986"><ele>2684.2</ele><time>2026-04-10T15:06:55Z</time></rtept><rtept lat="38.445646" lon="-106.098039"><ele>2682.6</ele><time>2026-04-10T15:06:55Z</time></rtept><rtept lat="38.445638" lon="-106.098309"><ele>2679.0</ele><time>2026-04-10T15:06:55Z</time></rtept><rtept lat="38.445554" lon="-106.098518"><ele>2672.0</ele><time>2026-04-10T15:06:55Z</time></rtept><rtept lat="38.445468" lon="-106.098987"><ele>2668.2</ele><time>2026-04-10T15:06:55Z</time></rtept><rtept lat="38.445538" lon="-106.099104"><ele>2667.8</ele><time>2026-04-10T15:06:55Z</time></rtept><rtept lat="38.445674" lon="-106.09909"><ele>2673.4</ele><time>2026-04-10T15:06:55Z</time></rtept><rtept lat="38.44565" lon="-106.099198"><ele>2668.0</ele><time>2026-04-10T15:06:55Z</time></rtept><rtept lat="38.445407" lon="-106.099619"><ele>2662.0</ele><time>2026-04-10T15:06:55Z</time></rtept><rtept lat="38.445237" lon="-106.09986"><ele>2654.0</ele><time>2026-04-10T15:06:55Z</time></rtept><rtept lat="38.445251" lon="-106.100133"><ele>2652.4</ele><time>2026-04-10T15:06:55Z</time></rtept><rtept lat="38.445351" lon="-106.100261"><ele>2654.6</ele><time>2026-04-10T15:06:55Z</time></rtept><rtept lat="38.445476" lon="-106.100431"><ele>2650.4</ele><time>2026-04-10T15:06:55Z</time></rtept><rtept lat="38.445574" lon="-106.100406"><ele>2650.6</ele><time>2026-04-10T15:06:55Z</time></rtept><rtept lat="38.445646" lon="-106.100459"><ele>2651.6</ele><time>2026-04-10T15:06:55Z</time></rtept><rtept lat="38.445626" lon="-106.100562"><ele>2647.8</ele><time>2026-04-10T15:06:55Z</time></rtept><rtept lat="38.445554" lon="-106.10076"><ele>2647.2</ele><time>2026-04-10T15:06:55Z</time></rtept><rtept lat="38.445368" lon="-106.100906"><ele>2638.8</ele><time>2026-04-10T15:06:55Z</time></rtept><rtept lat="38.445268" lon="-106.101165"><ele>2634.8</ele><time>2026-04-10T15:06:55Z</time></rtept><rtept lat="38.445218" lon="-106.101314"><ele>2632.4</ele><time>2026-04-10T15:06:55Z</time></rtept><rtept lat="38.445307" lon="-106.10147"><ele>2634.8</ele><time>2026-04-10T15:06:55Z</time></rtept><rtept lat="38.445234" lon="-106.101754"><ele>2628.8</ele><time>2026-04-10T15:06:55Z</time></rtept><rtept lat="38.445246" lon="-106.102134"><ele>2627.8</ele><time>2026-04-10T15:06:55Z</time></rtept><rtept lat="38.44512" lon="-106.102865"><ele>2622.0</ele><time>2026-04-10T15:06:55Z</time></rtept><rtept lat="38.445043" lon="-106.103337"><ele>2610.2</ele><time>2026-04-10T15:06:55Z</time></rtept><rtept lat="38.445162" lon="-106.103781"><ele>2607.0</ele><time>2026-04-10T15:06:55Z</time></rtept><rtept lat="38.445315" lon="-106.103969"><ele>2607.2</ele><time>2026-04-10T15:06:55Z</time></rtept><rtept lat="38.44537" lon="-106.104146"><ele>2605.0</ele><time>2026-04-10T15:06:55Z</time></rtept><rtept lat="38.445259" lon="-106.104168"><ele>2601.8</ele><time>2026-04-10T15:06:55Z</time></rtept><rtept lat="38.445081" lon="-106.104051"><ele>2600.8</ele><time>2026-04-10T15:06:55Z</time></rtept><rtept lat="38.444929" lon="-106.103937"><ele>2599.4</ele><time>2026-04-10T15:06:55Z</time></rtept><rtept lat="38.44482" lon="-106.10377"><ele>2599.6</ele><time>2026-04-10T15:06:55Z</time></rtept><rtept lat="38.444756" lon="-106.103767"><ele>2599.2</ele><time>2026-04-10T15:06:55Z</time></rtept><rtept lat="38.444781" lon="-106.103919"><ele>2597.8</ele><time>2026-04-10T15:06:55Z</time></rtept><rtept lat="38.444791" lon="-106.104234"><ele>2596.0</ele><time>2026-04-10T15:06:55Z</time></rtept><rtept lat="38.44477" lon="-106.104501"><ele>2594.8</ele><time>2026-04-10T15:06:55Z</time></rtept><rtept lat="38.444673" lon="-106.104746"><ele>2594.4</ele><time>2026-04-10T15:06:55Z</time></rtept><rtept lat="38.444581" lon="-106.104871"><ele>2594.0</ele><time>2026-04-10T15:06:55Z</time></rtept><rtept lat="38.444585" lon="-106.105023"><ele>2591.4</ele><time>2026-04-10T15:06:55Z</time></rtept><rtept lat="38.444824" lon="-106.105022"><ele>2590.0</ele><time>2026-04-10T15:06:55Z</time></rtept><rtept lat="38.445056" lon="-106.10504"><ele>2588.6</ele><time>2026-04-10T15:06:55Z</time></rtept><rtept lat="38.445029" lon="-106.105137"><ele>2588.0</ele><time>2026-04-10T15:06:55Z</time></rtept><rtept lat="38.445023" lon="-106.105143"><ele>2588.0</ele><time>2026-04-10T15:06:55Z</time></rtept><rtept lat="38.445038" lon="-106.105234"><ele>2587.2</ele><time>2026-04-10T15:06:55Z</time></rtept><rtept lat="38.445046" lon="-106.105262"><ele>2587.2</ele><time>2026-04-10T15:06:55Z</time></rtept><rtept lat="38.445072" lon="-106.105315"><ele>2586.2</ele><time>2026-04-10T15:06:55Z</time></rtept><rtept lat="38.445126" lon="-106.105426"><ele>2586.0</ele><time>2026-04-10T15:06:55Z</time></rtept><rtept lat="38.445078" lon="-106.105529"><ele>2594.4</ele><time>2026-04-10T15:06:55Z</time></rtept><rtept lat="38.445006" lon="-106.105562"><ele>2595.6</ele><time>2026-04-10T15:06:55Z</time></rtept><rtept lat="38.444918" lon="-106.105581"><ele>2597.0</ele><time>2026-04-10T15:06:55Z</time></rtept><rtept lat="38.444873" lon="-106.105579"><ele>2598.6</ele><time>2026-04-10T15:06:55Z</time></rtept><rtept lat="38.44478" lon="-106.105601"><ele>2601.0</ele><time>2026-04-10T15:06:55Z</time></rtept><rtept lat="38.44445" lon="-106.105699"><ele>2607.4</ele><time>2026-04-10T15:06:55Z</time></rtept><rtept lat="38.444338" lon="-106.105783"><ele>2612.6</ele><time>2026-04-10T15:06:55Z</time></rtept><rtept lat="38.444197" lon="-106.105803"><ele>2615.8</ele><time>2026-04-10T15:06:55Z</time></rtept><rtept lat="38.444136" lon="-106.105809"><ele>2615.8</ele><time>2026-04-10T15:06:55Z</time></rtept><rtept lat="38.444107" lon="-106.105794"><ele>2615.6</ele><time>2026-04-10T15:06:55Z</time></rtept><rtept lat="38.444042" lon="-106.105761"><ele>2611.8</ele><time>2026-04-10T15:06:55Z</time></rtept><rtept lat="38.443865" lon="-106.105676"><ele>2605.6</ele><time>2026-04-10T15:06:55Z</time></rtept><rtept lat="38.443719" lon="-106.10582"><ele>2613.0</ele><time>2026-04-10T15:06:55Z</time></rtept><rtept lat="38.443625" lon="-106.105941"><ele>2614.2</ele><time>2026-04-10T15:06:55Z</time></rtept><rtept lat="38.443564" lon="-106.105982"><ele>2616.2</ele><time>2026-04-10T15:06:55Z</time></rtept><rtept lat="38.443359" lon="-106.106015"><ele>2613.8</ele><time>2026-04-10T15:06:55Z</time></rtept><rtept lat="38.443222" lon="-106.106175"><ele>2618.8</ele><time>2026-04-10T15:06:55Z</time></rtept><rtept lat="38.443116" lon="-106.106216"><ele>2621.8</ele><time>2026-04-10T15:06:55Z</time></rtept><rtept lat="38.442915" lon="-106.106162"><ele>2619.6</ele><time>2026-04-10T15:06:55Z</time></rtept><rtept lat="38.442443" lon="-106.106013"><ele>2619.8</ele><time>2026-04-10T15:06:55Z</time></rtept><rtept lat="38.442056" lon="-106.105732"><ele>2626.0</ele><time>2026-04-10T15:06:55Z</time></rtept><rtept lat="38.441575" lon="-106.105445"><ele>2629.2</ele><time>2026-04-10T15:06:55Z</time></rtept><rtept lat="38.441043" lon="-106.105182"><ele>2623.0</ele><time>2026-04-10T15:06:55Z</time></rtept><rtept lat="38.44049" lon="-106.105025"><ele>2624.6</ele><time>2026-04-10T15:06:55Z</time></rtept><rtept lat="38.440299" lon="-106.104796"><ele>2622.2</ele><time>2026-04-10T15:06:55Z</time></rtept><rtept lat="38.440212" lon="-106.104785"><ele>2624.8</ele><time>2026-04-10T15:06:55Z</time></rtept><rtept lat="38.439749" lon="-106.104424"><ele>2628.8</ele><time>2026-04-10T15:06:55Z</time></rtept><rtept lat="38.43963" lon="-106.104224"><ele>2625.4</ele><time>2026-04-10T15:06:55Z</time></rtept><rtept lat="38.439527" lon="-106.104109"><ele>2627.0</ele><time>2026-04-10T15:06:55Z</time></rtept><rtept lat="38.439369" lon="-106.10398"><ele>2625.8</ele><time>2026-04-10T15:06:55Z</time></rtept><rtept lat="38.439111" lon="-106.103873"><ele>2628.2</ele><time>2026-04-10T15:06:55Z</time></rtept><rtept lat="38.438863" lon="-106.103776"><ele>2633.8</ele><time>2026-04-10T15:06:55Z</time></rtept><rtept lat="38.438678" lon="-106.103715"><ele>2633.4</ele><time>2026-04-10T15:06:55Z</time></rtept><rtept lat="38.438378" lon="-106.103632"><ele>2637.6</ele><time>2026-04-10T15:06:55Z</time></rtept><rtept lat="38.438086" lon="-106.103527"><ele>2638.4</ele><time>2026-04-10T15:06:55Z</time></rtept><rtept lat="38.437794" lon="-106.103398"><ele>2638.8</ele><time>2026-04-10T15:06:55Z</time></rtept><rtept lat="38.437508" lon="-106.103326"><ele>2639.4</ele><time>2026-04-10T15:06:55Z</time></rtept><rtept lat="38.437407" lon="-106.10331"><ele>2640.4</ele><time>2026-04-10T15:06:55Z</time></rtept><rtept lat="38.4373" lon="-106.103253"><ele>2640.4</ele><time>2026-04-10T15:06:55Z</time></rtept><rtept lat="38.437035" lon="-106.103181"><ele>2642.6</ele><time>2026-04-10T15:06:55Z</time></rtept><rtept lat="38.436854" lon="-106.103084"><ele>2643.0</ele><time>2026-04-10T15:06:55Z</time></rtept><rtept lat="38.436745" lon="-106.102985"><ele>2644.2</ele><time>2026-04-10T15:06:55Z</time></rtept><rtept lat="38.436531" lon="-106.102776"><ele>2643.8</ele><time>2026-04-10T15:06:55Z</time></rtept><rtept lat="38.436335" lon="-106.102575"><ele>2648.8</ele><time>2026-04-10T15:06:55Z</time></rtept><rtept lat="38.43617" lon="-106.102419"><ele>2649.8</ele><time>2026-04-10T15:06:55Z</time></rtept><rtept lat="38.435949" lon="-106.102223"><ele>2649.8</ele><time>2026-04-10T15:06:55Z</time></rtept><rtept lat="38.435812" lon="-106.102132"><ele>2649.4</ele><time>2026-04-10T15:06:55Z</time></rtept><rtept lat="38.435672" lon="-106.102054"><ele>2647.6</ele><time>2026-04-10T15:06:55Z</time></rtept><rtept lat="38.435514" lon="-106.10203"><ele>2648.0</ele><time>2026-04-10T15:06:55Z</time></rtept><rtept lat="38.435335" lon="-106.102079"><ele>2647.2</ele><time>2026-04-10T15:06:55Z</time></rtept><rtept lat="38.435165" lon="-106.10217"><ele>2648.4</ele><time>2026-04-10T15:06:55Z</time></rtept><rtept lat="38.434819" lon="-106.102368"><ele>2651.4</ele><time>2026-04-10T15:06:55Z</time></rtept><rtept lat="38.434611" lon="-106.102508"><ele>2652.6</ele><time>2026-04-10T15:06:55Z</time></rtept><rtept lat="38.434459" lon="-106.102569"><ele>2654.6</ele><time>2026-04-10T15:06:55Z</time></rtept><rtept lat="38.434146" lon="-106.102615"><ele>2658.4</ele><time>2026-04-10T15:06:55Z</time></rtept><rtept lat="38.433995" lon="-106.102596"><ele>2659.2</ele><time>2026-04-10T15:06:55Z</time></rtept><rtept lat="38.433814" lon="-106.102545"><ele>2661.2</ele><time>2026-04-10T15:06:55Z</time></rtept><rtept lat="38.433564" lon="-106.102451"><ele>2661.8</ele><time>2026-04-10T15:06:55Z</time></rtept><rtept lat="38.433249" lon="-106.102309"><ele>2661.0</ele><time>2026-04-10T15:06:55Z</time></rtept><rtept lat="38.433014" lon="-106.102194"><ele>2663.0</ele><time>2026-04-10T15:06:55Z</time></rtept><rtept lat="38.432669" lon="-106.102049"><ele>2663.0</ele><time>2026-04-10T15:06:55Z</time></rtept><rtept lat="38.432482" lon="-106.102009"><ele>2663.2</ele><time>2026-04-10T15:06:55Z</time></rtept><rtept lat="38.432306" lon="-106.102033"><ele>2662.8</ele><time>2026-04-10T15:06:55Z</time></rtept><rtept lat="38.432177" lon="-106.102084"><ele>2662.0</ele><time>2026-04-10T15:06:55Z</time></rtept><rtept lat="38.432005" lon="-106.10224"><ele>2664.2</ele><time>2026-04-10T15:06:55Z</time></rtept><rtept lat="38.431673" lon="-106.102599"><ele>2667.2</ele><time>2026-04-10T15:06:55Z</time></rtept><rtept lat="38.431266" lon="-106.103007"><ele>2668.2</ele><time>2026-04-10T15:06:55Z</time></rtept><rtept lat="38.430497" lon="-106.103811"><ele>2675.2</ele><time>2026-04-10T15:06:55Z</time></rtept><rtept lat="38.429967" lon="-106.104369"><ele>2676.2</ele><time>2026-04-10T15:06:55Z</time></rtept><rtept lat="38.42958" lon="-106.104686"><ele>2679.0</ele><time>2026-04-10T15:06:55Z</time></rtept><rtept lat="38.429102" lon="-106.104975"><ele>2680.2</ele><time>2026-04-10T15:06:55Z</time></rtept><rtept lat="38.428362" lon="-106.105405"><ele>2686.2</ele><time>2026-04-10T15:06:55Z</time></rtept><rtept lat="38.428268" lon="-106.105481"><ele>2687.2</ele><time>2026-04-10T15:06:55Z</time></rtept><rtept lat="38.428271" lon="-106.10548"><ele>2687.2</ele><time>2026-04-10T15:06:55Z</time></rtept><rtept lat="38.42844" lon="-106.105464"><ele>2688.8</ele><time>2026-04-10T15:06:55Z</time></rtept><rtept lat="38.428761" lon="-106.10545"><ele>2692.0</ele><time>2026-04-10T15:06:55Z</time></rtept><rtept lat="38.429053" lon="-106.105498"><ele>2692.6</ele><time>2026-04-10T15:06:55Z</time></rtept><rtept lat="38.42933" lon="-106.105565"><ele>2696.8</ele><time>2026-04-10T15:06:55Z</time></rtept><rtept lat="38.429513" lon="-106.105659"><ele>2702.0</ele><time>2026-04-10T15:06:55Z</time></rtept><rtept lat="38.429639" lon="-106.105697"><ele>2703.4</ele><time>2026-04-10T15:06:55Z</time></rtept><rtept lat="38.429717" lon="-106.105678"><ele>2704.0</ele><time>2026-04-10T15:06:55Z</time></rtept><rtept lat="38.429807" lon="-106.105547"><ele>2701.6</ele><time>2026-04-10T15:06:55Z</time></rtept><rtept lat="38.429866" lon="-106.105512"><ele>2699.2</ele><time>2026-04-10T15:06:55Z</time></rtept><rtept lat="38.429955" lon="-106.105555"><ele>2702.8</ele><time>2026-04-10T15:06:55Z</time></rtept><rtept lat="38.430032" lon="-106.105619"><ele>2706.2</ele><time>2026-04-10T15:06:55Z</time></rtept><rtept lat="38.430184" lon="-106.105697"><ele>2706.8</ele><time>2026-04-10T15:06:55Z</time></rtept><rtept lat="38.430377" lon="-106.105772"><ele>2710.6</ele><time>2026-04-10T15:06:55Z</time></rtept><rtept lat="38.4306" lon="-106.105952"><ele>2718.2</ele><time>2026-04-10T15:06:55Z</time></rtept><rtept lat="38.430919" lon="-106.106233"><ele>2727.6</ele><time>2026-04-10T15:06:55Z</time></rtept><rtept lat="38.431278" lon="-106.106528"><ele>2733.0</ele><time>2026-04-10T15:06:55Z</time></rtept><rtept lat="38.431444" lon="-106.106654"><ele>2734.8</ele><time>2026-04-10T15:06:55Z</time></rtept><rtept lat="38.431506" lon="-106.106684"><ele>2734.8</ele><time>2026-04-10T15:06:55Z</time></rtept><rtept lat="38.431719" lon="-106.10677"><ele>2735.2</ele><time>2026-04-10T15:06:55Z</time></rtept><rtept lat="38.432175" lon="-106.107094"><ele>2728.6</ele><time>2026-04-10T15:06:55Z</time></rtept><rtept lat="38.432491" lon="-106.107323"><ele>2720.8</ele><time>2026-04-10T15:06:55Z</time></rtept><rtept lat="38.432491" lon="-106.107323"><ele>2720.8</ele><time>2026-04-10T15:06:55Z</time></rtept><rtept lat="38.432439" lon="-106.107433"><ele>2723.4</ele><time>2026-04-10T15:06:55Z</time></rtept><rtept lat="38.432196" lon="-106.108015"><ele>2722.8</ele><time>2026-04-10T15:06:55Z</time></rtept><rtept lat="38.432149" lon="-106.108127"><ele>2720.8</ele><time>2026-04-10T15:06:55Z</time></rtept><rtept lat="38.431868" lon="-106.108536"><ele>2719.6</ele><time>2026-04-10T15:06:55Z</time></rtept><rtept lat="38.431658" lon="-106.108863"><ele>2718.2</ele><time>2026-04-10T15:06:55Z</time></rtept><rtept lat="38.431496" lon="-106.109163"><ele>2714.0</ele><time>2026-04-10T15:06:55Z</time></rtept><rtept lat="38.431189" lon="-106.109585"><ele>2711.4</ele><time>2026-04-10T15:06:55Z</time></rtept><rtept lat="38.431052" lon="-106.109668"><ele>2711.6</ele><time>2026-04-10T15:06:55Z</time></rtept><rtept lat="38.430866" lon="-106.109767"><ele>2713.2</ele><time>2026-04-10T15:06:55Z</time></rtept><rtept lat="38.430784" lon="-106.109843"><ele>2713.8</ele><time>2026-04-10T15:06:55Z</time></rtept><rtept lat="38.430706" lon="-106.109932"><ele>2714.4</ele><time>2026-04-10T15:06:55Z</time></rtept><rtept lat="38.430642" lon="-106.110027"><ele>2714.8</ele><time>2026-04-10T15:06:55Z</time></rtept><rtept lat="38.430619" lon="-106.110066"><ele>2714.8</ele><time>2026-04-10T15:06:55Z</time></rtept><rtept lat="38.430421" lon="-106.110363"><ele>2716.2</ele><time>2026-04-10T15:06:55Z</time></rtept><rtept lat="38.430307" lon="-106.110585"><ele>2717.4</ele><time>2026-04-10T15:06:55Z</time></rtept><rtept lat="38.430285" lon="-106.110671"><ele>2717.8</ele><time>2026-04-10T15:06:55Z</time></rtept><rtept lat="38.430285" lon="-106.110671"><ele>2717.8</ele><time>2026-04-10T15:06:55Z</time></rtept><rtept lat="38.43026" lon="-106.110769"><ele>2718.0</ele><time>2026-04-10T15:06:55Z</time></rtept><rtept lat="38.430203" lon="-106.111146"><ele>2718.2</ele><time>2026-04-10T15:06:55Z</time></rtept><rtept lat="38.430083" lon="-106.111509"><ele>2719.6</ele><time>2026-04-10T15:06:55Z</time></rtept><rtept lat="38.430061" lon="-106.1117"><ele>2720.4</ele><time>2026-04-10T15:06:55Z</time></rtept><rtept lat="38.429859" lon="-106.112473"><ele>2725.4</ele><time>2026-04-10T15:06:55Z</time></rtept><rtept lat="38.429753" lon="-106.112834"><ele>2728.8</ele><time>2026-04-10T15:06:55Z</time></rtept><rtept lat="38.429738" lon="-106.113136"><ele>2730.2</ele><time>2026-04-10T15:06:55Z</time></rtept><rtept lat="38.429801" lon="-106.113443"><ele>2730.8</ele><time>2026-04-10T15:06:55Z</time></rtept><rtept lat="38.429824" lon="-106.113646"><ele>2731.2</ele><time>2026-04-10T15:06:55Z</time></rtept><rtept lat="38.429815" lon="-106.113819"><ele>2732.0</ele><time>2026-04-10T15:06:55Z</time></rtept><rtept lat="38.429797" lon="-106.113855"><ele>2732.6</ele><time>2026-04-10T15:06:55Z</time></rtept><rtept lat="38.429745" lon="-106.113959"><ele>2734.4</ele><time>2026-04-10T15:06:55Z</time></rtept><rtept lat="38.42971" lon="-106.114175"><ele>2737.6</ele><time>2026-04-10T15:06:55Z</time></rtept><rtept lat="38.429742" lon="-106.114313"><ele>2738.2</ele><time>2026-04-10T15:06:55Z</time></rtept><rtept lat="38.429852" lon="-106.114596"><ele>2740.6</ele><time>2026-04-10T15:06:55Z</time></rtept><rtept lat="38.429961" lon="-106.114872"><ele>2742.0</ele><time>2026-04-10T15:06:55Z</time></rtept><rtept lat="38.430025" lon="-106.115068"><ele>2744.8</ele><time>2026-04-10T15:06:55Z</time></rtept><rtept lat="38.430071" lon="-106.115225"><ele>2744.4</ele><time>2026-04-10T15:06:55Z</time></rtept><rtept lat="38.430122" lon="-106.115409"><ele>2748.4</ele><time>2026-04-10T15:06:55Z</time></rtept><rtept lat="38.430159" lon="-106.115588"><ele>2749.2</ele><time>2026-04-10T15:06:55Z</time></rtept><rtept lat="38.430166" lon="-106.115652"><ele>2749.2</ele><time>2026-04-10T15:06:55Z</time></rtept><rtept lat="38.430177" lon="-106.115797"><ele>2751.8</ele><time>2026-04-10T15:06:55Z</time></rtept><rtept lat="38.430184" lon="-106.116096"><ele>2756.0</ele><time>2026-04-10T15:06:55Z</time></rtept><rtept lat="38.430197" lon="-106.116275"><ele>2756.0</ele><time>2026-04-10T15:06:55Z</time></rtept><rtept lat="38.430227" lon="-106.116768"><ele>2761.8</ele><time>2026-04-10T15:06:55Z</time></rtept><rtept lat="38.430235" lon="-106.116972"><ele>2765.6</ele><time>2026-04-10T15:06:55Z</time></rtept><rtept lat="38.430219" lon="-106.117072"><ele>2767.0</ele><time>2026-04-10T15:06:55Z</time></rtept><rtept lat="38.430202" lon="-106.11756"><ele>2772.2</ele><time>2026-04-10T15:06:55Z</time></rtept><rtept lat="38.430186" lon="-106.117638"><ele>2775.6</ele><time>2026-04-10T15:06:55Z</time></rtept><rtept lat="38.430154" lon="-106.118016"><ele>2777.2</ele><time>2026-04-10T15:06:55Z</time></rtept><rtept lat="38.430112" lon="-106.118339"><ele>2780.8</ele><time>2026-04-10T15:06:55Z</time></rtept><rtept lat="38.430046" lon="-106.118609"><ele>2784.0</ele><time>2026-04-10T15:06:55Z</time></rtept><rtept lat="38.429857" lon="-106.119015"><ele>2789.4</ele><time>2026-04-10T15:06:55Z</time></rtept><rtept lat="38.429761" lon="-106.119266"><ele>2789.0</ele><time>2026-04-10T15:06:55Z</time></rtept><rtept lat="38.429728" lon="-106.119358"><ele>2788.2</ele><time>2026-04-10T15:06:55Z</time></rtept><rtept lat="38.429706" lon="-106.119451"><ele>2789.0</ele><time>2026-04-10T15:06:55Z</time></rtept><rtept lat="38.42963" lon="-106.119553"><ele>2789.8</ele><time>2026-04-10T15:06:55Z</time></rtept><rtept lat="38.429523" lon="-106.119609"><ele>2790.6</ele><time>2026-04-10T15:06:55Z</time></rtept><rtept lat="38.429428" lon="-106.11978"><ele>2792.2</ele><time>2026-04-10T15:06:55Z</time></rtept><rtept lat="38.429353" lon="-106.119845"><ele>2793.6</ele><time>2026-04-10T15:06:55Z</time></rtept><rtept lat="38.429142" lon="-106.119869"><ele>2795.6</ele><time>2026-04-10T15:06:55Z</time></rtept><rtept lat="38.428984" lon="-106.119876"><ele>2797.0</ele><time>2026-04-10T15:06:55Z</time></rtept><rtept lat="38.428435" lon="-106.119908"><ele>2805.8</ele><time>2026-04-10T15:06:55Z</time></rtept><rtept lat="38.427672" lon="-106.120034"><ele>2803.4</ele><time>2026-04-10T15:06:55Z</time></rtept><rtept lat="38.427427" lon="-106.120051"><ele>2803.2</ele><time>2026-04-10T15:06:55Z</time></rtept><rtept lat="38.426872" lon="-106.119945"><ele>2804.8</ele><time>2026-04-10T15:06:55Z</time></rtept><rtept lat="38.426704" lon="-106.119859"><ele>2805.6</ele><time>2026-04-10T15:06:55Z</time></rtept><rtept lat="38.426445" lon="-106.119591"><ele>2807.8</ele><time>2026-04-10T15:06:55Z</time></rtept><rtept lat="38.426233" lon="-106.1194"><ele>2807.6</ele><time>2026-04-10T15:06:55Z</time></rtept><rtept lat="38.42604" lon="-106.119309"><ele>2805.4</ele><time>2026-04-10T15:06:55Z</time></rtept><rtept lat="38.425881" lon="-106.119248"><ele>2806.0</ele><time>2026-04-10T15:06:55Z</time></rtept><rtept lat="38.425556" lon="-106.1193"><ele>2807.4</ele><time>2026-04-10T15:06:55Z</time></rtept><rtept lat="38.425299" lon="-106.119328"><ele>2809.2</ele><time>2026-04-10T15:06:55Z</time></rtept><rtept lat="38.425188" lon="-106.119306"><ele>2808.4</ele><time>2026-04-10T15:06:55Z</time></rtept><rtept lat="38.424964" lon="-106.119201"><ele>2807.6</ele><time>2026-04-10T15:06:55Z</time></rtept><rtept lat="38.424825" lon="-106.119191"><ele>2806.4</ele><time>2026-04-10T15:06:55Z</time></rtept><rtept lat="38.4247" lon="-106.119162"><ele>2809.8</ele><time>2026-04-10T15:06:55Z</time></rtept><rtept lat="38.424564" lon="-106.119077"><ele>2813.4</ele><time>2026-04-10T15:06:55Z</time></rtept><rtept lat="38.424486" lon="-106.119022"><ele>2813.8</ele><time>2026-04-10T15:06:55Z</time></rtept><rtept lat="38.42438" lon="-106.118981"><ele>2815.6</ele><time>2026-04-10T15:06:55Z</time></rtept><rtept lat="38.424313" lon="-106.118989"><ele>2815.8</ele><time>2026-04-10T15:06:55Z</time></rtept><rtept lat="38.424266" lon="-106.118996"><ele>2816.8</ele><time>2026-04-10T15:06:55Z</time></rtept><rtept lat="38.4242" lon="-106.11903"><ele>2817.8</ele><time>2026-04-10T15:06:55Z</time></rtept><rtept lat="38.424068" lon="-106.119052"><ele>2821.2</ele><time>2026-04-10T15:06:55Z</time></rtept><rtept lat="38.423978" lon="-106.119088"><ele>2823.2</ele><time>2026-04-10T15:06:55Z</time></rtept><rtept lat="38.423877" lon="-106.119278"><ele>2827.6</ele><time>2026-04-10T15:06:55Z</time></rtept><rtept lat="38.423739" lon="-106.119453"><ele>2833.4</ele><time>2026-04-10T15:06:55Z</time></rtept><rtept lat="38.423581" lon="-106.119574"><ele>2836.0</ele><time>2026-04-10T15:06:55Z</time></rtept><rtept lat="38.423203" lon="-106.119874"><ele>2839.4</ele><time>2026-04-10T15:06:55Z</time></rtept><rtept lat="38.423078" lon="-106.119939"><ele>2840.6</ele><time>2026-04-10T15:06:55Z</time></rtept><rtept lat="38.422713" lon="-106.120114"><ele>2841.4</ele><time>2026-04-10T15:06:55Z</time></rtept><rtept lat="38.422412" lon="-106.120068"><ele>2842.0</ele><time>2026-04-10T15:06:55Z</time></rtept><rtept lat="38.422308" lon="-106.119998"><ele>2843.4</ele><time>2026-04-10T15:06:55Z</time></rtept><rtept lat="38.422214" lon="-106.119951"><ele>2843.4</ele><time>2026-04-10T15:06:55Z</time></rtept><rtept lat="38.422135" lon="-106.119914"><ele>2844.4</ele><time>2026-04-10T15:06:55Z</time></rtept><rtept lat="38.421962" lon="-106.119791"><ele>2844.6</ele><time>2026-04-10T15:06:55Z</time></rtept><rtept lat="38.421503" lon="-106.119586"><ele>2845.8</ele><time>2026-04-10T15:06:55Z</time></rtept><rtept lat="38.421318" lon="-106.119472"><ele>2845.0</ele><time>2026-04-10T15:06:55Z</time></rtept><rtept lat="38.421253" lon="-106.119331"><ele>2846.6</ele><time>2026-04-10T15:06:55Z</time></rtept><rtept lat="38.421148" lon="-106.119102"><ele>2845.6</ele><time>2026-04-10T15:06:55Z</time></rtept><rtept lat="38.421105" lon="-106.118968"><ele>2845.2</ele><time>2026-04-10T15:06:55Z</time></rtept><rtept lat="38.421071" lon="-106.11889"><ele>2845.6</ele><time>2026-04-10T15:06:55Z</time></rtept><rtept lat="38.421029" lon="-106.118752"><ele>2844.8</ele><time>2026-04-10T15:06:55Z</time></rtept><rtept lat="38.420852" lon="-106.118546"><ele>2843.4</ele><time>2026-04-10T15:06:55Z</time></rtept><rtept lat="38.420766" lon="-106.118511"><ele>2841.6</ele><time>2026-04-10T15:06:55Z</time></rtept><rtept lat="38.420677" lon="-106.118342"><ele>2842.2</ele><time>2026-04-10T15:06:55Z</time></rtept><rtept lat="38.420489" lon="-106.118107"><ele>2842.4</ele><time>2026-04-10T15:06:55Z</time></rtept><rtept lat="38.420301" lon="-106.117902"><ele>2839.8</ele><time>2026-04-10T15:06:55Z</time></rtept><rtept lat="38.42024" lon="-106.117805"><ele>2838.2</ele><time>2026-04-10T15:06:55Z</time></rtept><rtept lat="38.420145" lon="-106.117691"><ele>2836.2</ele><time>2026-04-10T15:06:55Z</time></rtept><rtept lat="38.420049" lon="-106.117613"><ele>2834.2</ele><time>2026-04-10T15:06:55Z</time></rtept><rtept lat="38.420015" lon="-106.117568"><ele>2832.4</ele><time>2026-04-10T15:06:55Z</time></rtept><rtept lat="38.419884" lon="-106.117322"><ele>2829.4</ele><time>2026-04-10T15:06:55Z</time></rtept><rtept lat="38.419857" lon="-106.117252"><ele>2829.2</ele><time>2026-04-10T15:06:55Z</time></rtept><rtept lat="38.419816" lon="-106.117194"><ele>2828.2</ele><time>2026-04-10T15:06:55Z</time></rtept><rtept lat="38.419767" lon="-106.117118"><ele>2827.2</ele><time>2026-04-10T15:06:55Z</time></rtept><rtept lat="38.419712" lon="-106.117085"><ele>2827.2</ele><time>2026-04-10T15:06:55Z</time></rtept><rtept lat="38.419617" lon="-106.116997"><ele>2825.2</ele><time>2026-04-10T15:06:55Z</time></rtept><rtept lat="38.419543" lon="-106.116906"><ele>2824.2</ele><time>2026-04-10T15:06:55Z</time></rtept><rtept lat="38.419489" lon="-106.116874"><ele>2823.2</ele><time>2026-04-10T15:06:55Z</time></rtept><rtept lat="38.419367" lon="-106.116856"><ele>2821.4</ele><time>2026-04-10T15:06:55Z</time></rtept><rtept lat="38.419214" lon="-106.11683"><ele>2819.6</ele><time>2026-04-10T15:06:55Z</time></rtept><rtept lat="38.419053" lon="-106.116791"><ele>2818.0</ele><time>2026-04-10T15:06:55Z</time></rtept><rtept lat="38.418919" lon="-106.116754"><ele>2816.6</ele><time>2026-04-10T15:06:55Z</time></rtept><rtept lat="38.418787" lon="-106.116705"><ele>2815.2</ele><time>2026-04-10T15:06:55Z</time></rtept><rtept lat="38.418528" lon="-106.116651"><ele>2812.6</ele><time>2026-04-10T15:06:55Z</time></rtept><rtept lat="38.418384" lon="-106.116629"><ele>2811.6</ele><time>2026-04-10T15:06:55Z</time></rtept><rtept lat="38.418249" lon="-106.116584"><ele>2811.2</ele><time>2026-04-10T15:06:55Z</time></rtept><rtept lat="38.418161" lon="-106.116566"><ele>2811.0</ele><time>2026-04-10T15:06:55Z</time></rtept><rtept lat="38.417811" lon="-106.11655"><ele>2812.0</ele><time>2026-04-10T15:06:55Z</time></rtept><rtept lat="38.417704" lon="-106.116571"><ele>2812.4</ele><time>2026-04-10T15:06:55Z</time></rtept><rtept lat="38.417498" lon="-106.116595"><ele>2814.4</ele><time>2026-04-10T15:06:55Z</time></rtept><rtept lat="38.417178" lon="-106.116746"><ele>2815.2</ele><time>2026-04-10T15:06:55Z</time></rtept><rtept lat="38.417058" lon="-106.11677"><ele>2815.6</ele><time>2026-04-10T15:06:55Z</time></rtept><rtept lat="38.416799" lon="-106.116712"><ele>2815.0</ele><time>2026-04-10T15:06:55Z</time></rtept><rtept lat="38.416418" lon="-106.116534"><ele>2814.6</ele><time>2026-04-10T15:06:55Z</time></rtept><rtept lat="38.416177" lon="-106.116394"><ele>2814.0</ele><time>2026-04-10T15:06:55Z</time></rtept><rtept lat="38.415833" lon="-106.116241"><ele>2813.6</ele><time>2026-04-10T15:06:55Z</time></rtept><rtept lat="38.415833" lon="-106.116241"><ele>2813.6</ele><time>2026-04-10T15:06:55Z</time></rtept><rtept lat="38.41581" lon="-106.116231"><ele>2813.6</ele><time>2026-04-10T15:06:55Z</time></rtept><rtept lat="38.415658" lon="-106.116151"><ele>2813.8</ele><time>2026-04-10T15:06:55Z</time></rtept><rtept lat="38.415506" lon="-106.116092"><ele>2813.4</ele><time>2026-04-10T15:06:55Z</time></rtept><rtept lat="38.415067" lon="-106.11604"><ele>2813.0</ele><time>2026-04-10T15:06:55Z</time></rtept><rtept lat="38.414887" lon="-106.116015"><ele>2812.4</ele><time>2026-04-10T15:06:55Z</time></rtept><rtept lat="38.414511" lon="-106.116022"><ele>2810.8</ele><time>2026-04-10T15:06:55Z</time></rtept><rtept lat="38.414272" lon="-106.115988"><ele>2810.8</ele><time>2026-04-10T15:06:55Z</time></rtept><rtept lat="38.41416" lon="-106.11594"><ele>2810.8</ele><time>2026-04-10T15:06:55Z</time></rtept><rtept lat="38.413998" lon="-106.115882"><ele>2811.4</ele><time>2026-04-10T15:06:55Z</time></rtept><rtept lat="38.413788" lon="-106.115778"><ele>2812.6</ele><time>2026-04-10T15:06:55Z</time></rtept><rtept lat="38.413675" lon="-106.115744"><ele>2813.2</ele><time>2026-04-10T15:06:55Z</time></rtept><rtept lat="38.413363" lon="-106.115759"><ele>2815.2</ele><time>2026-04-10T15:06:55Z</time></rtept><rtept lat="38.413254" lon="-106.115768"><ele>2815.6</ele><time>2026-04-10T15:06:55Z</time></rtept><rtept lat="38.412943" lon="-106.11575"><ele>2816.8</ele><time>2026-04-10T15:06:55Z</time></rtept><rtept lat="38.412516" lon="-106.115583"><ele>2817.0</ele><time>2026-04-10T15:06:55Z</time></rtept><rtept lat="38.412385" lon="-106.115504"><ele>2817.0</ele><time>2026-04-10T15:06:55Z</time></rtept><rtept lat="38.412213" lon="-106.115479"><ele>2817.0</ele><time>2026-04-10T15:06:55Z</time></rtept><rtept lat="38.411985" lon="-106.115334"><ele>2816.8</ele><time>2026-04-10T15:06:55Z</time></rtept><rtept lat="38.411854" lon="-106.115253"><ele>2816.8</ele><time>2026-04-10T15:06:55Z</time></rtept><rtept lat="38.411724" lon="-106.115138"><ele>2816.4</ele><time>2026-04-10T15:06:55Z</time></rtept><rtept lat="38.411676" lon="-106.115104"><ele>2816.4</ele><time>2026-04-10T15:06:55Z</time></rtept><rtept lat="38.411178" lon="-106.114979"><ele>2816.0</ele><time>2026-04-10T15:06:55Z</time></rtept><rtept lat="38.411069" lon="-106.114973"><ele>2816.0</ele><time>2026-04-10T15:06:55Z</time></rtept><rtept lat="38.410793" lon="-106.114946"><ele>2816.0</ele><time>2026-04-10T15:06:55Z</time></rtept><rtept lat="38.410573" lon="-106.11498"><ele>2816.2</ele><time>2026-04-10T15:06:55Z</time></rtept><rtept lat="38.410383" lon="-106.115013"><ele>2816.4</ele><time>2026-04-10T15:06:55Z</time></rtept><rtept lat="38.410254" lon="-106.115086"><ele>2816.6</ele><time>2026-04-10T15:06:55Z</time></rtept><rtept lat="38.410087" lon="-106.115124"><ele>2817.0</ele><time>2026-04-10T15:06:55Z</time></rtept><rtept lat="38.409697" lon="-106.115047"><ele>2818.0</ele><time>2026-04-10T15:06:55Z</time></rtept><rtept lat="38.409226" lon="-106.115246"><ele>2820.2</ele><time>2026-04-10T15:06:55Z</time></rtept><rtept lat="38.409034" lon="-106.115347"><ele>2821.0</ele><time>2026-04-10T15:06:55Z</time></rtept><rtept lat="38.408508" lon="-106.115592"><ele>2818.2</ele><time>2026-04-10T15:06:55Z</time></rtept><rtept lat="38.408274" lon="-106.115647"><ele>2818.8</ele><time>2026-04-10T15:06:55Z</time></rtept><rtept lat="38.408004" lon="-106.11582"><ele>2819.8</ele><time>2026-04-10T15:06:55Z</time></rtept><rtept lat="38.407938" lon="-106.115827"><ele>2820.8</ele><time>2026-04-10T15:06:55Z</time></rtept><rtept lat="38.407725" lon="-106.115888"><ele>2824.8</ele><time>2026-04-10T15:06:55Z</time></rtept><rtept lat="38.407544" lon="-106.115928"><ele>2826.6</ele><time>2026-04-10T15:06:55Z</time></rtept><rtept lat="38.407213" lon="-106.116028"><ele>2831.0</ele><time>2026-04-10T15:06:55Z</time></rtept><rtept lat="38.406978" lon="-106.116134"><ele>2835.0</ele><time>2026-04-10T15:06:55Z</time></rtept><rtept lat="38.406546" lon="-106.11625"><ele>2841.6</ele><time>2026-04-10T15:06:55Z</time></rtept><rtept lat="38.406499" lon="-106.116281"><ele>2842.0</ele><time>2026-04-10T15:06:55Z</time></rtept><rtept lat="38.406351" lon="-106.116364"><ele>2843.2</ele><time>2026-04-10T15:06:55Z</time></rtept><rtept lat="38.40623" lon="-106.116422"><ele>2844.0</ele><time>2026-04-10T15:06:55Z</time></rtept><rtept lat="38.406118" lon="-106.116513"><ele>2844.4</ele><time>2026-04-10T15:06:55Z</time></rtept><rtept lat="38.406006" lon="-106.116449"><ele>2844.6</ele><time>2026-04-10T15:06:55Z</time></rtept><rtept lat="38.405847" lon="-106.116454"><ele>2845.2</ele><time>2026-04-10T15:06:55Z</time></rtept><rtept lat="38.405393" lon="-106.116324"><ele>2846.2</ele><time>2026-04-10T15:06:55Z</time></rtept><rtept lat="38.405258" lon="-106.11624"><ele>2847.0</ele><time>2026-04-10T15:06:55Z</time></rtept><rtept lat="38.404842" lon="-106.116042"><ele>2849.8</ele><time>2026-04-10T15:06:55Z</time></rtept><rtept lat="38.404206" lon="-106.115994"><ele>2854.0</ele><time>2026-04-10T15:06:55Z</time></rtept><rtept lat="38.403998" lon="-106.115972"><ele>2853.8</ele><time>2026-04-10T15:06:55Z</time></rtept><rtept lat="38.403913" lon="-106.11596"><ele>2853.8</ele><time>2026-04-10T15:06:55Z</time></rtept><rtept lat="38.403793" lon="-106.115958"><ele>2854.2</ele><time>2026-04-10T15:06:55Z</time></rtept><rtept lat="38.40351" lon="-106.115712"><ele>2855.0</ele><time>2026-04-10T15:06:55Z</time></rtept><rtept lat="38.403387" lon="-106.115548"><ele>2852.4</ele><time>2026-04-10T15:06:55Z</time></rtept><rtept lat="38.40326" lon="-106.115355"><ele>2849.4</ele><time>2026-04-10T15:06:55Z</time></rtept><rtept lat="38.403234" lon="-106.115315"><ele>2849.4</ele><time>2026-04-10T15:06:55Z</time></rtept><rtept lat="38.403126" lon="-106.115252"><ele>2847.0</ele><time>2026-04-10T15:06:55Z</time></rtept><rtept lat="38.403009" lon="-106.11528"><ele>2844.8</ele><time>2026-04-10T15:06:55Z</time></rtept><rtept lat="38.403008" lon="-106.115267"><ele>2844.8</ele><time>2026-04-10T15:06:55Z</time></rtept><rtept lat="38.402935" lon="-106.115291"><ele>2843.8</ele><time>2026-04-10T15:06:55Z</time></rtept><rtept lat="38.402808" lon="-106.1154"><ele>2842.0</ele><time>2026-04-10T15:06:55Z</time></rtept><rtept lat="38.402764" lon="-106.115432"><ele>2842.0</ele><time>2026-04-10T15:06:55Z</time></rtept><rtept lat="38.402686" lon="-106.115391"><ele>2838.6</ele><time>2026-04-10T15:06:55Z</time></rtept><rtept lat="38.402612" lon="-106.115255"><ele>2836.2</ele><time>2026-04-10T15:06:55Z</time></rtept><rtept lat="38.402579" lon="-106.115215"><ele>2836.0</ele><time>2026-04-10T15:06:55Z</time></rtept><rtept lat="38.402512" lon="-106.115129"><ele>2834.2</ele><time>2026-04-10T15:06:55Z</time></rtept><rtept lat="38.402361" lon="-106.115022"><ele>2831.6</ele><time>2026-04-10T15:06:55Z</time></rtept><rtept lat="38.402357" lon="-106.115019"><ele>2831.6</ele><time>2026-04-10T15:06:55Z</time></rtept><rtept lat="38.402075" lon="-106.115102"><ele>2829.6</ele><time>2026-04-10T15:06:55Z</time></rtept><rtept lat="38.401955" lon="-106.115147"><ele>2829.4</ele><time>2026-04-10T15:06:55Z</time></rtept><rtept lat="38.401789" lon="-106.115291"><ele>2830.0</ele><time>2026-04-10T15:06:55Z</time></rtept><rtept lat="38.401636" lon="-106.115424"><ele>2829.2</ele><time>2026-04-10T15:06:55Z</time></rtept><rtept lat="38.401522" lon="-106.115385"><ele>2830.8</ele><time>2026-04-10T15:06:55Z</time></rtept><rtept lat="38.401368" lon="-106.115231"><ele>2832.2</ele><time>2026-04-10T15:06:55Z</time></rtept><rtept lat="38.40119" lon="-106.115253"><ele>2832.8</ele><time>2026-04-10T15:06:55Z</time></rtept><rtept lat="38.400956" lon="-106.11541"><ele>2832.0</ele><time>2026-04-10T15:06:55Z</time></rtept><rtept lat="38.400961" lon="-106.115549"><ele>2831.2</ele><time>2026-04-10T15:06:55Z</time></rtept><rtept lat="38.400949" lon="-106.115786"><ele>2830.6</ele><time>2026-04-10T15:06:55Z</time></rtept><rtept lat="38.40076" lon="-106.116053"><ele>2834.8</ele><time>2026-04-10T15:06:55Z</time></rtept><rtept lat="38.400744" lon="-106.116121"><ele>2834.8</ele><time>2026-04-10T15:06:55Z</time></rtept><rtept lat="38.400689" lon="-106.116457"><ele>2835.0</ele><time>2026-04-10T15:06:55Z</time></rtept><rtept lat="38.400674" lon="-106.116493"><ele>2835.0</ele><time>2026-04-10T15:06:55Z</time></rtept><rtept lat="38.400554" lon="-106.11668"><ele>2838.0</ele><time>2026-04-10T15:06:55Z</time></rtept><rtept lat="38.400516" lon="-106.116723"><ele>2839.4</ele><time>2026-04-10T15:06:55Z</time></rtept><rtept lat="38.400321" lon="-106.117019"><ele>2842.2</ele><time>2026-04-10T15:06:55Z</time></rtept><rtept lat="38.400071" lon="-106.117344"><ele>2841.2</ele><time>2026-04-10T15:06:55Z</time></rtept><rtept lat="38.399901" lon="-106.117512"><ele>2843.6</ele><time>2026-04-10T15:06:55Z</time></rtept><rtept lat="38.399656" lon="-106.117728"><ele>2844.6</ele><time>2026-04-10T15:06:55Z</time></rtept><rtept lat="38.399583" lon="-106.117787"><ele>2846.6</ele><time>2026-04-10T15:06:55Z</time></rtept><rtept lat="38.399456" lon="-106.117876"><ele>2847.8</ele><time>2026-04-10T15:06:55Z</time></rtept><rtept lat="38.399049" lon="-106.118132"><ele>2849.6</ele><time>2026-04-10T15:06:55Z</time></rtept><rtept lat="38.398785" lon="-106.11819"><ele>2852.8</ele><time>2026-04-10T15:06:55Z</time></rtept><rtept lat="38.398591" lon="-106.118237"><ele>2852.4</ele><time>2026-04-10T15:06:55Z</time></rtept><rtept lat="38.398185" lon="-106.118304"><ele>2859.8</ele><time>2026-04-10T15:06:55Z</time></rtept><rtept lat="38.397905" lon="-106.118359"><ele>2863.4</ele><time>2026-04-10T15:06:55Z</time></rtept><rtept lat="38.397757" lon="-106.118344"><ele>2865.6</ele><time>2026-04-10T15:06:55Z</time></rtept><rtept lat="38.397702" lon="-106.11839"><ele>2866.4</ele><time>2026-04-10T15:06:55Z</time></rtept><rtept lat="38.397635" lon="-106.118412"><ele>2864.4</ele><time>2026-04-10T15:06:55Z</time></rtept><rtept lat="38.397645" lon="-106.11847"><ele>2863.4</ele><time>2026-04-10T15:06:55Z</time></rtept><rtept lat="38.397655" lon="-106.118486"><ele>2863.4</ele><time>2026-04-10T15:06:55Z</time></rtept></rte></gpx>