<?xml version="1.0" ?><gpx xmlns="http://www.topografix.com/GPX/1/1" creator="GaiaGPS" version="1.1" xmlns:xsi="http://www.w3.org/2001/XMLSchema-instance" xsi:schemaLocation="http://www.topografix.com/GPX/1/1 http://www.topografix.com/GPX/1/1/gpx.xsd"><rte><name>TD10:S3:D1 CO 114 to Cochetopa Park</name><desc></desc><extensions><line xmlns="http://www.topografix.com/GPX/gpx_style/0/2"><color>F42410</color></line></extensions><rtept lat="38.223375" lon="-106.591892"><ele>2928.4</ele><time>2026-04-10T15:25:48Z</time></rtept><rtept lat="38.223382" lon="-106.591821"><ele>2929.0</ele><time>2026-04-10T15:25:48Z</time></rtept><rtept lat="38.223327" lon="-106.591811"><ele>2928.8</ele><time>2026-04-10T15:25:48Z</time></rtept><rtept lat="38.223327" lon="-106.591811"><ele>2928.8</ele><time>2026-04-10T15:25:48Z</time></rtept><rtept lat="38.223359" lon="-106.591512"><ele>2930.8</ele><time>2026-04-10T15:25:48Z</time></rtept><rtept lat="38.223351" lon="-106.591284"><ele>2932.2</ele><time>2026-04-10T15:25:48Z</time></rtept><rtept lat="38.222928" lon="-106.591445"><ele>2926.6</ele><time>2026-04-10T15:25:48Z</time></rtept><rtept lat="38.222304" lon="-106.591997"><ele>2918.0</ele><time>2026-04-10T15:25:48Z</time></rtept><rtept lat="38.221999" lon="-106.592267"><ele>2916.2</ele><time>2026-04-10T15:25:48Z</time></rtept><rtept lat="38.22164" lon="-106.592507"><ele>2912.2</ele><time>2026-04-10T15:25:48Z</time></rtept><rtept lat="38.220913" lon="-106.592679"><ele>2911.8</ele><time>2026-04-10T15:25:48Z</time></rtept><rtept lat="38.220429" lon="-106.59299"><ele>2913.2</ele><time>2026-04-10T15:25:48Z</time></rtept><rtept lat="38.220212" lon="-106.593342"><ele>2912.2</ele><time>2026-04-10T15:25:48Z</time></rtept><rtept lat="38.220023" lon="-106.593689"><ele>2911.4</ele><time>2026-04-10T15:25:48Z</time></rtept><rtept lat="38.219707" lon="-106.594035"><ele>2911.0</ele><time>2026-04-10T15:25:48Z</time></rtept><rtept lat="38.219427" lon="-106.59442"><ele>2911.4</ele><time>2026-04-10T15:25:48Z</time></rtept><rtept lat="38.219238" lon="-106.594729"><ele>2911.4</ele><time>2026-04-10T15:25:48Z</time></rtept><rtept lat="38.219143" lon="-106.594964"><ele>2912.0</ele><time>2026-04-10T15:25:48Z</time></rtept><rtept lat="38.219018" lon="-106.595264"><ele>2913.0</ele><time>2026-04-10T15:25:48Z</time></rtept><rtept lat="38.218901" lon="-106.595745"><ele>2908.4</ele><time>2026-04-10T15:25:48Z</time></rtept><rtept lat="38.218812" lon="-106.596739"><ele>2906.2</ele><time>2026-04-10T15:25:48Z</time></rtept><rtept lat="38.218906" lon="-106.598777"><ele>2901.2</ele><time>2026-04-10T15:25:48Z</time></rtept><rtept lat="38.218846" lon="-106.599625"><ele>2900.4</ele><time>2026-04-10T15:25:48Z</time></rtept><rtept lat="38.218554" lon="-106.599645"><ele>2904.8</ele><time>2026-04-10T15:25:48Z</time></rtept><rtept lat="38.218409" lon="-106.599672"><ele>2903.6</ele><time>2026-04-10T15:25:48Z</time></rtept><rtept lat="38.21797" lon="-106.599581"><ele>2902.0</ele><time>2026-04-10T15:25:48Z</time></rtept><rtept lat="38.217488" lon="-106.599424"><ele>2901.4</ele><time>2026-04-10T15:25:48Z</time></rtept><rtept lat="38.217263" lon="-106.599343"><ele>2902.6</ele><time>2026-04-10T15:25:48Z</time></rtept><rtept lat="38.217071" lon="-106.59931"><ele>2904.2</ele><time>2026-04-10T15:25:48Z</time></rtept><rtept lat="38.216709" lon="-106.599301"><ele>2902.2</ele><time>2026-04-10T15:25:48Z</time></rtept><rtept lat="38.216228" lon="-106.599211"><ele>2901.0</ele><time>2026-04-10T15:25:48Z</time></rtept><rtept lat="38.215901" lon="-106.599113"><ele>2901.0</ele><time>2026-04-10T15:25:48Z</time></rtept><rtept lat="38.215737" lon="-106.598986"><ele>2901.2</ele><time>2026-04-10T15:25:48Z</time></rtept><rtept lat="38.215436" lon="-106.598815"><ele>2901.6</ele><time>2026-04-10T15:25:48Z</time></rtept><rtept lat="38.215335" lon="-106.598728"><ele>2902.0</ele><time>2026-04-10T15:25:48Z</time></rtept><rtept lat="38.215302" lon="-106.598708"><ele>2902.8</ele><time>2026-04-10T15:25:48Z</time></rtept><rtept lat="38.215278" lon="-106.598694"><ele>2902.8</ele><time>2026-04-10T15:25:48Z</time></rtept><rtept lat="38.214842" lon="-106.598455"><ele>2906.0</ele><time>2026-04-10T15:25:48Z</time></rtept><rtept lat="38.214394" lon="-106.597995"><ele>2910.0</ele><time>2026-04-10T15:25:48Z</time></rtept><rtept lat="38.214019" lon="-106.597646"><ele>2910.0</ele><time>2026-04-10T15:25:48Z</time></rtept><rtept lat="38.213831" lon="-106.597397"><ele>2910.2</ele><time>2026-04-10T15:25:48Z</time></rtept><rtept lat="38.213718" lon="-106.597305"><ele>2910.2</ele><time>2026-04-10T15:25:48Z</time></rtept><rtept lat="38.213321" lon="-106.596792"><ele>2912.6</ele><time>2026-04-10T15:25:48Z</time></rtept><rtept lat="38.213001" lon="-106.596619"><ele>2912.6</ele><time>2026-04-10T15:25:48Z</time></rtept><rtept lat="38.212705" lon="-106.59634"><ele>2913.4</ele><time>2026-04-10T15:25:48Z</time></rtept><rtept lat="38.212224" lon="-106.596057"><ele>2915.0</ele><time>2026-04-10T15:25:48Z</time></rtept><rtept lat="38.211711" lon="-106.596189"><ele>2918.4</ele><time>2026-04-10T15:25:48Z</time></rtept><rtept lat="38.211354" lon="-106.596278"><ele>2919.2</ele><time>2026-04-10T15:25:48Z</time></rtept><rtept lat="38.211048" lon="-106.596271"><ele>2920.4</ele><time>2026-04-10T15:25:48Z</time></rtept><rtept lat="38.210625" lon="-106.596238"><ele>2922.6</ele><time>2026-04-10T15:25:48Z</time></rtept><rtept lat="38.2101" lon="-106.59638"><ele>2924.2</ele><time>2026-04-10T15:25:48Z</time></rtept><rtept lat="38.209873" lon="-106.596337"><ele>2924.8</ele><time>2026-04-10T15:25:48Z</time></rtept><rtept lat="38.209494" lon="-106.596307"><ele>2926.6</ele><time>2026-04-10T15:25:48Z</time></rtept><rtept lat="38.209165" lon="-106.596289"><ele>2929.2</ele><time>2026-04-10T15:25:48Z</time></rtept><rtept lat="38.208517" lon="-106.59654"><ele>2931.8</ele><time>2026-04-10T15:25:48Z</time></rtept><rtept lat="38.207979" lon="-106.596593"><ele>2934.0</ele><time>2026-04-10T15:25:48Z</time></rtept><rtept lat="38.207644" lon="-106.596748"><ele>2935.2</ele><time>2026-04-10T15:25:48Z</time></rtept><rtept lat="38.207336" lon="-106.59687"><ele>2937.4</ele><time>2026-04-10T15:25:48Z</time></rtept><rtept lat="38.207082" lon="-106.596994"><ele>2938.6</ele><time>2026-04-10T15:25:48Z</time></rtept><rtept lat="38.206846" lon="-106.597118"><ele>2940.2</ele><time>2026-04-10T15:25:48Z</time></rtept><rtept lat="38.206689" lon="-106.597374"><ele>2941.0</ele><time>2026-04-10T15:25:48Z</time></rtept><rtept lat="38.206458" lon="-106.597498"><ele>2942.6</ele><time>2026-04-10T15:25:48Z</time></rtept><rtept lat="38.206277" lon="-106.597526"><ele>2943.0</ele><time>2026-04-10T15:25:48Z</time></rtept><rtept lat="38.20598" lon="-106.597422"><ele>2946.6</ele><time>2026-04-10T15:25:48Z</time></rtept><rtept lat="38.205741" lon="-106.597482"><ele>2946.8</ele><time>2026-04-10T15:25:48Z</time></rtept><rtept lat="38.205435" lon="-106.597508"><ele>2948.0</ele><time>2026-04-10T15:25:48Z</time></rtept><rtept lat="38.205081" lon="-106.597644"><ele>2947.6</ele><time>2026-04-10T15:25:48Z</time></rtept><rtept lat="38.204672" lon="-106.597683"><ele>2949.2</ele><time>2026-04-10T15:25:48Z</time></rtept><rtept lat="38.204368" lon="-106.59775"><ele>2950.2</ele><time>2026-04-10T15:25:48Z</time></rtept><rtept lat="38.204121" lon="-106.598043"><ele>2953.8</ele><time>2026-04-10T15:25:48Z</time></rtept><rtept lat="38.203845" lon="-106.598083"><ele>2957.0</ele><time>2026-04-10T15:25:48Z</time></rtept><rtept lat="38.203592" lon="-106.597978"><ele>2957.4</ele><time>2026-04-10T15:25:48Z</time></rtept><rtept lat="38.203207" lon="-106.597977"><ele>2959.4</ele><time>2026-04-10T15:25:48Z</time></rtept><rtept lat="38.202909" lon="-106.598"><ele>2959.8</ele><time>2026-04-10T15:25:48Z</time></rtept><rtept lat="38.202641" lon="-106.598128"><ele>2961.4</ele><time>2026-04-10T15:25:48Z</time></rtept><rtept lat="38.20256" lon="-106.598148"><ele>2960.6</ele><time>2026-04-10T15:25:48Z</time></rtept><rtept lat="38.202303" lon="-106.598386"><ele>2961.2</ele><time>2026-04-10T15:25:48Z</time></rtept><rtept lat="38.202138" lon="-106.598771"><ele>2963.8</ele><time>2026-04-10T15:25:48Z</time></rtept><rtept lat="38.202158" lon="-106.598943"><ele>2965.2</ele><time>2026-04-10T15:25:48Z</time></rtept><rtept lat="38.202258" lon="-106.599042"><ele>2967.4</ele><time>2026-04-10T15:25:48Z</time></rtept><rtept lat="38.202459" lon="-106.599029"><ele>2969.2</ele><time>2026-04-10T15:25:48Z</time></rtept><rtept lat="38.20277" lon="-106.598615"><ele>2968.0</ele><time>2026-04-10T15:25:48Z</time></rtept><rtept lat="38.202869" lon="-106.598546"><ele>2968.6</ele><time>2026-04-10T15:25:48Z</time></rtept><rtept lat="38.203079" lon="-106.598607"><ele>2969.4</ele><time>2026-04-10T15:25:48Z</time></rtept><rtept lat="38.203433" lon="-106.598823"><ele>2976.2</ele><time>2026-04-10T15:25:48Z</time></rtept><rtept lat="38.203771" lon="-106.59903"><ele>2979.0</ele><time>2026-04-10T15:25:48Z</time></rtept><rtept lat="38.204346" lon="-106.599225"><ele>2981.6</ele><time>2026-04-10T15:25:48Z</time></rtept><rtept lat="38.204786" lon="-106.599412"><ele>2984.4</ele><time>2026-04-10T15:25:48Z</time></rtept><rtept lat="38.205324" lon="-106.599751"><ele>2988.2</ele><time>2026-04-10T15:25:48Z</time></rtept><rtept lat="38.205664" lon="-106.599875"><ele>2989.6</ele><time>2026-04-10T15:25:48Z</time></rtept><rtept lat="38.206033" lon="-106.5998"><ele>2988.2</ele><time>2026-04-10T15:25:48Z</time></rtept><rtept lat="38.206177" lon="-106.599721"><ele>2987.0</ele><time>2026-04-10T15:25:48Z</time></rtept><rtept lat="38.206304" lon="-106.599767"><ele>2989.4</ele><time>2026-04-10T15:25:48Z</time></rtept><rtept lat="38.206477" lon="-106.600024"><ele>2993.0</ele><time>2026-04-10T15:25:48Z</time></rtept><rtept lat="38.206597" lon="-106.60051"><ele>2996.4</ele><time>2026-04-10T15:25:48Z</time></rtept><rtept lat="38.206542" lon="-106.600929"><ele>3004.2</ele><time>2026-04-10T15:25:48Z</time></rtept><rtept lat="38.20666" lon="-106.601482"><ele>3008.2</ele><time>2026-04-10T15:25:48Z</time></rtept><rtept lat="38.206886" lon="-106.602061"><ele>3011.4</ele><time>2026-04-10T15:25:48Z</time></rtept><rtept lat="38.207085" lon="-106.602397"><ele>3010.4</ele><time>2026-04-10T15:25:48Z</time></rtept><rtept lat="38.207407" lon="-106.60289"><ele>3012.6</ele><time>2026-04-10T15:25:48Z</time></rtept><rtept lat="38.20766" lon="-106.603186"><ele>3014.2</ele><time>2026-04-10T15:25:48Z</time></rtept><rtept lat="38.207916" lon="-106.603641"><ele>3018.6</ele><time>2026-04-10T15:25:48Z</time></rtept><rtept lat="38.208263" lon="-106.60347"><ele>3017.4</ele><time>2026-04-10T15:25:48Z</time></rtept><rtept lat="38.208572" lon="-106.60312"><ele>3019.2</ele><time>2026-04-10T15:25:48Z</time></rtept><rtept lat="38.208878" lon="-106.603177"><ele>3027.2</ele><time>2026-04-10T15:25:48Z</time></rtept><rtept lat="38.208921" lon="-106.6034"><ele>3030.2</ele><time>2026-04-10T15:25:48Z</time></rtept><rtept lat="38.208774" lon="-106.603729"><ele>3029.8</ele><time>2026-04-10T15:25:48Z</time></rtept><rtept lat="38.208584" lon="-106.60401"><ele>3029.8</ele><time>2026-04-10T15:25:48Z</time></rtept><rtept lat="38.208537" lon="-106.604306"><ele>3034.0</ele><time>2026-04-10T15:25:48Z</time></rtept><rtept lat="38.208417" lon="-106.604656"><ele>3037.0</ele><time>2026-04-10T15:25:48Z</time></rtept><rtept lat="38.208118" lon="-106.604764"><ele>3039.0</ele><time>2026-04-10T15:25:48Z</time></rtept><rtept lat="38.207716" lon="-106.604571"><ele>3045.4</ele><time>2026-04-10T15:25:48Z</time></rtept><rtept lat="38.207464" lon="-106.604228"><ele>3043.0</ele><time>2026-04-10T15:25:48Z</time></rtept><rtept lat="38.207249" lon="-106.60394"><ele>3039.0</ele><time>2026-04-10T15:25:48Z</time></rtept><rtept lat="38.206953" lon="-106.603836"><ele>3044.8</ele><time>2026-04-10T15:25:48Z</time></rtept><rtept lat="38.206475" lon="-106.603808"><ele>3054.8</ele><time>2026-04-10T15:25:48Z</time></rtept><rtept lat="38.206044" lon="-106.603557"><ele>3055.4</ele><time>2026-04-10T15:25:48Z</time></rtept><rtept lat="38.205776" lon="-106.603569"><ele>3057.0</ele><time>2026-04-10T15:25:48Z</time></rtept><rtept lat="38.205482" lon="-106.603765"><ele>3057.2</ele><time>2026-04-10T15:25:48Z</time></rtept><rtept lat="38.205166" lon="-106.604297"><ele>3059.6</ele><time>2026-04-10T15:25:48Z</time></rtept><rtept lat="38.205006" lon="-106.604657"><ele>3061.2</ele><time>2026-04-10T15:25:48Z</time></rtept><rtept lat="38.204935" lon="-106.604899"><ele>3062.2</ele><time>2026-04-10T15:25:48Z</time></rtept><rtept lat="38.204784" lon="-106.605127"><ele>3063.6</ele><time>2026-04-10T15:25:48Z</time></rtept><rtept lat="38.204613" lon="-106.605236"><ele>3068.0</ele><time>2026-04-10T15:25:48Z</time></rtept><rtept lat="38.203933" lon="-106.604893"><ele>3078.6</ele><time>2026-04-10T15:25:48Z</time></rtept><rtept lat="38.203452" lon="-106.604632"><ele>3076.8</ele><time>2026-04-10T15:25:48Z</time></rtept><rtept lat="38.203048" lon="-106.604509"><ele>3075.2</ele><time>2026-04-10T15:25:48Z</time></rtept><rtept lat="38.20259" lon="-106.604611"><ele>3076.8</ele><time>2026-04-10T15:25:48Z</time></rtept><rtept lat="38.202178" lon="-106.604687"><ele>3083.6</ele><time>2026-04-10T15:25:48Z</time></rtept><rtept lat="38.201696" lon="-106.604416"><ele>3082.8</ele><time>2026-04-10T15:25:48Z</time></rtept><rtept lat="38.20116" lon="-106.604081"><ele>3075.0</ele><time>2026-04-10T15:25:48Z</time></rtept><rtept lat="38.200626" lon="-106.604054"><ele>3075.2</ele><time>2026-04-10T15:25:48Z</time></rtept><rtept lat="38.200036" lon="-106.604175"><ele>3071.6</ele><time>2026-04-10T15:25:48Z</time></rtept><rtept lat="38.199674" lon="-106.604629"><ele>3064.4</ele><time>2026-04-10T15:25:48Z</time></rtept><rtept lat="38.199303" lon="-106.604911"><ele>3066.0</ele><time>2026-04-10T15:25:48Z</time></rtept><rtept lat="38.198989" lon="-106.605047"><ele>3065.6</ele><time>2026-04-10T15:25:48Z</time></rtept><rtept lat="38.19865" lon="-106.605112"><ele>3067.4</ele><time>2026-04-10T15:25:48Z</time></rtept><rtept lat="38.198248" lon="-106.605033"><ele>3068.0</ele><time>2026-04-10T15:25:48Z</time></rtept><rtept lat="38.197746" lon="-106.604633"><ele>3064.4</ele><time>2026-04-10T15:25:48Z</time></rtept><rtept lat="38.197362" lon="-106.604382"><ele>3064.6</ele><time>2026-04-10T15:25:48Z</time></rtept><rtept lat="38.196935" lon="-106.604111"><ele>3059.6</ele><time>2026-04-10T15:25:48Z</time></rtept><rtept lat="38.196499" lon="-106.603829"><ele>3054.4</ele><time>2026-04-10T15:25:48Z</time></rtept><rtept lat="38.196098" lon="-106.603612"><ele>3052.8</ele><time>2026-04-10T15:25:48Z</time></rtept><rtept lat="38.195968" lon="-106.60357"><ele>3051.4</ele><time>2026-04-10T15:25:48Z</time></rtept><rtept lat="38.195849" lon="-106.603531"><ele>3052.4</ele><time>2026-04-10T15:25:48Z</time></rtept><rtept lat="38.195652" lon="-106.603565"><ele>3054.2</ele><time>2026-04-10T15:25:48Z</time></rtept><rtept lat="38.195302" lon="-106.603829"><ele>3063.6</ele><time>2026-04-10T15:25:48Z</time></rtept><rtept lat="38.194947" lon="-106.603917"><ele>3069.6</ele><time>2026-04-10T15:25:48Z</time></rtept><rtept lat="38.194465" lon="-106.604306"><ele>3081.4</ele><time>2026-04-10T15:25:48Z</time></rtept><rtept lat="38.193812" lon="-106.604875"><ele>3096.2</ele><time>2026-04-10T15:25:48Z</time></rtept><rtept lat="38.193365" lon="-106.605387"><ele>3113.6</ele><time>2026-04-10T15:25:48Z</time></rtept><rtept lat="38.192732" lon="-106.605314"><ele>3125.8</ele><time>2026-04-10T15:25:48Z</time></rtept><rtept lat="38.192318" lon="-106.605396"><ele>3127.6</ele><time>2026-04-10T15:25:48Z</time></rtept><rtept lat="38.191668" lon="-106.605226"><ele>3124.2</ele><time>2026-04-10T15:25:48Z</time></rtept><rtept lat="38.191172" lon="-106.605462"><ele>3120.2</ele><time>2026-04-10T15:25:48Z</time></rtept><rtept lat="38.1908" lon="-106.605653"><ele>3116.6</ele><time>2026-04-10T15:25:48Z</time></rtept><rtept lat="38.190512" lon="-106.605786"><ele>3112.0</ele><time>2026-04-10T15:25:48Z</time></rtept><rtept lat="38.190175" lon="-106.60591"><ele>3107.2</ele><time>2026-04-10T15:25:48Z</time></rtept><rtept lat="38.190161" lon="-106.605888"><ele>3106.2</ele><time>2026-04-10T15:25:48Z</time></rtept><rtept lat="38.189902" lon="-106.605496"><ele>3104.2</ele><time>2026-04-10T15:25:48Z</time></rtept><rtept lat="38.189665" lon="-106.605199"><ele>3102.0</ele><time>2026-04-10T15:25:48Z</time></rtept><rtept lat="38.189271" lon="-106.604757"><ele>3099.0</ele><time>2026-04-10T15:25:48Z</time></rtept><rtept lat="38.189107" lon="-106.60461"><ele>3099.4</ele><time>2026-04-10T15:25:48Z</time></rtept><rtept lat="38.188791" lon="-106.604348"><ele>3098.0</ele><time>2026-04-10T15:25:48Z</time></rtept><rtept lat="38.188507" lon="-106.604342"><ele>3095.4</ele><time>2026-04-10T15:25:48Z</time></rtept><rtept lat="38.18818" lon="-106.604539"><ele>3092.8</ele><time>2026-04-10T15:25:48Z</time></rtept><rtept lat="38.187816" lon="-106.604837"><ele>3089.0</ele><time>2026-04-10T15:25:48Z</time></rtept><rtept lat="38.18746" lon="-106.604826"><ele>3088.2</ele><time>2026-04-10T15:25:48Z</time></rtept><rtept lat="38.187078" lon="-106.604945"><ele>3085.6</ele><time>2026-04-10T15:25:48Z</time></rtept><rtept lat="38.1866" lon="-106.604995"><ele>3081.0</ele><time>2026-04-10T15:25:48Z</time></rtept><rtept lat="38.186258" lon="-106.604843"><ele>3080.6</ele><time>2026-04-10T15:25:48Z</time></rtept><rtept lat="38.185745" lon="-106.604167"><ele>3082.4</ele><time>2026-04-10T15:25:48Z</time></rtept><rtept lat="38.18523" lon="-106.603808"><ele>3080.2</ele><time>2026-04-10T15:25:48Z</time></rtept><rtept lat="38.184786" lon="-106.603648"><ele>3078.6</ele><time>2026-04-10T15:25:48Z</time></rtept><rtept lat="38.184422" lon="-106.603538"><ele>3076.2</ele><time>2026-04-10T15:25:48Z</time></rtept><rtept lat="38.183867" lon="-106.60339"><ele>3074.2</ele><time>2026-04-10T15:25:48Z</time></rtept><rtept lat="38.183376" lon="-106.603617"><ele>3068.8</ele><time>2026-04-10T15:25:48Z</time></rtept><rtept lat="38.182767" lon="-106.603961"><ele>3065.0</ele><time>2026-04-10T15:25:48Z</time></rtept><rtept lat="38.181992" lon="-106.604023"><ele>3065.8</ele><time>2026-04-10T15:25:48Z</time></rtept><rtept lat="38.180974" lon="-106.604121"><ele>3063.2</ele><time>2026-04-10T15:25:48Z</time></rtept><rtept lat="38.180253" lon="-106.604307"><ele>3063.2</ele><time>2026-04-10T15:25:48Z</time></rtept><rtept lat="38.179808" lon="-106.604502"><ele>3063.2</ele><time>2026-04-10T15:25:48Z</time></rtept><rtept lat="38.179537" lon="-106.604554"><ele>3063.0</ele><time>2026-04-10T15:25:48Z</time></rtept><rtept lat="38.179042" lon="-106.604355"><ele>3065.4</ele><time>2026-04-10T15:25:48Z</time></rtept><rtept lat="38.178793" lon="-106.604033"><ele>3065.2</ele><time>2026-04-10T15:25:48Z</time></rtept><rtept lat="38.178663" lon="-106.603616"><ele>3065.8</ele><time>2026-04-10T15:25:48Z</time></rtept><rtept lat="38.1783" lon="-106.603176"><ele>3064.6</ele><time>2026-04-10T15:25:48Z</time></rtept><rtept lat="38.177479" lon="-106.603117"><ele>3062.4</ele><time>2026-04-10T15:25:48Z</time></rtept><rtept lat="38.17697" lon="-106.603477"><ele>3060.4</ele><time>2026-04-10T15:25:48Z</time></rtept><rtept lat="38.176441" lon="-106.603975"><ele>3059.6</ele><time>2026-04-10T15:25:48Z</time></rtept><rtept lat="38.175831" lon="-106.604394"><ele>3058.8</ele><time>2026-04-10T15:25:48Z</time></rtept><rtept lat="38.175103" lon="-106.604995"><ele>3057.8</ele><time>2026-04-10T15:25:48Z</time></rtept><rtept lat="38.174503" lon="-106.605766"><ele>3056.8</ele><time>2026-04-10T15:25:48Z</time></rtept><rtept lat="38.173993" lon="-106.606372"><ele>3056.8</ele><time>2026-04-10T15:25:48Z</time></rtept><rtept lat="38.173538" lon="-106.607025"><ele>3056.8</ele><time>2026-04-10T15:25:48Z</time></rtept><rtept lat="38.172964" lon="-106.607321"><ele>3057.6</ele><time>2026-04-10T15:25:48Z</time></rtept><rtept lat="38.172561" lon="-106.607666"><ele>3052.6</ele><time>2026-04-10T15:25:48Z</time></rtept><rtept lat="38.172155" lon="-106.607964"><ele>3049.2</ele><time>2026-04-10T15:25:48Z</time></rtept><rtept lat="38.171633" lon="-106.607902"><ele>3044.6</ele><time>2026-04-10T15:25:48Z</time></rtept><rtept lat="38.171113" lon="-106.607738"><ele>3040.4</ele><time>2026-04-10T15:25:48Z</time></rtept><rtept lat="38.170467" lon="-106.607825"><ele>3027.4</ele><time>2026-04-10T15:25:48Z</time></rtept><rtept lat="38.169941" lon="-106.607763"><ele>3025.8</ele><time>2026-04-10T15:25:48Z</time></rtept><rtept lat="38.16928" lon="-106.607833"><ele>3022.6</ele><time>2026-04-10T15:25:48Z</time></rtept><rtept lat="38.168517" lon="-106.607961"><ele>3017.6</ele><time>2026-04-10T15:25:48Z</time></rtept><rtept lat="38.168135" lon="-106.608672"><ele>3012.6</ele><time>2026-04-10T15:25:48Z</time></rtept><rtept lat="38.167799" lon="-106.609409"><ele>3011.0</ele><time>2026-04-10T15:25:48Z</time></rtept><rtept lat="38.167441" lon="-106.609713"><ele>3009.0</ele><time>2026-04-10T15:25:48Z</time></rtept><rtept lat="38.167054" lon="-106.609945"><ele>3007.2</ele><time>2026-04-10T15:25:48Z</time></rtept><rtept lat="38.1667" lon="-106.609714"><ele>3009.4</ele><time>2026-04-10T15:25:48Z</time></rtept><rtept lat="38.166513" lon="-106.610099"><ele>3007.0</ele><time>2026-04-10T15:25:48Z</time></rtept><rtept lat="38.166343" lon="-106.610542"><ele>3004.0</ele><time>2026-04-10T15:25:48Z</time></rtept><rtept lat="38.166151" lon="-106.611048"><ele>2999.0</ele><time>2026-04-10T15:25:48Z</time></rtept><rtept lat="38.165785" lon="-106.611379"><ele>2999.2</ele><time>2026-04-10T15:25:48Z</time></rtept><rtept lat="38.165535" lon="-106.611557"><ele>2999.6</ele><time>2026-04-10T15:25:48Z</time></rtept><rtept lat="38.165461" lon="-106.611679"><ele>2998.6</ele><time>2026-04-10T15:25:48Z</time></rtept><rtept lat="38.165445" lon="-106.611905"><ele>2998.0</ele><time>2026-04-10T15:25:48Z</time></rtept><rtept lat="38.165496" lon="-106.612332"><ele>2995.6</ele><time>2026-04-10T15:25:48Z</time></rtept><rtept lat="38.165514" lon="-106.612688"><ele>2995.0</ele><time>2026-04-10T15:25:48Z</time></rtept><rtept lat="38.165494" lon="-106.612911"><ele>2994.2</ele><time>2026-04-10T15:25:48Z</time></rtept><rtept lat="38.165439" lon="-106.613148"><ele>2994.4</ele><time>2026-04-10T15:25:48Z</time></rtept><rtept lat="38.165334" lon="-106.613511"><ele>2993.8</ele><time>2026-04-10T15:25:48Z</time></rtept><rtept lat="38.165141" lon="-106.613994"><ele>2990.6</ele><time>2026-04-10T15:25:48Z</time></rtept><rtept lat="38.164971" lon="-106.614389"><ele>2990.0</ele><time>2026-04-10T15:25:48Z</time></rtept><rtept lat="38.164855" lon="-106.614619"><ele>2989.4</ele><time>2026-04-10T15:25:48Z</time></rtept><rtept lat="38.164639" lon="-106.615015"><ele>2989.6</ele><time>2026-04-10T15:25:48Z</time></rtept><rtept lat="38.164561" lon="-106.615707"><ele>2982.8</ele><time>2026-04-10T15:25:48Z</time></rtept><rtept lat="38.164374" lon="-106.616456"><ele>2984.0</ele><time>2026-04-10T15:25:48Z</time></rtept><rtept lat="38.164292" lon="-106.616747"><ele>2983.2</ele><time>2026-04-10T15:25:48Z</time></rtept><rtept lat="38.164251" lon="-106.617"><ele>2983.2</ele><time>2026-04-10T15:25:48Z</time></rtept><rtept lat="38.164235" lon="-106.617327"><ele>2980.8</ele><time>2026-04-10T15:25:48Z</time></rtept><rtept lat="38.164202" lon="-106.61754"><ele>2978.8</ele><time>2026-04-10T15:25:48Z</time></rtept><rtept lat="38.164136" lon="-106.617736"><ele>2979.6</ele><time>2026-04-10T15:25:48Z</time></rtept><rtept lat="38.164013" lon="-106.61804"><ele>2980.4</ele><time>2026-04-10T15:25:48Z</time></rtept><rtept lat="38.163928" lon="-106.618245"><ele>2980.8</ele><time>2026-04-10T15:25:48Z</time></rtept><rtept lat="38.163881" lon="-106.61849"><ele>2979.8</ele><time>2026-04-10T15:25:48Z</time></rtept><rtept lat="38.1638" lon="-106.618986"><ele>2975.8</ele><time>2026-04-10T15:25:48Z</time></rtept><rtept lat="38.163729" lon="-106.619365"><ele>2972.0</ele><time>2026-04-10T15:25:48Z</time></rtept><rtept lat="38.163666" lon="-106.619586"><ele>2968.8</ele><time>2026-04-10T15:25:48Z</time></rtept><rtept lat="38.163545" lon="-106.619736"><ele>2969.4</ele><time>2026-04-10T15:25:48Z</time></rtept><rtept lat="38.163393" lon="-106.61986"><ele>2968.8</ele><time>2026-04-10T15:25:48Z</time></rtept><rtept lat="38.163133" lon="-106.62005"><ele>2970.8</ele><time>2026-04-10T15:25:48Z</time></rtept><rtept lat="38.16257" lon="-106.620377"><ele>2971.0</ele><time>2026-04-10T15:25:48Z</time></rtept><rtept lat="38.162159" lon="-106.620587"><ele>2969.6</ele><time>2026-04-10T15:25:48Z</time></rtept><rtept lat="38.161942" lon="-106.620669"><ele>2968.6</ele><time>2026-04-10T15:25:48Z</time></rtept><rtept lat="38.161767" lon="-106.620681"><ele>2968.8</ele><time>2026-04-10T15:25:48Z</time></rtept><rtept lat="38.161285" lon="-106.620538"><ele>2968.4</ele><time>2026-04-10T15:25:48Z</time></rtept><rtept lat="38.161336" lon="-106.620688"><ele>2967.6</ele><time>2026-04-10T15:25:48Z</time></rtept><rtept lat="38.16137" lon="-106.620914"><ele>2966.8</ele><time>2026-04-10T15:25:48Z</time></rtept><rtept lat="38.16137" lon="-106.62108"><ele>2965.6</ele><time>2026-04-10T15:25:48Z</time></rtept><rtept lat="38.161325" lon="-106.621186"><ele>2965.0</ele><time>2026-04-10T15:25:48Z</time></rtept><rtept lat="38.161226" lon="-106.621252"><ele>2963.6</ele><time>2026-04-10T15:25:48Z</time></rtept><rtept lat="38.161088" lon="-106.621275"><ele>2961.8</ele><time>2026-04-10T15:25:48Z</time></rtept><rtept lat="38.160974" lon="-106.621214"><ele>2960.0</ele><time>2026-04-10T15:25:48Z</time></rtept><rtept lat="38.160844" lon="-106.621109"><ele>2959.4</ele><time>2026-04-10T15:25:48Z</time></rtept><rtept lat="38.160804" lon="-106.621042"><ele>2958.4</ele><time>2026-04-10T15:25:48Z</time></rtept><rtept lat="38.160804" lon="-106.621042"><ele>2958.4</ele><time>2026-04-10T15:25:48Z</time></rtept><rtept lat="38.160712" lon="-106.620886"><ele>2958.4</ele><time>2026-04-10T15:25:48Z</time></rtept><rtept lat="38.160524" lon="-106.620489"><ele>2957.6</ele><time>2026-04-10T15:25:48Z</time></rtept><rtept lat="38.160298" lon="-106.62001"><ele>2956.4</ele><time>2026-04-10T15:25:48Z</time></rtept><rtept lat="38.160129" lon="-106.619669"><ele>2955.4</ele><time>2026-04-10T15:25:48Z</time></rtept><rtept lat="38.160001" lon="-106.61944"><ele>2955.0</ele><time>2026-04-10T15:25:48Z</time></rtept><rtept lat="38.159878" lon="-106.619272"><ele>2955.2</ele><time>2026-04-10T15:25:48Z</time></rtept><rtept lat="38.159711" lon="-106.619071"><ele>2952.4</ele><time>2026-04-10T15:25:48Z</time></rtept><rtept lat="38.15962" lon="-106.618916"><ele>2949.8</ele><time>2026-04-10T15:25:48Z</time></rtept><rtept lat="38.159499" lon="-106.618727"><ele>2947.6</ele><time>2026-04-10T15:25:48Z</time></rtept><rtept lat="38.159405" lon="-106.618564"><ele>2947.6</ele><time>2026-04-10T15:25:48Z</time></rtept><rtept lat="38.159202" lon="-106.618335"><ele>2946.6</ele><time>2026-04-10T15:25:48Z</time></rtept><rtept lat="38.159018" lon="-106.618124"><ele>2945.8</ele><time>2026-04-10T15:25:48Z</time></rtept><rtept lat="38.158837" lon="-106.61789"><ele>2946.0</ele><time>2026-04-10T15:25:48Z</time></rtept><rtept lat="38.158711" lon="-106.617732"><ele>2946.0</ele><time>2026-04-10T15:25:48Z</time></rtept><rtept lat="38.158615" lon="-106.617508"><ele>2946.6</ele><time>2026-04-10T15:25:48Z</time></rtept><rtept lat="38.158548" lon="-106.617362"><ele>2947.2</ele><time>2026-04-10T15:25:48Z</time></rtept><rtept lat="38.158471" lon="-106.617312"><ele>2947.2</ele><time>2026-04-10T15:25:48Z</time></rtept><rtept lat="38.158391" lon="-106.617318"><ele>2946.6</ele><time>2026-04-10T15:25:48Z</time></rtept><rtept lat="38.158328" lon="-106.617391"><ele>2945.8</ele><time>2026-04-10T15:25:48Z</time></rtept><rtept lat="38.158296" lon="-106.617489"><ele>2944.6</ele><time>2026-04-10T15:25:48Z</time></rtept><rtept lat="38.158304" lon="-106.617618"><ele>2943.4</ele><time>2026-04-10T15:25:48Z</time></rtept><rtept lat="38.158362" lon="-106.617753"><ele>2943.4</ele><time>2026-04-10T15:25:48Z</time></rtept><rtept lat="38.158477" lon="-106.617912"><ele>2943.0</ele><time>2026-04-10T15:25:48Z</time></rtept><rtept lat="38.158601" lon="-106.618069"><ele>2942.8</ele><time>2026-04-10T15:25:48Z</time></rtept><rtept lat="38.158735" lon="-106.618322"><ele>2941.6</ele><time>2026-04-10T15:25:48Z</time></rtept><rtept lat="38.158882" lon="-106.618571"><ele>2939.4</ele><time>2026-04-10T15:25:48Z</time></rtept><rtept lat="38.159004" lon="-106.618839"><ele>2938.8</ele><time>2026-04-10T15:25:48Z</time></rtept><rtept lat="38.159077" lon="-106.619093"><ele>2938.0</ele><time>2026-04-10T15:25:48Z</time></rtept><rtept lat="38.159161" lon="-106.619478"><ele>2936.8</ele><time>2026-04-10T15:25:48Z</time></rtept><rtept lat="38.159379" lon="-106.620645"><ele>2933.8</ele><time>2026-04-10T15:25:48Z</time></rtept><rtept lat="38.159232" lon="-106.620633"><ele>2932.8</ele><time>2026-04-10T15:25:48Z</time></rtept><rtept lat="38.15903" lon="-106.620451"><ele>2934.2</ele><time>2026-04-10T15:25:48Z</time></rtept><rtept lat="38.158971" lon="-106.620353"><ele>2935.0</ele><time>2026-04-10T15:25:48Z</time></rtept><rtept lat="38.158646" lon="-106.619635"><ele>2937.0</ele><time>2026-04-10T15:25:48Z</time></rtept><rtept lat="38.15852" lon="-106.619248"><ele>2937.0</ele><time>2026-04-10T15:25:48Z</time></rtept><rtept lat="38.158421" lon="-106.619006"><ele>2937.6</ele><time>2026-04-10T15:25:48Z</time></rtept><rtept lat="38.158353" lon="-106.618888"><ele>2938.0</ele><time>2026-04-10T15:25:48Z</time></rtept><rtept lat="38.15828" lon="-106.618804"><ele>2938.2</ele><time>2026-04-10T15:25:48Z</time></rtept><rtept lat="38.15816" lon="-106.618706"><ele>2938.4</ele><time>2026-04-10T15:25:48Z</time></rtept><rtept lat="38.158069" lon="-106.618661"><ele>2938.8</ele><time>2026-04-10T15:25:48Z</time></rtept><rtept lat="38.157915" lon="-106.618606"><ele>2939.2</ele><time>2026-04-10T15:25:48Z</time></rtept><rtept lat="38.157539" lon="-106.618519"><ele>2940.8</ele><time>2026-04-10T15:25:48Z</time></rtept><rtept lat="38.157202" lon="-106.618514"><ele>2942.4</ele><time>2026-04-10T15:25:48Z</time></rtept><rtept lat="38.156934" lon="-106.618539"><ele>2944.0</ele><time>2026-04-10T15:25:48Z</time></rtept><rtept lat="38.156421" lon="-106.618614"><ele>2945.4</ele><time>2026-04-10T15:25:48Z</time></rtept><rtept lat="38.155955" lon="-106.618708"><ele>2947.4</ele><time>2026-04-10T15:25:48Z</time></rtept><rtept lat="38.155813" lon="-106.618771"><ele>2948.6</ele><time>2026-04-10T15:25:48Z</time></rtept><rtept lat="38.155373" lon="-106.619075"><ele>2951.8</ele><time>2026-04-10T15:25:48Z</time></rtept><rtept lat="38.154669" lon="-106.619453"><ele>2956.8</ele><time>2026-04-10T15:25:48Z</time></rtept><rtept lat="38.154482" lon="-106.619608"><ele>2959.0</ele><time>2026-04-10T15:25:48Z</time></rtept><rtept lat="38.15431" lon="-106.619784"><ele>2960.8</ele><time>2026-04-10T15:25:48Z</time></rtept><rtept lat="38.154203" lon="-106.619834"><ele>2961.4</ele><time>2026-04-10T15:25:48Z</time></rtept><rtept lat="38.154063" lon="-106.619816"><ele>2960.6</ele><time>2026-04-10T15:25:48Z</time></rtept><rtept lat="38.153834" lon="-106.619669"><ele>2960.6</ele><time>2026-04-10T15:25:48Z</time></rtept><rtept lat="38.153749" lon="-106.61968"><ele>2961.0</ele><time>2026-04-10T15:25:48Z</time></rtept><rtept lat="38.153503" lon="-106.619725"><ele>2962.2</ele><time>2026-04-10T15:25:48Z</time></rtept><rtept lat="38.153113" lon="-106.619675"><ele>2963.2</ele><time>2026-04-10T15:25:48Z</time></rtept><rtept lat="38.152838" lon="-106.619673"><ele>2963.0</ele><time>2026-04-10T15:25:48Z</time></rtept><rtept lat="38.152403" lon="-106.619628"><ele>2963.6</ele><time>2026-04-10T15:25:48Z</time></rtept><rtept lat="38.152041" lon="-106.619683"><ele>2965.6</ele><time>2026-04-10T15:25:48Z</time></rtept><rtept lat="38.151895" lon="-106.619775"><ele>2966.4</ele><time>2026-04-10T15:25:48Z</time></rtept><rtept lat="38.1518" lon="-106.619895"><ele>2967.2</ele><time>2026-04-10T15:25:48Z</time></rtept><rtept lat="38.151653" lon="-106.620054"><ele>2969.0</ele><time>2026-04-10T15:25:48Z</time></rtept><rtept lat="38.151169" lon="-106.620669"><ele>2974.0</ele><time>2026-04-10T15:25:48Z</time></rtept><rtept lat="38.150835" lon="-106.620966"><ele>2974.6</ele><time>2026-04-10T15:25:48Z</time></rtept><rtept lat="38.150736" lon="-106.62108"><ele>2975.0</ele><time>2026-04-10T15:25:48Z</time></rtept><rtept lat="38.150632" lon="-106.6213"><ele>2977.0</ele><time>2026-04-10T15:25:48Z</time></rtept><rtept lat="38.150545" lon="-106.621423"><ele>2978.2</ele><time>2026-04-10T15:25:48Z</time></rtept><rtept lat="38.150387" lon="-106.621548"><ele>2979.2</ele><time>2026-04-10T15:25:48Z</time></rtept><rtept lat="38.150308" lon="-106.621637"><ele>2979.8</ele><time>2026-04-10T15:25:48Z</time></rtept><rtept lat="38.15016" lon="-106.621888"><ele>2982.0</ele><time>2026-04-10T15:25:48Z</time></rtept><rtept lat="38.149983" lon="-106.622405"><ele>2983.6</ele><time>2026-04-10T15:25:48Z</time></rtept><rtept lat="38.149778" lon="-106.622894"><ele>2983.4</ele><time>2026-04-10T15:25:48Z</time></rtept><rtept lat="38.149758" lon="-106.623071"><ele>2983.0</ele><time>2026-04-10T15:25:48Z</time></rtept><rtept lat="38.149793" lon="-106.623552"><ele>2981.2</ele><time>2026-04-10T15:25:48Z</time></rtept><rtept lat="38.149792" lon="-106.623945"><ele>2979.4</ele><time>2026-04-10T15:25:48Z</time></rtept><rtept lat="38.149754" lon="-106.624727"><ele>2977.0</ele><time>2026-04-10T15:25:48Z</time></rtept><rtept lat="38.149749" lon="-106.625263"><ele>2975.8</ele><time>2026-04-10T15:25:48Z</time></rtept><rtept lat="38.149687" lon="-106.625863"><ele>2975.2</ele><time>2026-04-10T15:25:48Z</time></rtept><rtept lat="38.149664" lon="-106.62626"><ele>2974.4</ele><time>2026-04-10T15:25:48Z</time></rtept><rtept lat="38.149645" lon="-106.62743"><ele>2970.4</ele><time>2026-04-10T15:25:48Z</time></rtept><rtept lat="38.149652" lon="-106.628365"><ele>2967.2</ele><time>2026-04-10T15:25:48Z</time></rtept><rtept lat="38.149637" lon="-106.628679"><ele>2966.2</ele><time>2026-04-10T15:25:48Z</time></rtept><rtept lat="38.149584" lon="-106.628941"><ele>2964.2</ele><time>2026-04-10T15:25:48Z</time></rtept><rtept lat="38.149466" lon="-106.629207"><ele>2960.2</ele><time>2026-04-10T15:25:48Z</time></rtept><rtept lat="38.149429" lon="-106.629343"><ele>2959.8</ele><time>2026-04-10T15:25:48Z</time></rtept><rtept lat="38.149432" lon="-106.629445"><ele>2958.4</ele><time>2026-04-10T15:25:48Z</time></rtept><rtept lat="38.149524" lon="-106.629871"><ele>2955.8</ele><time>2026-04-10T15:25:48Z</time></rtept><rtept lat="38.149551" lon="-106.630063"><ele>2955.0</ele><time>2026-04-10T15:25:48Z</time></rtept><rtept lat="38.149758" lon="-106.630925"><ele>2952.0</ele><time>2026-04-10T15:25:48Z</time></rtept><rtept lat="38.149814" lon="-106.631216"><ele>2953.2</ele><time>2026-04-10T15:25:48Z</time></rtept><rtept lat="38.149704" lon="-106.631817"><ele>2949.0</ele><time>2026-04-10T15:25:48Z</time></rtept><rtept lat="38.149717" lon="-106.632067"><ele>2949.0</ele><time>2026-04-10T15:25:48Z</time></rtept><rtept lat="38.149534" lon="-106.632938"><ele>2944.6</ele><time>2026-04-10T15:25:48Z</time></rtept><rtept lat="38.149494" lon="-106.633627"><ele>2945.2</ele><time>2026-04-10T15:25:48Z</time></rtept><rtept lat="38.149488" lon="-106.634131"><ele>2944.2</ele><time>2026-04-10T15:25:48Z</time></rtept><rtept lat="38.149358" lon="-106.634812"><ele>2942.4</ele><time>2026-04-10T15:25:48Z</time></rtept><rtept lat="38.149157" lon="-106.635353"><ele>2939.4</ele><time>2026-04-10T15:25:48Z</time></rtept><rtept lat="38.149123" lon="-106.635582"><ele>2938.0</ele><time>2026-04-10T15:25:48Z</time></rtept><rtept lat="38.149107" lon="-106.636036"><ele>2936.8</ele><time>2026-04-10T15:25:48Z</time></rtept><rtept lat="38.149419" lon="-106.63665"><ele>2939.4</ele><time>2026-04-10T15:25:48Z</time></rtept><rtept lat="38.149422" lon="-106.637005"><ele>2935.2</ele><time>2026-04-10T15:25:48Z</time></rtept><rtept lat="38.14936" lon="-106.637441"><ele>2933.4</ele><time>2026-04-10T15:25:48Z</time></rtept><rtept lat="38.149382" lon="-106.638028"><ele>2933.0</ele><time>2026-04-10T15:25:48Z</time></rtept><rtept lat="38.149383" lon="-106.638472"><ele>2931.8</ele><time>2026-04-10T15:25:48Z</time></rtept><rtept lat="38.14934" lon="-106.638723"><ele>2928.2</ele><time>2026-04-10T15:25:48Z</time></rtept><rtept lat="38.148964" lon="-106.638619"><ele>2931.4</ele><time>2026-04-10T15:25:48Z</time></rtept><rtept lat="38.148742" lon="-106.638406"><ele>2936.8</ele><time>2026-04-10T15:25:48Z</time></rtept><rtept lat="38.148253" lon="-106.638188"><ele>2945.2</ele><time>2026-04-10T15:25:48Z</time></rtept><rtept lat="38.147679" lon="-106.638125"><ele>2950.0</ele><time>2026-04-10T15:25:48Z</time></rtept><rtept lat="38.146918" lon="-106.63804"><ele>2955.2</ele><time>2026-04-10T15:25:48Z</time></rtept><rtept lat="38.147163" lon="-106.638278"><ele>2954.2</ele><time>2026-04-10T15:25:48Z</time></rtept><rtept lat="38.147215" lon="-106.638312"><ele>2954.0</ele><time>2026-04-10T15:25:48Z</time></rtept><rtept lat="38.147215" lon="-106.638312"><ele>2954.0</ele><time>2026-04-10T15:25:48Z</time></rtept><rtept lat="38.147631" lon="-106.638586"><ele>2951.6</ele><time>2026-04-10T15:25:48Z</time></rtept><rtept lat="38.147632" lon="-106.638593"><ele>2951.6</ele><time>2026-04-10T15:25:48Z</time></rtept><rtept lat="38.147715" lon="-106.639049"><ele>2951.4</ele><time>2026-04-10T15:25:48Z</time></rtept><rtept lat="38.147792" lon="-106.639577"><ele>2949.6</ele><time>2026-04-10T15:25:48Z</time></rtept><rtept lat="38.147784" lon="-106.640175"><ele>2948.2</ele><time>2026-04-10T15:25:48Z</time></rtept><rtept lat="38.147647" lon="-106.640569"><ele>2948.6</ele><time>2026-04-10T15:25:48Z</time></rtept><rtept lat="38.147462" lon="-106.641137"><ele>2945.8</ele><time>2026-04-10T15:25:48Z</time></rtept><rtept lat="38.147402" lon="-106.641327"><ele>2944.4</ele><time>2026-04-10T15:25:48Z</time></rtept><rtept lat="38.147478" lon="-106.641685"><ele>2941.0</ele><time>2026-04-10T15:25:48Z</time></rtept><rtept lat="38.147534" lon="-106.64211"><ele>2940.0</ele><time>2026-04-10T15:25:48Z</time></rtept><rtept lat="38.147663" lon="-106.642371"><ele>2939.0</ele><time>2026-04-10T15:25:48Z</time></rtept><rtept lat="38.147788" lon="-106.642575"><ele>2937.4</ele><time>2026-04-10T15:25:48Z</time></rtept><rtept lat="38.147848" lon="-106.642964"><ele>2938.4</ele><time>2026-04-10T15:25:48Z</time></rtept><rtept lat="38.14786" lon="-106.643988"><ele>2936.2</ele><time>2026-04-10T15:25:48Z</time></rtept><rtept lat="38.147695" lon="-106.644208"><ele>2935.6</ele><time>2026-04-10T15:25:48Z</time></rtept><rtept lat="38.147675" lon="-106.644397"><ele>2934.0</ele><time>2026-04-10T15:25:48Z</time></rtept><rtept lat="38.14778" lon="-106.644633"><ele>2933.2</ele><time>2026-04-10T15:25:48Z</time></rtept><rtept lat="38.147928" lon="-106.644876"><ele>2931.4</ele><time>2026-04-10T15:25:48Z</time></rtept><rtept lat="38.148171" lon="-106.645146"><ele>2931.0</ele><time>2026-04-10T15:25:48Z</time></rtept><rtept lat="38.14839" lon="-106.645196"><ele>2928.6</ele><time>2026-04-10T15:25:48Z</time></rtept><rtept lat="38.14873" lon="-106.645146"><ele>2924.4</ele><time>2026-04-10T15:25:48Z</time></rtept><rtept lat="38.148938" lon="-106.645208"><ele>2921.2</ele><time>2026-04-10T15:25:48Z</time></rtept><rtept lat="38.149125" lon="-106.645269"><ele>2920.0</ele><time>2026-04-10T15:25:48Z</time></rtept><rtept lat="38.149364" lon="-106.645568"><ele>2917.8</ele><time>2026-04-10T15:25:48Z</time></rtept><rtept lat="38.149547" lon="-106.645939"><ele>2916.0</ele><time>2026-04-10T15:25:48Z</time></rtept><rtept lat="38.149459" lon="-106.64622"><ele>2918.2</ele><time>2026-04-10T15:25:48Z</time></rtept><rtept lat="38.149253" lon="-106.646672"><ele>2921.2</ele><time>2026-04-10T15:25:48Z</time></rtept><rtept lat="38.148954" lon="-106.647339"><ele>2924.4</ele><time>2026-04-10T15:25:48Z</time></rtept><rtept lat="38.148829" lon="-106.648104"><ele>2927.4</ele><time>2026-04-10T15:25:48Z</time></rtept><rtept lat="38.148697" lon="-106.648913"><ele>2933.8</ele><time>2026-04-10T15:25:48Z</time></rtept><rtept lat="38.14855" lon="-106.649528"><ele>2938.2</ele><time>2026-04-10T15:25:48Z</time></rtept><rtept lat="38.148401" lon="-106.650355"><ele>2943.6</ele><time>2026-04-10T15:25:48Z</time></rtept><rtept lat="38.148478" lon="-106.651014"><ele>2946.8</ele><time>2026-04-10T15:25:48Z</time></rtept><rtept lat="38.148589" lon="-106.651826"><ele>2950.6</ele><time>2026-04-10T15:25:48Z</time></rtept><rtept lat="38.148599" lon="-106.652737"><ele>2952.8</ele><time>2026-04-10T15:25:48Z</time></rtept><rtept lat="38.148823" lon="-106.65351"><ele>2957.6</ele><time>2026-04-10T15:25:48Z</time></rtept><rtept lat="38.148929" lon="-106.653903"><ele>2959.0</ele><time>2026-04-10T15:25:48Z</time></rtept><rtept lat="38.149242" lon="-106.654765"><ele>2955.4</ele><time>2026-04-10T15:25:48Z</time></rtept><rtept lat="38.149389" lon="-106.654932"><ele>2954.0</ele><time>2026-04-10T15:25:48Z</time></rtept><rtept lat="38.149711" lon="-106.655511"><ele>2950.2</ele><time>2026-04-10T15:25:48Z</time></rtept><rtept lat="38.150035" lon="-106.656131"><ele>2946.2</ele><time>2026-04-10T15:25:48Z</time></rtept><rtept lat="38.150233" lon="-106.656748"><ele>2945.2</ele><time>2026-04-10T15:25:48Z</time></rtept><rtept lat="38.150472" lon="-106.657253"><ele>2943.6</ele><time>2026-04-10T15:25:48Z</time></rtept><rtept lat="38.150749" lon="-106.657674"><ele>2942.0</ele><time>2026-04-10T15:25:48Z</time></rtept><rtept lat="38.151078" lon="-106.658367"><ele>2937.2</ele><time>2026-04-10T15:25:48Z</time></rtept><rtept lat="38.151238" lon="-106.65884"><ele>2934.0</ele><time>2026-04-10T15:25:48Z</time></rtept><rtept lat="38.151232" lon="-106.659334"><ele>2929.6</ele><time>2026-04-10T15:25:48Z</time></rtept><rtept lat="38.151188" lon="-106.660495"><ele>2916.6</ele><time>2026-04-10T15:25:48Z</time></rtept><rtept lat="38.151095" lon="-106.661104"><ele>2907.8</ele><time>2026-04-10T15:25:48Z</time></rtept><rtept lat="38.151128" lon="-106.661902"><ele>2898.2</ele><time>2026-04-10T15:25:48Z</time></rtept><rtept lat="38.151099" lon="-106.662446"><ele>2890.8</ele><time>2026-04-10T15:25:48Z</time></rtept><rtept lat="38.15116" lon="-106.662847"><ele>2886.6</ele><time>2026-04-10T15:25:48Z</time></rtept><rtept lat="38.15105" lon="-106.663632"><ele>2885.8</ele><time>2026-04-10T15:25:48Z</time></rtept><rtept lat="38.151042" lon="-106.663989"><ele>2885.2</ele><time>2026-04-10T15:25:48Z</time></rtept><rtept lat="38.150911" lon="-106.665899"><ele>2880.6</ele><time>2026-04-10T15:25:48Z</time></rtept><rtept lat="38.150831" lon="-106.667092"><ele>2876.8</ele><time>2026-04-10T15:25:48Z</time></rtept><rtept lat="38.150744" lon="-106.668282"><ele>2873.8</ele><time>2026-04-10T15:25:48Z</time></rtept><rtept lat="38.150668" lon="-106.669526"><ele>2872.2</ele><time>2026-04-10T15:25:48Z</time></rtept><rtept lat="38.150582" lon="-106.670465"><ele>2872.4</ele><time>2026-04-10T15:25:48Z</time></rtept><rtept lat="38.150582" lon="-106.670465"><ele>2872.4</ele><time>2026-04-10T15:25:48Z</time></rtept><rtept lat="38.15056" lon="-106.670699"><ele>2871.4</ele><time>2026-04-10T15:25:48Z</time></rtept><rtept lat="38.150513" lon="-106.670876"><ele>2870.8</ele><time>2026-04-10T15:25:48Z</time></rtept><rtept lat="38.150535" lon="-106.671365"><ele>2870.2</ele><time>2026-04-10T15:25:48Z</time></rtept><rtept lat="38.150476" lon="-106.672261"><ele>2869.4</ele><time>2026-04-10T15:25:48Z</time></rtept><rtept lat="38.15028" lon="-106.672636"><ele>2869.4</ele><time>2026-04-10T15:25:48Z</time></rtept><rtept lat="38.150114" lon="-106.67392"><ele>2868.0</ele><time>2026-04-10T15:25:48Z</time></rtept><rtept lat="38.149772" lon="-106.676268"><ele>2862.2</ele><time>2026-04-10T15:25:48Z</time></rtept><rtept lat="38.149722" lon="-106.676766"><ele>2860.8</ele><time>2026-04-10T15:25:48Z</time></rtept><rtept lat="38.149664" lon="-106.677592"><ele>2859.4</ele><time>2026-04-10T15:25:48Z</time></rtept><rtept lat="38.149438" lon="-106.678893"><ele>2857.6</ele><time>2026-04-10T15:25:48Z</time></rtept><rtept lat="38.14916" lon="-106.680577"><ele>2855.6</ele><time>2026-04-10T15:25:48Z</time></rtept><rtept lat="38.149033" lon="-106.681178"><ele>2856.2</ele><time>2026-04-10T15:25:48Z</time></rtept><rtept lat="38.148979" lon="-106.681658"><ele>2858.2</ele><time>2026-04-10T15:25:48Z</time></rtept><rtept lat="38.148713" lon="-106.682594"><ele>2860.4</ele><time>2026-04-10T15:25:48Z</time></rtept><rtept lat="38.148598" lon="-106.683462"><ele>2859.4</ele><time>2026-04-10T15:25:48Z</time></rtept><rtept lat="38.148535" lon="-106.684194"><ele>2857.8</ele><time>2026-04-10T15:25:48Z</time></rtept><rtept lat="38.148437" lon="-106.684717"><ele>2855.8</ele><time>2026-04-10T15:25:48Z</time></rtept><rtept lat="38.148383" lon="-106.685346"><ele>2854.4</ele><time>2026-04-10T15:25:48Z</time></rtept><rtept lat="38.148449" lon="-106.685739"><ele>2854.0</ele><time>2026-04-10T15:25:48Z</time></rtept><rtept lat="38.148633" lon="-106.686358"><ele>2853.6</ele><time>2026-04-10T15:25:48Z</time></rtept><rtept lat="38.148872" lon="-106.686823"><ele>2853.6</ele><time>2026-04-10T15:25:48Z</time></rtept><rtept lat="38.149139" lon="-106.687269"><ele>2852.0</ele><time>2026-04-10T15:25:48Z</time></rtept><rtept lat="38.149512" lon="-106.687773"><ele>2849.8</ele><time>2026-04-10T15:25:48Z</time></rtept><rtept lat="38.149673" lon="-106.688106"><ele>2848.8</ele><time>2026-04-10T15:25:48Z</time></rtept><rtept lat="38.149906" lon="-106.688621"><ele>2847.4</ele><time>2026-04-10T15:25:48Z</time></rtept><rtept lat="38.150019" lon="-106.688874"><ele>2847.0</ele><time>2026-04-10T15:25:48Z</time></rtept><rtept lat="38.150095" lon="-106.689101"><ele>2846.6</ele><time>2026-04-10T15:25:48Z</time></rtept><rtept lat="38.150035" lon="-106.689114"><ele>2846.8</ele><time>2026-04-10T15:25:48Z</time></rtept><rtept lat="38.150035" lon="-106.689114"><ele>2846.8</ele><time>2026-04-10T15:25:48Z</time></rtept><rtept lat="38.14934" lon="-106.689262"><ele>2848.2</ele><time>2026-04-10T15:25:48Z</time></rtept><rtept lat="38.148138" lon="-106.689756"><ele>2852.4</ele><time>2026-04-10T15:25:48Z</time></rtept><rtept lat="38.147354" lon="-106.689926"><ele>2854.2</ele><time>2026-04-10T15:25:48Z</time></rtept><rtept lat="38.145769" lon="-106.690229"><ele>2858.6</ele><time>2026-04-10T15:25:48Z</time></rtept><rtept lat="38.144067" lon="-106.690196"><ele>2860.4</ele><time>2026-04-10T15:25:48Z</time></rtept><rtept lat="38.143648" lon="-106.690417"><ele>2859.8</ele><time>2026-04-10T15:25:48Z</time></rtept><rtept lat="38.143078" lon="-106.690795"><ele>2859.6</ele><time>2026-04-10T15:25:48Z</time></rtept><rtept lat="38.142391" lon="-106.690782"><ele>2859.6</ele><time>2026-04-10T15:25:48Z</time></rtept><rtept lat="38.142283" lon="-106.69088"><ele>2859.0</ele><time>2026-04-10T15:25:48Z</time></rtept><rtept lat="38.142257" lon="-106.691068"><ele>2856.4</ele><time>2026-04-10T15:25:48Z</time></rtept><rtept lat="38.142324" lon="-106.691294"><ele>2855.0</ele><time>2026-04-10T15:25:48Z</time></rtept><rtept lat="38.142366" lon="-106.691599"><ele>2853.4</ele><time>2026-04-10T15:25:48Z</time></rtept><rtept lat="38.142278" lon="-106.691954"><ele>2854.4</ele><time>2026-04-10T15:25:48Z</time></rtept><rtept lat="38.142133" lon="-106.692149"><ele>2855.4</ele><time>2026-04-10T15:25:48Z</time></rtept><rtept lat="38.141926" lon="-106.69219"><ele>2856.2</ele><time>2026-04-10T15:25:48Z</time></rtept><rtept lat="38.141541" lon="-106.692142"><ele>2857.6</ele><time>2026-04-10T15:25:48Z</time></rtept><rtept lat="38.141248" lon="-106.692198"><ele>2859.4</ele><time>2026-04-10T15:25:48Z</time></rtept><rtept lat="38.140862" lon="-106.692332"><ele>2861.6</ele><time>2026-04-10T15:25:48Z</time></rtept><rtept lat="38.140204" lon="-106.692382"><ele>2865.2</ele><time>2026-04-10T15:25:48Z</time></rtept><rtept lat="38.139727" lon="-106.692233"><ele>2868.2</ele><time>2026-04-10T15:25:48Z</time></rtept><rtept lat="38.13928" lon="-106.69218"><ele>2870.2</ele><time>2026-04-10T15:25:48Z</time></rtept><rtept lat="38.138968" lon="-106.692112"><ele>2871.2</ele><time>2026-04-10T15:25:48Z</time></rtept><rtept lat="38.138298" lon="-106.691809"><ele>2873.6</ele><time>2026-04-10T15:25:48Z</time></rtept><rtept lat="38.137811" lon="-106.691685"><ele>2875.6</ele><time>2026-04-10T15:25:48Z</time></rtept><rtept lat="38.13722" lon="-106.6916"><ele>2878.0</ele><time>2026-04-10T15:25:48Z</time></rtept><rtept lat="38.136929" lon="-106.691647"><ele>2879.8</ele><time>2026-04-10T15:25:48Z</time></rtept><rtept lat="38.136313" lon="-106.691847"><ele>2884.8</ele><time>2026-04-10T15:25:48Z</time></rtept><rtept lat="38.136082" lon="-106.691977"><ele>2885.8</ele><time>2026-04-10T15:25:48Z</time></rtept><rtept lat="38.135873" lon="-106.692209"><ele>2887.2</ele><time>2026-04-10T15:25:48Z</time></rtept><rtept lat="38.135553" lon="-106.692668"><ele>2892.2</ele><time>2026-04-10T15:25:48Z</time></rtept><rtept lat="38.135319" lon="-106.692829"><ele>2894.6</ele><time>2026-04-10T15:25:48Z</time></rtept><rtept lat="38.134744" lon="-106.692968"><ele>2899.6</ele><time>2026-04-10T15:25:48Z</time></rtept><rtept lat="38.134435" lon="-106.693214"><ele>2900.4</ele><time>2026-04-10T15:25:48Z</time></rtept><rtept lat="38.134223" lon="-106.693596"><ele>2899.4</ele><time>2026-04-10T15:25:48Z</time></rtept><rtept lat="38.134106" lon="-106.694076"><ele>2895.0</ele><time>2026-04-10T15:25:48Z</time></rtept><rtept lat="38.134144" lon="-106.694471"><ele>2893.0</ele><time>2026-04-10T15:25:48Z</time></rtept><rtept lat="38.134441" lon="-106.69539"><ele>2888.6</ele><time>2026-04-10T15:25:48Z</time></rtept><rtept lat="38.134438" lon="-106.695655"><ele>2887.0</ele><time>2026-04-10T15:25:48Z</time></rtept><rtept lat="38.134269" lon="-106.695928"><ele>2886.4</ele><time>2026-04-10T15:25:48Z</time></rtept><rtept lat="38.133786" lon="-106.696232"><ele>2890.0</ele><time>2026-04-10T15:25:48Z</time></rtept><rtept lat="38.132629" lon="-106.696702"><ele>2897.0</ele><time>2026-04-10T15:25:48Z</time></rtept><rtept lat="38.131642" lon="-106.696976"><ele>2903.4</ele><time>2026-04-10T15:25:48Z</time></rtept><rtept lat="38.131642" lon="-106.696976"><ele>2903.4</ele><time>2026-04-10T15:25:48Z</time></rtept><rtept lat="38.131614" lon="-106.696984"><ele>2903.4</ele><time>2026-04-10T15:25:48Z</time></rtept><rtept lat="38.131514" lon="-106.696996"><ele>2904.2</ele><time>2026-04-10T15:25:48Z</time></rtept><rtept lat="38.131348" lon="-106.697298"><ele>2905.2</ele><time>2026-04-10T15:25:48Z</time></rtept><rtept lat="38.131132" lon="-106.697661"><ele>2906.6</ele><time>2026-04-10T15:25:48Z</time></rtept><rtept lat="38.130775" lon="-106.698193"><ele>2908.4</ele><time>2026-04-10T15:25:48Z</time></rtept><rtept lat="38.130369" lon="-106.699132"><ele>2904.8</ele><time>2026-04-10T15:25:48Z</time></rtept><rtept lat="38.130304" lon="-106.699327"><ele>2903.0</ele><time>2026-04-10T15:25:48Z</time></rtept><rtept lat="38.130132" lon="-106.69985"><ele>2902.6</ele><time>2026-04-10T15:25:48Z</time></rtept><rtept lat="38.129894" lon="-106.700502"><ele>2903.8</ele><time>2026-04-10T15:25:48Z</time></rtept><rtept lat="38.129624" lon="-106.700984"><ele>2904.4</ele><time>2026-04-10T15:25:48Z</time></rtept><rtept lat="38.129123" lon="-106.701389"><ele>2907.6</ele><time>2026-04-10T15:25:48Z</time></rtept><rtept lat="38.128786" lon="-106.701902"><ele>2915.0</ele><time>2026-04-10T15:25:48Z</time></rtept><rtept lat="38.128367" lon="-106.702516"><ele>2920.6</ele><time>2026-04-10T15:25:48Z</time></rtept><rtept lat="38.127854" lon="-106.703702"><ele>2928.6</ele><time>2026-04-10T15:25:48Z</time></rtept><rtept lat="38.127468" lon="-106.704839"><ele>2940.8</ele><time>2026-04-10T15:25:48Z</time></rtept><rtept lat="38.12704" lon="-106.706078"><ele>2952.0</ele><time>2026-04-10T15:25:48Z</time></rtept><rtept lat="38.126614" lon="-106.707213"><ele>2960.0</ele><time>2026-04-10T15:25:48Z</time></rtept><rtept lat="38.126515" lon="-106.708096"><ele>2959.2</ele><time>2026-04-10T15:25:48Z</time></rtept><rtept lat="38.126173" lon="-106.709025"><ele>2958.2</ele><time>2026-04-10T15:25:48Z</time></rtept><rtept lat="38.125797" lon="-106.709485"><ele>2962.6</ele><time>2026-04-10T15:25:48Z</time></rtept><rtept lat="38.12538" lon="-106.709944"><ele>2966.4</ele><time>2026-04-10T15:25:48Z</time></rtept><rtept lat="38.125005" lon="-106.710352"><ele>2969.8</ele><time>2026-04-10T15:25:48Z</time></rtept><rtept lat="38.124708" lon="-106.710917"><ele>2975.0</ele><time>2026-04-10T15:25:48Z</time></rtept><rtept lat="38.124573" lon="-106.711539"><ele>2975.4</ele><time>2026-04-10T15:25:48Z</time></rtept><rtept lat="38.12456" lon="-106.712424"><ele>2977.8</ele><time>2026-04-10T15:25:48Z</time></rtept><rtept lat="38.124635" lon="-106.713154"><ele>2979.4</ele><time>2026-04-10T15:25:48Z</time></rtept><rtept lat="38.1245" lon="-106.713776"><ele>2978.8</ele><time>2026-04-10T15:25:48Z</time></rtept><rtept lat="38.124408" lon="-106.714502"><ele>2965.4</ele><time>2026-04-10T15:25:48Z</time></rtept><rtept lat="38.12412" lon="-106.714798"><ele>2963.6</ele><time>2026-04-10T15:25:48Z</time></rtept><rtept lat="38.124027" lon="-106.714962"><ele>2960.8</ele><time>2026-04-10T15:25:48Z</time></rtept><rtept lat="38.123909" lon="-106.715057"><ele>2960.2</ele><time>2026-04-10T15:25:48Z</time></rtept><rtept lat="38.123884" lon="-106.715183"><ele>2959.2</ele><time>2026-04-10T15:25:48Z</time></rtept><rtept lat="38.123951" lon="-106.715253"><ele>2958.2</ele><time>2026-04-10T15:25:48Z</time></rtept><rtept lat="38.124122" lon="-106.715296"><ele>2957.2</ele><time>2026-04-10T15:25:48Z</time></rtept><rtept lat="38.124207" lon="-106.715328"><ele>2957.2</ele><time>2026-04-10T15:25:48Z</time></rtept><rtept lat="38.124235" lon="-106.715562"><ele>2958.8</ele><time>2026-04-10T15:25:48Z</time></rtept><rtept lat="38.124204" lon="-106.715796"><ele>2962.6</ele><time>2026-04-10T15:25:48Z</time></rtept><rtept lat="38.12411" lon="-106.716086"><ele>2965.0</ele><time>2026-04-10T15:25:48Z</time></rtept><rtept lat="38.12399" lon="-106.71624"><ele>2966.2</ele><time>2026-04-10T15:25:48Z</time></rtept><rtept lat="38.123822" lon="-106.716656"><ele>2968.6</ele><time>2026-04-10T15:25:48Z</time></rtept><rtept lat="38.123443" lon="-106.717311"><ele>2971.2</ele><time>2026-04-10T15:25:48Z</time></rtept><rtept lat="38.123191" lon="-106.717617"><ele>2973.8</ele><time>2026-04-10T15:25:48Z</time></rtept><rtept lat="38.122942" lon="-106.717963"><ele>2975.4</ele><time>2026-04-10T15:25:48Z</time></rtept><rtept lat="38.122937" lon="-106.718353"><ele>2976.2</ele><time>2026-04-10T15:25:48Z</time></rtept><rtept lat="38.122898" lon="-106.71886"><ele>2978.8</ele><time>2026-04-10T15:25:48Z</time></rtept><rtept lat="38.122883" lon="-106.718914"><ele>2979.2</ele><time>2026-04-10T15:25:48Z</time></rtept><rtept lat="38.122883" lon="-106.718914"><ele>2979.2</ele><time>2026-04-10T15:25:48Z</time></rtept><rtept lat="38.122765" lon="-106.719325"><ele>2981.8</ele><time>2026-04-10T15:25:48Z</time></rtept><rtept lat="38.122568" lon="-106.72014"><ele>2982.2</ele><time>2026-04-10T15:25:48Z</time></rtept><rtept lat="38.122534" lon="-106.720647"><ele>2981.6</ele><time>2026-04-10T15:25:48Z</time></rtept><rtept lat="38.122461" lon="-106.721309"><ele>2981.4</ele><time>2026-04-10T15:25:48Z</time></rtept><rtept lat="38.122386" lon="-106.722127"><ele>2981.4</ele><time>2026-04-10T15:25:48Z</time></rtept><rtept lat="38.122499" lon="-106.723028"><ele>2980.2</ele><time>2026-04-10T15:25:48Z</time></rtept><rtept lat="38.12249" lon="-106.723613"><ele>2980.6</ele><time>2026-04-10T15:25:48Z</time></rtept><rtept lat="38.122692" lon="-106.724282"><ele>2978.2</ele><time>2026-04-10T15:25:48Z</time></rtept><rtept lat="38.122685" lon="-106.724789"><ele>2977.0</ele><time>2026-04-10T15:25:48Z</time></rtept><rtept lat="38.122771" lon="-106.725338"><ele>2976.6</ele><time>2026-04-10T15:25:48Z</time></rtept><rtept lat="38.122764" lon="-106.725845"><ele>2977.8</ele><time>2026-04-10T15:25:48Z</time></rtept><rtept lat="38.122789" lon="-106.726314"><ele>2978.8</ele><time>2026-04-10T15:25:48Z</time></rtept><rtept lat="38.122931" lon="-106.72706"><ele>2980.4</ele><time>2026-04-10T15:25:48Z</time></rtept><rtept lat="38.122982" lon="-106.727881"><ele>2982.2</ele><time>2026-04-10T15:25:48Z</time></rtept><rtept lat="38.123094" lon="-106.728764"><ele>2983.4</ele><time>2026-04-10T15:25:48Z</time></rtept><rtept lat="38.123045" lon="-106.729678"><ele>2984.8</ele><time>2026-04-10T15:25:48Z</time></rtept><rtept lat="38.122967" lon="-106.730235"><ele>2985.2</ele><time>2026-04-10T15:25:48Z</time></rtept><rtept lat="38.122704" lon="-106.731005"><ele>2985.0</ele><time>2026-04-10T15:25:48Z</time></rtept><rtept lat="38.122463" lon="-106.731617"><ele>2984.0</ele><time>2026-04-10T15:25:48Z</time></rtept><rtept lat="38.122203" lon="-106.73226"><ele>2979.8</ele><time>2026-04-10T15:25:48Z</time></rtept><rtept lat="38.12214" lon="-106.732458"><ele>2977.2</ele><time>2026-04-10T15:25:48Z</time></rtept><rtept lat="38.122069" lon="-106.732676"><ele>2975.6</ele><time>2026-04-10T15:25:48Z</time></rtept><rtept lat="38.12213" lon="-106.732992"><ele>2973.6</ele><time>2026-04-10T15:25:48Z</time></rtept><rtept lat="38.123121" lon="-106.733747"><ele>2965.8</ele><time>2026-04-10T15:25:48Z</time></rtept><rtept lat="38.123745" lon="-106.734251"><ele>2960.0</ele><time>2026-04-10T15:25:48Z</time></rtept><rtept lat="38.124231" lon="-106.734334"><ele>2958.0</ele><time>2026-04-10T15:25:48Z</time></rtept><rtept lat="38.124337" lon="-106.734459"><ele>2957.4</ele><time>2026-04-10T15:25:48Z</time></rtept><rtept lat="38.124357" lon="-106.735109"><ele>2958.4</ele><time>2026-04-10T15:25:48Z</time></rtept><rtept lat="38.124376" lon="-106.735703"><ele>2962.4</ele><time>2026-04-10T15:25:48Z</time></rtept><rtept lat="38.124365" lon="-106.736406"><ele>2967.2</ele><time>2026-04-10T15:25:48Z</time></rtept><rtept lat="38.124332" lon="-106.737189"><ele>2972.8</ele><time>2026-04-10T15:25:48Z</time></rtept><rtept lat="38.124263" lon="-106.737701"><ele>2976.4</ele><time>2026-04-10T15:25:48Z</time></rtept><rtept lat="38.124374" lon="-106.738361"><ele>2980.6</ele><time>2026-04-10T15:25:48Z</time></rtept><rtept lat="38.124604" lon="-106.739183"><ele>2985.2</ele><time>2026-04-10T15:25:48Z</time></rtept><rtept lat="38.12484" lon="-106.739794"><ele>2987.8</ele><time>2026-04-10T15:25:48Z</time></rtept><rtept lat="38.12496" lon="-106.740301"><ele>2990.4</ele><time>2026-04-10T15:25:48Z</time></rtept><rtept lat="38.124944" lon="-106.740984"><ele>2993.2</ele><time>2026-04-10T15:25:48Z</time></rtept><rtept lat="38.124783" lon="-106.741696"><ele>2997.2</ele><time>2026-04-10T15:25:48Z</time></rtept><rtept lat="38.124617" lon="-106.742268"><ele>3003.6</ele><time>2026-04-10T15:25:48Z</time></rtept><rtept lat="38.124495" lon="-106.742438"><ele>3006.0</ele><time>2026-04-10T15:25:48Z</time></rtept><rtept lat="38.124495" lon="-106.742438"><ele>3006.0</ele><time>2026-04-10T15:25:48Z</time></rtept><rtept lat="38.124368" lon="-106.742613"><ele>3007.8</ele><time>2026-04-10T15:25:48Z</time></rtept><rtept lat="38.124114" lon="-106.743076"><ele>3012.4</ele><time>2026-04-10T15:25:48Z</time></rtept><rtept lat="38.123829" lon="-106.743421"><ele>3016.2</ele><time>2026-04-10T15:25:48Z</time></rtept><rtept lat="38.12355" lon="-106.743726"><ele>3020.2</ele><time>2026-04-10T15:25:48Z</time></rtept><rtept lat="38.123169" lon="-106.744077"><ele>3024.8</ele><time>2026-04-10T15:25:48Z</time></rtept><rtept lat="38.122913" lon="-106.744422"><ele>3028.2</ele><time>2026-04-10T15:25:48Z</time></rtept><rtept lat="38.122738" lon="-106.744735"><ele>3031.0</ele><time>2026-04-10T15:25:48Z</time></rtept><rtept lat="38.12225" lon="-106.745829"><ele>3038.2</ele><time>2026-04-10T15:25:48Z</time></rtept><rtept lat="38.122198" lon="-106.746084"><ele>3038.8</ele><time>2026-04-10T15:25:48Z</time></rtept><rtept lat="38.122226" lon="-106.746313"><ele>3038.4</ele><time>2026-04-10T15:25:48Z</time></rtept><rtept lat="38.122446" lon="-106.74737"><ele>3036.8</ele><time>2026-04-10T15:25:48Z</time></rtept><rtept lat="38.12251" lon="-106.747841"><ele>3035.4</ele><time>2026-04-10T15:25:48Z</time></rtept><rtept lat="38.122465" lon="-106.748256"><ele>3034.8</ele><time>2026-04-10T15:25:48Z</time></rtept><rtept lat="38.122231" lon="-106.748993"><ele>3032.0</ele><time>2026-04-10T15:25:48Z</time></rtept><rtept lat="38.121969" lon="-106.749723"><ele>3026.6</ele><time>2026-04-10T15:25:48Z</time></rtept><rtept lat="38.121814" lon="-106.750407"><ele>3019.0</ele><time>2026-04-10T15:25:48Z</time></rtept><rtept lat="38.121525" lon="-106.750946"><ele>3007.4</ele><time>2026-04-10T15:25:48Z</time></rtept><rtept lat="38.121153" lon="-106.751283"><ele>2995.2</ele><time>2026-04-10T15:25:48Z</time></rtept><rtept lat="38.120791" lon="-106.751584"><ele>2989.0</ele><time>2026-04-10T15:25:48Z</time></rtept><rtept lat="38.12041" lon="-106.751657"><ele>2988.6</ele><time>2026-04-10T15:25:48Z</time></rtept><rtept lat="38.120072" lon="-106.751546"><ele>2991.4</ele><time>2026-04-10T15:25:48Z</time></rtept><rtept lat="38.119698" lon="-106.751537"><ele>2992.8</ele><time>2026-04-10T15:25:48Z</time></rtept><rtept lat="38.119178" lon="-106.751632"><ele>2993.8</ele><time>2026-04-10T15:25:48Z</time></rtept><rtept lat="38.118706" lon="-106.751904"><ele>2993.2</ele><time>2026-04-10T15:25:48Z</time></rtept><rtept lat="38.118184" lon="-106.75233"><ele>2993.6</ele><time>2026-04-10T15:25:48Z</time></rtept><rtept lat="38.117923" lon="-106.752828"><ele>2995.2</ele><time>2026-04-10T15:25:48Z</time></rtept><rtept lat="38.117709" lon="-106.75339"><ele>2999.6</ele><time>2026-04-10T15:25:48Z</time></rtept><rtept lat="38.117563" lon="-106.753731"><ele>3002.2</ele><time>2026-04-10T15:25:48Z</time></rtept><rtept lat="38.117435" lon="-106.754141"><ele>3005.8</ele><time>2026-04-10T15:25:48Z</time></rtept><rtept lat="38.11732" lon="-106.754279"><ele>3007.6</ele><time>2026-04-10T15:25:48Z</time></rtept><rtept lat="38.117451" lon="-106.754249"><ele>3007.4</ele><time>2026-04-10T15:25:48Z</time></rtept><rtept lat="38.117451" lon="-106.754249"><ele>3007.4</ele><time>2026-04-10T15:25:48Z</time></rtept><rtept lat="38.11732" lon="-106.754279"><ele>3007.6</ele><time>2026-04-10T15:25:48Z</time></rtept><rtept lat="38.117128" lon="-106.754322"><ele>3007.6</ele><time>2026-04-10T15:25:48Z</time></rtept><rtept lat="38.115466" lon="-106.754592"><ele>3011.2</ele><time>2026-04-10T15:25:48Z</time></rtept><rtept lat="38.115221" lon="-106.754644"><ele>3011.8</ele><time>2026-04-10T15:25:48Z</time></rtept><rtept lat="38.114267" lon="-106.754846"><ele>3015.0</ele><time>2026-04-10T15:25:48Z</time></rtept><rtept lat="38.112826" lon="-106.755426"><ele>3023.8</ele><time>2026-04-10T15:25:48Z</time></rtept><rtept lat="38.110965" lon="-106.755656"><ele>3028.6</ele><time>2026-04-10T15:25:48Z</time></rtept><rtept lat="38.110541" lon="-106.755547"><ele>3029.4</ele><time>2026-04-10T15:25:48Z</time></rtept><rtept lat="38.108926" lon="-106.7557"><ele>3040.2</ele><time>2026-04-10T15:25:48Z</time></rtept><rtept lat="38.107578" lon="-106.756581"><ele>3050.6</ele><time>2026-04-10T15:25:48Z</time></rtept><rtept lat="38.107463" lon="-106.756754"><ele>3053.0</ele><time>2026-04-10T15:25:48Z</time></rtept></rte></gpx>