<?xml version="1.0" ?><gpx xmlns="http://www.topografix.com/GPX/1/1" creator="GaiaGPS" version="1.1" xmlns:xsi="http://www.w3.org/2001/XMLSchema-instance" xsi:schemaLocation="http://www.topografix.com/GPX/1/1 http://www.topografix.com/GPX/1/1/gpx.xsd"><rte><name>TD11:S3:D2 Cochetopa Park to La Garita Wilderness</name><desc></desc><extensions><line xmlns="http://www.topografix.com/GPX/gpx_style/0/2"><color>BAF200</color></line></extensions><rtept lat="38.107807" lon="-106.756414"><ele>3049.2</ele><time>2026-04-10T15:27:36Z</time></rtept><rtept lat="38.107813" lon="-106.756428"><ele>3049.2</ele><time>2026-04-10T15:27:36Z</time></rtept><rtept lat="38.107578" lon="-106.756581"><ele>3050.6</ele><time>2026-04-10T15:27:36Z</time></rtept><rtept lat="38.107097" lon="-106.757307"><ele>3059.2</ele><time>2026-04-10T15:27:36Z</time></rtept><rtept lat="38.106342" lon="-106.758148"><ele>3068.8</ele><time>2026-04-10T15:27:36Z</time></rtept><rtept lat="38.105906" lon="-106.758343"><ele>3069.0</ele><time>2026-04-10T15:27:36Z</time></rtept><rtept lat="38.105029" lon="-106.759606"><ele>3086.2</ele><time>2026-04-10T15:27:36Z</time></rtept><rtept lat="38.104663" lon="-106.759887"><ele>3090.6</ele><time>2026-04-10T15:27:36Z</time></rtept><rtept lat="38.104249" lon="-106.759821"><ele>3093.4</ele><time>2026-04-10T15:27:36Z</time></rtept><rtept lat="38.10374" lon="-106.760138"><ele>3101.6</ele><time>2026-04-10T15:27:36Z</time></rtept><rtept lat="38.103571" lon="-106.760436"><ele>3107.6</ele><time>2026-04-10T15:27:36Z</time></rtept><rtept lat="38.103712" lon="-106.760855"><ele>3109.4</ele><time>2026-04-10T15:27:36Z</time></rtept><rtept lat="38.103926" lon="-106.761221"><ele>3110.0</ele><time>2026-04-10T15:27:36Z</time></rtept><rtept lat="38.103893" lon="-106.761395"><ele>3113.4</ele><time>2026-04-10T15:27:36Z</time></rtept><rtept lat="38.103206" lon="-106.761447"><ele>3119.2</ele><time>2026-04-10T15:27:36Z</time></rtept><rtept lat="38.101019" lon="-106.761355"><ele>3138.6</ele><time>2026-04-10T15:27:36Z</time></rtept><rtept lat="38.100475" lon="-106.760857"><ele>3138.0</ele><time>2026-04-10T15:27:36Z</time></rtept><rtept lat="38.100109" lon="-106.760818"><ele>3141.4</ele><time>2026-04-10T15:27:36Z</time></rtept><rtept lat="38.0997" lon="-106.76092"><ele>3146.2</ele><time>2026-04-10T15:27:36Z</time></rtept><rtept lat="38.099307" lon="-106.760867"><ele>3148.6</ele><time>2026-04-10T15:27:36Z</time></rtept><rtept lat="38.098881" lon="-106.761014"><ele>3156.2</ele><time>2026-04-10T15:27:36Z</time></rtept><rtept lat="38.098011" lon="-106.761221"><ele>3169.4</ele><time>2026-04-10T15:27:36Z</time></rtept><rtept lat="38.097725" lon="-106.761342"><ele>3172.6</ele><time>2026-04-10T15:27:36Z</time></rtept><rtept lat="38.096762" lon="-106.761859"><ele>3173.2</ele><time>2026-04-10T15:27:36Z</time></rtept><rtept lat="38.096517" lon="-106.762342"><ele>3168.4</ele><time>2026-04-10T15:27:36Z</time></rtept><rtept lat="38.096479" lon="-106.762508"><ele>3168.8</ele><time>2026-04-10T15:27:36Z</time></rtept><rtept lat="38.095728" lon="-106.764171"><ele>3157.0</ele><time>2026-04-10T15:27:36Z</time></rtept><rtept lat="38.095588" lon="-106.764482"><ele>3149.6</ele><time>2026-04-10T15:27:36Z</time></rtept><rtept lat="38.09536" lon="-106.766107"><ele>3127.4</ele><time>2026-04-10T15:27:36Z</time></rtept><rtept lat="38.09566" lon="-106.767529"><ele>3120.2</ele><time>2026-04-10T15:27:36Z</time></rtept><rtept lat="38.095762" lon="-106.767775"><ele>3115.0</ele><time>2026-04-10T15:27:36Z</time></rtept><rtept lat="38.096027" lon="-106.768124"><ele>3112.8</ele><time>2026-04-10T15:27:36Z</time></rtept><rtept lat="38.096093" lon="-106.768401"><ele>3105.4</ele><time>2026-04-10T15:27:36Z</time></rtept><rtept lat="38.096538" lon="-106.769042"><ele>3104.0</ele><time>2026-04-10T15:27:36Z</time></rtept><rtept lat="38.096861" lon="-106.769754"><ele>3097.8</ele><time>2026-04-10T15:27:36Z</time></rtept><rtept lat="38.097391" lon="-106.770587"><ele>3089.2</ele><time>2026-04-10T15:27:36Z</time></rtept><rtept lat="38.09759" lon="-106.770842"><ele>3086.0</ele><time>2026-04-10T15:27:36Z</time></rtept><rtept lat="38.098041" lon="-106.771343"><ele>3078.6</ele><time>2026-04-10T15:27:36Z</time></rtept><rtept lat="38.099108" lon="-106.772171"><ele>3070.2</ele><time>2026-04-10T15:27:36Z</time></rtept><rtept lat="38.099455" lon="-106.77247"><ele>3062.4</ele><time>2026-04-10T15:27:36Z</time></rtept><rtept lat="38.100456" lon="-106.773612"><ele>3046.2</ele><time>2026-04-10T15:27:36Z</time></rtept><rtept lat="38.100687" lon="-106.773773"><ele>3044.2</ele><time>2026-04-10T15:27:36Z</time></rtept><rtept lat="38.101013" lon="-106.773838"><ele>3041.8</ele><time>2026-04-10T15:27:36Z</time></rtept><rtept lat="38.101486" lon="-106.773473"><ele>3040.0</ele><time>2026-04-10T15:27:36Z</time></rtept><rtept lat="38.101975" lon="-106.773269"><ele>3036.4</ele><time>2026-04-10T15:27:36Z</time></rtept><rtept lat="38.102389" lon="-106.773312"><ele>3032.4</ele><time>2026-04-10T15:27:36Z</time></rtept><rtept lat="38.10293" lon="-106.772936"><ele>3032.4</ele><time>2026-04-10T15:27:36Z</time></rtept><rtept lat="38.103351" lon="-106.772652"><ele>3030.6</ele><time>2026-04-10T15:27:36Z</time></rtept><rtept lat="38.103723" lon="-106.772496"><ele>3027.0</ele><time>2026-04-10T15:27:36Z</time></rtept><rtept lat="38.104352" lon="-106.772486"><ele>3020.0</ele><time>2026-04-10T15:27:36Z</time></rtept><rtept lat="38.104888" lon="-106.772432"><ele>3018.8</ele><time>2026-04-10T15:27:36Z</time></rtept><rtept lat="38.105085" lon="-106.772497"><ele>3017.6</ele><time>2026-04-10T15:27:36Z</time></rtept><rtept lat="38.105158" lon="-106.772609"><ele>3015.8</ele><time>2026-04-10T15:27:36Z</time></rtept><rtept lat="38.105116" lon="-106.772808"><ele>3014.2</ele><time>2026-04-10T15:27:36Z</time></rtept><rtept lat="38.104838" lon="-106.77314"><ele>3010.4</ele><time>2026-04-10T15:27:36Z</time></rtept><rtept lat="38.104491" lon="-106.773864"><ele>3001.0</ele><time>2026-04-10T15:27:36Z</time></rtept><rtept lat="38.104428" lon="-106.774964"><ele>3003.8</ele><time>2026-04-10T15:27:36Z</time></rtept><rtept lat="38.104399" lon="-106.775606"><ele>3004.0</ele><time>2026-04-10T15:27:36Z</time></rtept><rtept lat="38.104325" lon="-106.775891"><ele>3003.6</ele><time>2026-04-10T15:27:36Z</time></rtept><rtept lat="38.104153" lon="-106.776226"><ele>3001.8</ele><time>2026-04-10T15:27:36Z</time></rtept><rtept lat="38.104153" lon="-106.776226"><ele>3001.8</ele><time>2026-04-10T15:27:36Z</time></rtept><rtept lat="38.104133" lon="-106.776268"><ele>3001.8</ele><time>2026-04-10T15:27:36Z</time></rtept><rtept lat="38.104025" lon="-106.776375"><ele>3000.2</ele><time>2026-04-10T15:27:36Z</time></rtept><rtept lat="38.103875" lon="-106.776477"><ele>2998.6</ele><time>2026-04-10T15:27:36Z</time></rtept><rtept lat="38.103448" lon="-106.776759"><ele>2998.0</ele><time>2026-04-10T15:27:36Z</time></rtept><rtept lat="38.103318" lon="-106.77697"><ele>3000.6</ele><time>2026-04-10T15:27:36Z</time></rtept><rtept lat="38.102777" lon="-106.776949"><ele>2984.4</ele><time>2026-04-10T15:27:36Z</time></rtept><rtept lat="38.102494" lon="-106.776995"><ele>2985.8</ele><time>2026-04-10T15:27:36Z</time></rtept><rtept lat="38.101942" lon="-106.777432"><ele>2985.6</ele><time>2026-04-10T15:27:36Z</time></rtept><rtept lat="38.101579" lon="-106.777646"><ele>2974.0</ele><time>2026-04-10T15:27:36Z</time></rtept><rtept lat="38.101488" lon="-106.77817"><ele>2963.0</ele><time>2026-04-10T15:27:36Z</time></rtept><rtept lat="38.101278" lon="-106.778462"><ele>2962.8</ele><time>2026-04-10T15:27:36Z</time></rtept><rtept lat="38.100664" lon="-106.778714"><ele>2963.2</ele><time>2026-04-10T15:27:36Z</time></rtept><rtept lat="38.100099" lon="-106.778998"><ele>2963.4</ele><time>2026-04-10T15:27:36Z</time></rtept><rtept lat="38.099223" lon="-106.779797"><ele>2964.6</ele><time>2026-04-10T15:27:36Z</time></rtept><rtept lat="38.098566" lon="-106.78043"><ele>2961.6</ele><time>2026-04-10T15:27:36Z</time></rtept><rtept lat="38.097946" lon="-106.780849"><ele>2963.6</ele><time>2026-04-10T15:27:36Z</time></rtept><rtept lat="38.097306" lon="-106.780924"><ele>2966.6</ele><time>2026-04-10T15:27:36Z</time></rtept><rtept lat="38.096956" lon="-106.78119"><ele>2963.2</ele><time>2026-04-10T15:27:36Z</time></rtept><rtept lat="38.095885" lon="-106.781849"><ele>2972.6</ele><time>2026-04-10T15:27:36Z</time></rtept><rtept lat="38.095267" lon="-106.782571"><ele>2969.4</ele><time>2026-04-10T15:27:36Z</time></rtept><rtept lat="38.094036" lon="-106.783282"><ele>2971.6</ele><time>2026-04-10T15:27:36Z</time></rtept><rtept lat="38.092839" lon="-106.784027"><ele>2974.6</ele><time>2026-04-10T15:27:36Z</time></rtept><rtept lat="38.091989" lon="-106.784419"><ele>2979.0</ele><time>2026-04-10T15:27:36Z</time></rtept><rtept lat="38.090614" lon="-106.785081"><ele>2981.8</ele><time>2026-04-10T15:27:36Z</time></rtept><rtept lat="38.089597" lon="-106.785553"><ele>2982.8</ele><time>2026-04-10T15:27:36Z</time></rtept><rtept lat="38.088014" lon="-106.786219"><ele>2988.2</ele><time>2026-04-10T15:27:36Z</time></rtept><rtept lat="38.086834" lon="-106.786474"><ele>2989.6</ele><time>2026-04-10T15:27:36Z</time></rtept><rtept lat="38.086209" lon="-106.786983"><ele>2988.8</ele><time>2026-04-10T15:27:36Z</time></rtept><rtept lat="38.085181" lon="-106.787536"><ele>2989.2</ele><time>2026-04-10T15:27:36Z</time></rtept><rtept lat="38.084731" lon="-106.78763"><ele>2989.2</ele><time>2026-04-10T15:27:36Z</time></rtept><rtept lat="38.084013" lon="-106.788166"><ele>2989.2</ele><time>2026-04-10T15:27:36Z</time></rtept><rtept lat="38.082402" lon="-106.789008"><ele>2993.4</ele><time>2026-04-10T15:27:36Z</time></rtept><rtept lat="38.081784" lon="-106.789711"><ele>2995.6</ele><time>2026-04-10T15:27:36Z</time></rtept><rtept lat="38.080718" lon="-106.790376"><ele>3002.0</ele><time>2026-04-10T15:27:36Z</time></rtept><rtept lat="38.079975" lon="-106.790972"><ele>3002.6</ele><time>2026-04-10T15:27:36Z</time></rtept><rtept lat="38.078779" lon="-106.791583"><ele>3003.0</ele><time>2026-04-10T15:27:36Z</time></rtept><rtept lat="38.078188" lon="-106.79175"><ele>3003.0</ele><time>2026-04-10T15:27:36Z</time></rtept><rtept lat="38.077445" lon="-106.791621"><ele>3009.0</ele><time>2026-04-10T15:27:36Z</time></rtept><rtept lat="38.076779" lon="-106.791814"><ele>3014.8</ele><time>2026-04-10T15:27:36Z</time></rtept><rtept lat="38.076036" lon="-106.792343"><ele>3018.0</ele><time>2026-04-10T15:27:36Z</time></rtept><rtept lat="38.075709" lon="-106.79219"><ele>3025.8</ele><time>2026-04-10T15:27:36Z</time></rtept><rtept lat="38.074831" lon="-106.792577"><ele>3029.2</ele><time>2026-04-10T15:27:36Z</time></rtept><rtept lat="38.074175" lon="-106.793096"><ele>3028.8</ele><time>2026-04-10T15:27:36Z</time></rtept><rtept lat="38.07349" lon="-106.793333"><ele>3029.6</ele><time>2026-04-10T15:27:36Z</time></rtept><rtept lat="38.072832" lon="-106.79364"><ele>3030.8</ele><time>2026-04-10T15:27:36Z</time></rtept><rtept lat="38.072293" lon="-106.793877"><ele>3034.0</ele><time>2026-04-10T15:27:36Z</time></rtept><rtept lat="38.071734" lon="-106.794351"><ele>3037.2</ele><time>2026-04-10T15:27:36Z</time></rtept><rtept lat="38.071261" lon="-106.794667"><ele>3039.8</ele><time>2026-04-10T15:27:36Z</time></rtept><rtept lat="38.070963" lon="-106.794534"><ele>3044.8</ele><time>2026-04-10T15:27:36Z</time></rtept><rtept lat="38.070466" lon="-106.794452"><ele>3049.2</ele><time>2026-04-10T15:27:36Z</time></rtept><rtept lat="38.070028" lon="-106.794591"><ele>3057.2</ele><time>2026-04-10T15:27:36Z</time></rtept><rtept lat="38.069685" lon="-106.794881"><ele>3057.4</ele><time>2026-04-10T15:27:36Z</time></rtept><rtept lat="38.069342" lon="-106.795349"><ele>3047.2</ele><time>2026-04-10T15:27:36Z</time></rtept><rtept lat="38.068969" lon="-106.795633"><ele>3042.0</ele><time>2026-04-10T15:27:36Z</time></rtept><rtept lat="38.068581" lon="-106.796227"><ele>3043.2</ele><time>2026-04-10T15:27:36Z</time></rtept><rtept lat="38.067904" lon="-106.796877"><ele>3041.0</ele><time>2026-04-10T15:27:36Z</time></rtept><rtept lat="38.068078" lon="-106.797307"><ele>3036.4</ele><time>2026-04-10T15:27:36Z</time></rtept><rtept lat="38.068084" lon="-106.797648"><ele>3027.8</ele><time>2026-04-10T15:27:36Z</time></rtept><rtept lat="38.068078" lon="-106.798084"><ele>3012.8</ele><time>2026-04-10T15:27:36Z</time></rtept><rtept lat="38.067954" lon="-106.79852"><ele>3011.2</ele><time>2026-04-10T15:27:36Z</time></rtept><rtept lat="38.067954" lon="-106.79852"><ele>3011.2</ele><time>2026-04-10T15:27:36Z</time></rtept><rtept lat="38.067954" lon="-106.79852"><ele>3011.2</ele><time>2026-04-10T15:27:36Z</time></rtept><rtept lat="38.068133" lon="-106.798545"><ele>3014.8</ele><time>2026-04-10T15:27:36Z</time></rtept><rtept lat="38.068133" lon="-106.798646"><ele>3017.6</ele><time>2026-04-10T15:27:36Z</time></rtept><rtept lat="38.068253" lon="-106.798659"><ele>3019.6</ele><time>2026-04-10T15:27:36Z</time></rtept><rtept lat="38.068178" lon="-106.798905"><ele>3026.4</ele><time>2026-04-10T15:27:36Z</time></rtept><rtept lat="38.068312" lon="-106.79931"><ele>3038.2</ele><time>2026-04-10T15:27:36Z</time></rtept><rtept lat="38.068108" lon="-106.79967"><ele>3041.2</ele><time>2026-04-10T15:27:36Z</time></rtept><rtept lat="38.067934" lon="-106.800042"><ele>3041.2</ele><time>2026-04-10T15:27:36Z</time></rtept><rtept lat="38.066547" lon="-106.80243"><ele>3064.4</ele><time>2026-04-10T15:27:36Z</time></rtept><rtept lat="38.065005" lon="-106.803712"><ele>3063.6</ele><time>2026-04-10T15:27:36Z</time></rtept><rtept lat="38.063602" lon="-106.804458"><ele>3055.0</ele><time>2026-04-10T15:27:36Z</time></rtept><rtept lat="38.062702" lon="-106.804559"><ele>3047.2</ele><time>2026-04-10T15:27:36Z</time></rtept><rtept lat="38.062563" lon="-106.804565"><ele>3045.6</ele><time>2026-04-10T15:27:36Z</time></rtept><rtept lat="38.062329" lon="-106.804641"><ele>3045.4</ele><time>2026-04-10T15:27:36Z</time></rtept><rtept lat="38.062155" lon="-106.804692"><ele>3043.6</ele><time>2026-04-10T15:27:36Z</time></rtept><rtept lat="38.061678" lon="-106.80502"><ele>3048.8</ele><time>2026-04-10T15:27:36Z</time></rtept><rtept lat="38.06125" lon="-106.805254"><ele>3048.4</ele><time>2026-04-10T15:27:36Z</time></rtept><rtept lat="38.061066" lon="-106.805526"><ele>3051.6</ele><time>2026-04-10T15:27:36Z</time></rtept><rtept lat="38.060551" lon="-106.805907"><ele>3054.0</ele><time>2026-04-10T15:27:36Z</time></rtept><rtept lat="38.059805" lon="-106.806355"><ele>3049.8</ele><time>2026-04-10T15:27:36Z</time></rtept><rtept lat="38.059461" lon="-106.806741"><ele>3052.8</ele><time>2026-04-10T15:27:36Z</time></rtept><rtept lat="38.059089" lon="-106.806911"><ele>3050.2</ele><time>2026-04-10T15:27:36Z</time></rtept><rtept lat="38.058519" lon="-106.80704"><ele>3050.6</ele><time>2026-04-10T15:27:36Z</time></rtept><rtept lat="38.058126" lon="-106.807484"><ele>3055.6</ele><time>2026-04-10T15:27:36Z</time></rtept><rtept lat="38.057619" lon="-106.807762"><ele>3055.6</ele><time>2026-04-10T15:27:36Z</time></rtept><rtept lat="38.056933" lon="-106.807976"><ele>3054.2</ele><time>2026-04-10T15:27:36Z</time></rtept><rtept lat="38.056759" lon="-106.808216"><ele>3054.8</ele><time>2026-04-10T15:27:36Z</time></rtept><rtept lat="38.05651" lon="-106.808766"><ele>3053.0</ele><time>2026-04-10T15:27:36Z</time></rtept><rtept lat="38.056178" lon="-106.80868"><ele>3046.4</ele><time>2026-04-10T15:27:36Z</time></rtept><rtept lat="38.055963" lon="-106.808437"><ele>3051.0</ele><time>2026-04-10T15:27:36Z</time></rtept><rtept lat="38.055942" lon="-106.808447"><ele>3051.0</ele><time>2026-04-10T15:27:36Z</time></rtept><rtept lat="38.055289" lon="-106.808753"><ele>3056.2</ele><time>2026-04-10T15:27:36Z</time></rtept><rtept lat="38.054603" lon="-106.809095"><ele>3059.4</ele><time>2026-04-10T15:27:36Z</time></rtept><rtept lat="38.053943" lon="-106.809353"><ele>3061.8</ele><time>2026-04-10T15:27:36Z</time></rtept><rtept lat="38.053192" lon="-106.809524"><ele>3061.8</ele><time>2026-04-10T15:27:36Z</time></rtept><rtept lat="38.052799" lon="-106.809537"><ele>3057.4</ele><time>2026-04-10T15:27:36Z</time></rtept><rtept lat="38.052491" lon="-106.809467"><ele>3050.2</ele><time>2026-04-10T15:27:36Z</time></rtept><rtept lat="38.052045" lon="-106.809641"><ele>3049.0</ele><time>2026-04-10T15:27:36Z</time></rtept><rtept lat="38.05116" lon="-106.810013"><ele>3053.2</ele><time>2026-04-10T15:27:36Z</time></rtept><rtept lat="38.050672" lon="-106.81041"><ele>3057.0</ele><time>2026-04-10T15:27:36Z</time></rtept><rtept lat="38.050156" lon="-106.810828"><ele>3058.6</ele><time>2026-04-10T15:27:36Z</time></rtept><rtept lat="38.04975" lon="-106.811204"><ele>3059.6</ele><time>2026-04-10T15:27:36Z</time></rtept><rtept lat="38.049575" lon="-106.81163"><ele>3064.4</ele><time>2026-04-10T15:27:36Z</time></rtept><rtept lat="38.049312" lon="-106.81216"><ele>3072.0</ele><time>2026-04-10T15:27:36Z</time></rtept><rtept lat="38.049243" lon="-106.812279"><ele>3074.6</ele><time>2026-04-10T15:27:36Z</time></rtept><rtept lat="38.048749" lon="-106.812987"><ele>3074.4</ele><time>2026-04-10T15:27:36Z</time></rtept><rtept lat="38.048327" lon="-106.813682"><ele>3074.0</ele><time>2026-04-10T15:27:36Z</time></rtept><rtept lat="38.048209" lon="-106.813854"><ele>3071.4</ele><time>2026-04-10T15:27:36Z</time></rtept><rtept lat="38.04802" lon="-106.814081"><ele>3071.8</ele><time>2026-04-10T15:27:36Z</time></rtept><rtept lat="38.047485" lon="-106.814537"><ele>3075.8</ele><time>2026-04-10T15:27:36Z</time></rtept><rtept lat="38.047425" lon="-106.814622"><ele>3076.8</ele><time>2026-04-10T15:27:36Z</time></rtept><rtept lat="38.047362" lon="-106.814771"><ele>3080.4</ele><time>2026-04-10T15:27:36Z</time></rtept><rtept lat="38.047125" lon="-106.815571"><ele>3092.6</ele><time>2026-04-10T15:27:36Z</time></rtept><rtept lat="38.04705" lon="-106.815725"><ele>3095.0</ele><time>2026-04-10T15:27:36Z</time></rtept><rtept lat="38.046696" lon="-106.81621"><ele>3098.0</ele><time>2026-04-10T15:27:36Z</time></rtept><rtept lat="38.046431" lon="-106.816656"><ele>3097.2</ele><time>2026-04-10T15:27:36Z</time></rtept><rtept lat="38.045705" lon="-106.818108"><ele>3097.2</ele><time>2026-04-10T15:27:36Z</time></rtept><rtept lat="38.045223" lon="-106.818987"><ele>3098.6</ele><time>2026-04-10T15:27:36Z</time></rtept><rtept lat="38.044961" lon="-106.819622"><ele>3100.2</ele><time>2026-04-10T15:27:36Z</time></rtept><rtept lat="38.044716" lon="-106.820153"><ele>3100.6</ele><time>2026-04-10T15:27:36Z</time></rtept><rtept lat="38.044488" lon="-106.82076"><ele>3101.8</ele><time>2026-04-10T15:27:36Z</time></rtept><rtept lat="38.043887" lon="-106.822081"><ele>3100.4</ele><time>2026-04-10T15:27:36Z</time></rtept><rtept lat="38.043439" lon="-106.823222"><ele>3111.6</ele><time>2026-04-10T15:27:36Z</time></rtept><rtept lat="38.042635" lon="-106.824907"><ele>3115.8</ele><time>2026-04-10T15:27:36Z</time></rtept><rtept lat="38.042078" lon="-106.826023"><ele>3120.8</ele><time>2026-04-10T15:27:36Z</time></rtept><rtept lat="38.041737" lon="-106.826693"><ele>3126.0</ele><time>2026-04-10T15:27:36Z</time></rtept><rtept lat="38.0413" lon="-106.827432"><ele>3129.6</ele><time>2026-04-10T15:27:36Z</time></rtept><rtept lat="38.041115" lon="-106.827711"><ele>3130.8</ele><time>2026-04-10T15:27:36Z</time></rtept><rtept lat="38.040534" lon="-106.828405"><ele>3132.8</ele><time>2026-04-10T15:27:36Z</time></rtept><rtept lat="38.03984" lon="-106.829015"><ele>3128.6</ele><time>2026-04-10T15:27:36Z</time></rtept><rtept lat="38.039649" lon="-106.829114"><ele>3128.2</ele><time>2026-04-10T15:27:36Z</time></rtept><rtept lat="38.039189" lon="-106.829303"><ele>3124.2</ele><time>2026-04-10T15:27:36Z</time></rtept><rtept lat="38.039" lon="-106.829408"><ele>3123.0</ele><time>2026-04-10T15:27:36Z</time></rtept><rtept lat="38.038762" lon="-106.829591"><ele>3122.6</ele><time>2026-04-10T15:27:36Z</time></rtept><rtept lat="38.038496" lon="-106.829879"><ele>3124.8</ele><time>2026-04-10T15:27:36Z</time></rtept><rtept lat="38.038373" lon="-106.830044"><ele>3126.8</ele><time>2026-04-10T15:27:36Z</time></rtept><rtept lat="38.038113" lon="-106.830451"><ele>3128.4</ele><time>2026-04-10T15:27:36Z</time></rtept><rtept lat="38.03746" lon="-106.831292"><ele>3133.8</ele><time>2026-04-10T15:27:36Z</time></rtept><rtept lat="38.03746" lon="-106.831292"><ele>3133.8</ele><time>2026-04-10T15:27:36Z</time></rtept><rtept lat="38.037422" lon="-106.831341"><ele>3134.0</ele><time>2026-04-10T15:27:36Z</time></rtept><rtept lat="38.037241" lon="-106.83146"><ele>3135.6</ele><time>2026-04-10T15:27:36Z</time></rtept><rtept lat="38.036927" lon="-106.831722"><ele>3139.0</ele><time>2026-04-10T15:27:36Z</time></rtept><rtept lat="38.036594" lon="-106.832102"><ele>3141.8</ele><time>2026-04-10T15:27:36Z</time></rtept><rtept lat="38.03652" lon="-106.832167"><ele>3142.0</ele><time>2026-04-10T15:27:36Z</time></rtept><rtept lat="38.036284" lon="-106.832305"><ele>3143.0</ele><time>2026-04-10T15:27:36Z</time></rtept><rtept lat="38.035889" lon="-106.83246"><ele>3143.8</ele><time>2026-04-10T15:27:36Z</time></rtept><rtept lat="38.03566" lon="-106.832511"><ele>3143.8</ele><time>2026-04-10T15:27:36Z</time></rtept><rtept lat="38.035489" lon="-106.832512"><ele>3143.4</ele><time>2026-04-10T15:27:36Z</time></rtept><rtept lat="38.03506" lon="-106.832464"><ele>3140.2</ele><time>2026-04-10T15:27:36Z</time></rtept><rtept lat="38.03409" lon="-106.832289"><ele>3135.2</ele><time>2026-04-10T15:27:36Z</time></rtept><rtept lat="38.033948" lon="-106.832302"><ele>3134.4</ele><time>2026-04-10T15:27:36Z</time></rtept><rtept lat="38.033567" lon="-106.832384"><ele>3131.2</ele><time>2026-04-10T15:27:36Z</time></rtept><rtept lat="38.033131" lon="-106.832564"><ele>3128.6</ele><time>2026-04-10T15:27:36Z</time></rtept><rtept lat="38.032934" lon="-106.832674"><ele>3128.4</ele><time>2026-04-10T15:27:36Z</time></rtept><rtept lat="38.032312" lon="-106.833214"><ele>3131.6</ele><time>2026-04-10T15:27:36Z</time></rtept><rtept lat="38.031569" lon="-106.833794"><ele>3139.2</ele><time>2026-04-10T15:27:36Z</time></rtept><rtept lat="38.031194" lon="-106.834062"><ele>3141.6</ele><time>2026-04-10T15:27:36Z</time></rtept><rtept lat="38.030925" lon="-106.83419"><ele>3141.6</ele><time>2026-04-10T15:27:36Z</time></rtept><rtept lat="38.030389" lon="-106.834243"><ele>3141.6</ele><time>2026-04-10T15:27:36Z</time></rtept><rtept lat="38.029136" lon="-106.834099"><ele>3141.2</ele><time>2026-04-10T15:27:36Z</time></rtept><rtept lat="38.028607" lon="-106.834132"><ele>3141.0</ele><time>2026-04-10T15:27:36Z</time></rtept><rtept lat="38.027788" lon="-106.83426"><ele>3143.4</ele><time>2026-04-10T15:27:36Z</time></rtept><rtept lat="38.027159" lon="-106.834258"><ele>3142.8</ele><time>2026-04-10T15:27:36Z</time></rtept><rtept lat="38.026863" lon="-106.834285"><ele>3141.6</ele><time>2026-04-10T15:27:36Z</time></rtept><rtept lat="38.026719" lon="-106.834339"><ele>3141.8</ele><time>2026-04-10T15:27:36Z</time></rtept><rtept lat="38.026587" lon="-106.834447"><ele>3141.0</ele><time>2026-04-10T15:27:36Z</time></rtept><rtept lat="38.02644" lon="-106.834568"><ele>3139.8</ele><time>2026-04-10T15:27:36Z</time></rtept><rtept lat="38.026349" lon="-106.834692"><ele>3140.6</ele><time>2026-04-10T15:27:36Z</time></rtept><rtept lat="38.026313" lon="-106.834771"><ele>3140.2</ele><time>2026-04-10T15:27:36Z</time></rtept><rtept lat="38.026165" lon="-106.8352"><ele>3142.8</ele><time>2026-04-10T15:27:36Z</time></rtept><rtept lat="38.026116" lon="-106.835307"><ele>3143.0</ele><time>2026-04-10T15:27:36Z</time></rtept><rtept lat="38.025914" lon="-106.835582"><ele>3144.0</ele><time>2026-04-10T15:27:36Z</time></rtept><rtept lat="38.025694" lon="-106.835834"><ele>3147.2</ele><time>2026-04-10T15:27:36Z</time></rtept><rtept lat="38.025692" lon="-106.835933"><ele>3148.8</ele><time>2026-04-10T15:27:36Z</time></rtept><rtept lat="38.025692" lon="-106.835933"><ele>3148.8</ele><time>2026-04-10T15:27:36Z</time></rtept><rtept lat="38.025694" lon="-106.835834"><ele>3147.2</ele><time>2026-04-10T15:27:36Z</time></rtept><rtept lat="38.025674" lon="-106.835857"><ele>3147.2</ele><time>2026-04-10T15:27:36Z</time></rtept><rtept lat="38.025133" lon="-106.83596"><ele>3142.4</ele><time>2026-04-10T15:27:36Z</time></rtept><rtept lat="38.024666" lon="-106.836055"><ele>3142.2</ele><time>2026-04-10T15:27:36Z</time></rtept><rtept lat="38.02395" lon="-106.836332"><ele>3155.0</ele><time>2026-04-10T15:27:36Z</time></rtept><rtept lat="38.023873" lon="-106.836362"><ele>3155.6</ele><time>2026-04-10T15:27:36Z</time></rtept><rtept lat="38.023617" lon="-106.836329"><ele>3157.0</ele><time>2026-04-10T15:27:36Z</time></rtept><rtept lat="38.023046" lon="-106.836871"><ele>3163.4</ele><time>2026-04-10T15:27:36Z</time></rtept><rtept lat="38.022621" lon="-106.837325"><ele>3171.4</ele><time>2026-04-10T15:27:36Z</time></rtept><rtept lat="38.022519" lon="-106.837371"><ele>3172.0</ele><time>2026-04-10T15:27:36Z</time></rtept><rtept lat="38.022175" lon="-106.837065"><ele>3170.4</ele><time>2026-04-10T15:27:36Z</time></rtept><rtept lat="38.021894" lon="-106.836761"><ele>3166.2</ele><time>2026-04-10T15:27:36Z</time></rtept><rtept lat="38.021668" lon="-106.836596"><ele>3165.2</ele><time>2026-04-10T15:27:36Z</time></rtept><rtept lat="38.021075" lon="-106.836086"><ele>3169.6</ele><time>2026-04-10T15:27:36Z</time></rtept><rtept lat="38.020651" lon="-106.83548"><ele>3167.8</ele><time>2026-04-10T15:27:36Z</time></rtept><rtept lat="38.020247" lon="-106.835105"><ele>3167.4</ele><time>2026-04-10T15:27:36Z</time></rtept><rtept lat="38.020058" lon="-106.834904"><ele>3166.2</ele><time>2026-04-10T15:27:36Z</time></rtept><rtept lat="38.019799" lon="-106.834668"><ele>3165.8</ele><time>2026-04-10T15:27:36Z</time></rtept><rtept lat="38.019313" lon="-106.83432"><ele>3163.2</ele><time>2026-04-10T15:27:36Z</time></rtept><rtept lat="38.019047" lon="-106.833897"><ele>3159.4</ele><time>2026-04-10T15:27:36Z</time></rtept><rtept lat="38.018722" lon="-106.833588"><ele>3158.0</ele><time>2026-04-10T15:27:36Z</time></rtept><rtept lat="38.018245" lon="-106.83323"><ele>3155.2</ele><time>2026-04-10T15:27:36Z</time></rtept><rtept lat="38.017972" lon="-106.833066"><ele>3153.6</ele><time>2026-04-10T15:27:36Z</time></rtept><rtept lat="38.017569" lon="-106.832871"><ele>3156.0</ele><time>2026-04-10T15:27:36Z</time></rtept><rtept lat="38.017244" lon="-106.832676"><ele>3156.8</ele><time>2026-04-10T15:27:36Z</time></rtept><rtept lat="38.016771" lon="-106.832396"><ele>3158.0</ele><time>2026-04-10T15:27:36Z</time></rtept><rtept lat="38.016161" lon="-106.832317"><ele>3158.8</ele><time>2026-04-10T15:27:36Z</time></rtept><rtept lat="38.015801" lon="-106.831945"><ele>3158.8</ele><time>2026-04-10T15:27:36Z</time></rtept><rtept lat="38.015354" lon="-106.831557"><ele>3159.0</ele><time>2026-04-10T15:27:36Z</time></rtept><rtept lat="38.015066" lon="-106.830813"><ele>3156.4</ele><time>2026-04-10T15:27:36Z</time></rtept><rtept lat="38.014764" lon="-106.830233"><ele>3155.8</ele><time>2026-04-10T15:27:36Z</time></rtept><rtept lat="38.01438" lon="-106.829742"><ele>3157.2</ele><time>2026-04-10T15:27:36Z</time></rtept><rtept lat="38.014007" lon="-106.829234"><ele>3157.2</ele><time>2026-04-10T15:27:36Z</time></rtept><rtept lat="38.013654" lon="-106.828593"><ele>3156.8</ele><time>2026-04-10T15:27:36Z</time></rtept><rtept lat="38.012873" lon="-106.827821"><ele>3157.8</ele><time>2026-04-10T15:27:36Z</time></rtept><rtept lat="38.012217" lon="-106.827235"><ele>3158.6</ele><time>2026-04-10T15:27:36Z</time></rtept><rtept lat="38.011831" lon="-106.826726"><ele>3159.2</ele><time>2026-04-10T15:27:36Z</time></rtept><rtept lat="38.01169" lon="-106.826277"><ele>3162.2</ele><time>2026-04-10T15:27:36Z</time></rtept><rtept lat="38.011317" lon="-106.825978"><ele>3163.6</ele><time>2026-04-10T15:27:36Z</time></rtept><rtept lat="38.010851" lon="-106.825853"><ele>3164.4</ele><time>2026-04-10T15:27:36Z</time></rtept><rtept lat="38.010388" lon="-106.825682"><ele>3163.2</ele><time>2026-04-10T15:27:36Z</time></rtept><rtept lat="38.009742" lon="-106.825472"><ele>3157.0</ele><time>2026-04-10T15:27:36Z</time></rtept><rtept lat="38.009028" lon="-106.82533"><ele>3156.2</ele><time>2026-04-10T15:27:36Z</time></rtept><rtept lat="38.009227" lon="-106.825426"><ele>3157.0</ele><time>2026-04-10T15:27:36Z</time></rtept><rtept lat="38.008784" lon="-106.825293"><ele>3156.0</ele><time>2026-04-10T15:27:36Z</time></rtept><rtept lat="38.008195" lon="-106.825362"><ele>3158.4</ele><time>2026-04-10T15:27:36Z</time></rtept><rtept lat="38.007689" lon="-106.825343"><ele>3160.2</ele><time>2026-04-10T15:27:36Z</time></rtept><rtept lat="38.007239" lon="-106.825098"><ele>3160.6</ele><time>2026-04-10T15:27:36Z</time></rtept><rtept lat="38.006867" lon="-106.825079"><ele>3162.4</ele><time>2026-04-10T15:27:36Z</time></rtept><rtept lat="38.00626" lon="-106.825152"><ele>3166.0</ele><time>2026-04-10T15:27:36Z</time></rtept><rtept lat="38.0057" lon="-106.825094"><ele>3167.6</ele><time>2026-04-10T15:27:36Z</time></rtept><rtept lat="38.005312" lon="-106.825169"><ele>3169.2</ele><time>2026-04-10T15:27:36Z</time></rtept><rtept lat="38.004947" lon="-106.825062"><ele>3168.6</ele><time>2026-04-10T15:27:36Z</time></rtept><rtept lat="38.00451" lon="-106.825103"><ele>3169.8</ele><time>2026-04-10T15:27:36Z</time></rtept><rtept lat="38.004089" lon="-106.825216"><ele>3171.0</ele><time>2026-04-10T15:27:36Z</time></rtept><rtept lat="38.00374" lon="-106.825466"><ele>3173.2</ele><time>2026-04-10T15:27:36Z</time></rtept><rtept lat="38.003169" lon="-106.825682"><ele>3177.0</ele><time>2026-04-10T15:27:36Z</time></rtept><rtept lat="38.002659" lon="-106.825958"><ele>3177.0</ele><time>2026-04-10T15:27:36Z</time></rtept><rtept lat="38.002199" lon="-106.826474"><ele>3180.0</ele><time>2026-04-10T15:27:36Z</time></rtept><rtept lat="38.001823" lon="-106.826742"><ele>3178.8</ele><time>2026-04-10T15:27:36Z</time></rtept><rtept lat="38.001424" lon="-106.827061"><ele>3180.0</ele><time>2026-04-10T15:27:36Z</time></rtept><rtept lat="38.000642" lon="-106.82733"><ele>3180.0</ele><time>2026-04-10T15:27:36Z</time></rtept><rtept lat="37.999935" lon="-106.827564"><ele>3181.0</ele><time>2026-04-10T15:27:36Z</time></rtept><rtept lat="37.999774" lon="-106.827626"><ele>3182.4</ele><time>2026-04-10T15:27:36Z</time></rtept><rtept lat="37.999182" lon="-106.827852"><ele>3181.6</ele><time>2026-04-10T15:27:36Z</time></rtept><rtept lat="37.998953" lon="-106.827876"><ele>3180.8</ele><time>2026-04-10T15:27:36Z</time></rtept><rtept lat="37.998953" lon="-106.827876"><ele>3180.8</ele><time>2026-04-10T15:27:36Z</time></rtept><rtept lat="37.998573" lon="-106.827917"><ele>3179.8</ele><time>2026-04-10T15:27:36Z</time></rtept><rtept lat="37.998096" lon="-106.828243"><ele>3180.2</ele><time>2026-04-10T15:27:36Z</time></rtept><rtept lat="37.997325" lon="-106.828546"><ele>3179.0</ele><time>2026-04-10T15:27:36Z</time></rtept><rtept lat="37.996672" lon="-106.828816"><ele>3180.4</ele><time>2026-04-10T15:27:36Z</time></rtept><rtept lat="37.99621" lon="-106.829234"><ele>3187.8</ele><time>2026-04-10T15:27:36Z</time></rtept><rtept lat="37.995893" lon="-106.829591"><ele>3193.8</ele><time>2026-04-10T15:27:36Z</time></rtept><rtept lat="37.995605" lon="-106.829809"><ele>3195.4</ele><time>2026-04-10T15:27:36Z</time></rtept><rtept lat="37.995242" lon="-106.829848"><ele>3194.8</ele><time>2026-04-10T15:27:36Z</time></rtept><rtept lat="37.994892" lon="-106.83024"><ele>3194.0</ele><time>2026-04-10T15:27:36Z</time></rtept><rtept lat="37.994604" lon="-106.83052"><ele>3193.2</ele><time>2026-04-10T15:27:36Z</time></rtept><rtept lat="37.994342" lon="-106.830835"><ele>3194.0</ele><time>2026-04-10T15:27:36Z</time></rtept><rtept lat="37.994166" lon="-106.831153"><ele>3194.8</ele><time>2026-04-10T15:27:36Z</time></rtept><rtept lat="37.993937" lon="-106.831398"><ele>3194.6</ele><time>2026-04-10T15:27:36Z</time></rtept><rtept lat="37.99361" lon="-106.831689"><ele>3194.4</ele><time>2026-04-10T15:27:36Z</time></rtept><rtept lat="37.993275" lon="-106.831955"><ele>3194.4</ele><time>2026-04-10T15:27:36Z</time></rtept><rtept lat="37.992872" lon="-106.832374"><ele>3196.2</ele><time>2026-04-10T15:27:36Z</time></rtept><rtept lat="37.992614" lon="-106.832762"><ele>3198.0</ele><time>2026-04-10T15:27:36Z</time></rtept><rtept lat="37.992289" lon="-106.833363"><ele>3202.0</ele><time>2026-04-10T15:27:36Z</time></rtept><rtept lat="37.992053" lon="-106.834037"><ele>3203.6</ele><time>2026-04-10T15:27:36Z</time></rtept><rtept lat="37.991761" lon="-106.834567"><ele>3203.0</ele><time>2026-04-10T15:27:36Z</time></rtept><rtept lat="37.991526" lon="-106.835206"><ele>3204.6</ele><time>2026-04-10T15:27:36Z</time></rtept><rtept lat="37.991236" lon="-106.835557"><ele>3205.8</ele><time>2026-04-10T15:27:36Z</time></rtept><rtept lat="37.990947" lon="-106.835908"><ele>3206.4</ele><time>2026-04-10T15:27:36Z</time></rtept><rtept lat="37.990713" lon="-106.836475"><ele>3211.2</ele><time>2026-04-10T15:27:36Z</time></rtept><rtept lat="37.990476" lon="-106.836935"><ele>3213.0</ele><time>2026-04-10T15:27:36Z</time></rtept><rtept lat="37.990215" lon="-106.837215"><ele>3214.2</ele><time>2026-04-10T15:27:36Z</time></rtept><rtept lat="37.989957" lon="-106.837573"><ele>3217.2</ele><time>2026-04-10T15:27:36Z</time></rtept><rtept lat="37.989552" lon="-106.838136"><ele>3220.8</ele><time>2026-04-10T15:27:36Z</time></rtept><rtept lat="37.989204" lon="-106.838736"><ele>3224.2</ele><time>2026-04-10T15:27:36Z</time></rtept><rtept lat="37.988856" lon="-106.839086"><ele>3222.4</ele><time>2026-04-10T15:27:36Z</time></rtept><rtept lat="37.988596" lon="-106.83958"><ele>3227.0</ele><time>2026-04-10T15:27:36Z</time></rtept><rtept lat="37.988219" lon="-106.840072"><ele>3226.6</ele><time>2026-04-10T15:27:36Z</time></rtept><rtept lat="37.987985" lon="-106.840604"><ele>3229.8</ele><time>2026-04-10T15:27:36Z</time></rtept><rtept lat="37.987858" lon="-106.841245"><ele>3231.8</ele><time>2026-04-10T15:27:36Z</time></rtept><rtept lat="37.987883" lon="-106.841711"><ele>3235.2</ele><time>2026-04-10T15:27:36Z</time></rtept><rtept lat="37.987875" lon="-106.842213"><ele>3239.0</ele><time>2026-04-10T15:27:36Z</time></rtept><rtept lat="37.987833" lon="-106.842856"><ele>3243.8</ele><time>2026-04-10T15:27:36Z</time></rtept><rtept lat="37.987596" lon="-106.843602"><ele>3247.4</ele><time>2026-04-10T15:27:36Z</time></rtept><rtept lat="37.987416" lon="-106.844171"><ele>3248.4</ele><time>2026-04-10T15:27:36Z</time></rtept><rtept lat="37.987126" lon="-106.844521"><ele>3245.2</ele><time>2026-04-10T15:27:36Z</time></rtept><rtept lat="37.986842" lon="-106.844872"><ele>3245.2</ele><time>2026-04-10T15:27:36Z</time></rtept><rtept lat="37.986468" lon="-106.845149"><ele>3246.2</ele><time>2026-04-10T15:27:36Z</time></rtept><rtept lat="37.986178" lon="-106.845536"><ele>3245.6</ele><time>2026-04-10T15:27:36Z</time></rtept><rtept lat="37.985975" lon="-106.845853"><ele>3248.0</ele><time>2026-04-10T15:27:36Z</time></rtept><rtept lat="37.985822" lon="-106.846422"><ele>3251.6</ele><time>2026-04-10T15:27:36Z</time></rtept><rtept lat="37.985656" lon="-106.846919"><ele>3251.0</ele><time>2026-04-10T15:27:36Z</time></rtept><rtept lat="37.985452" lon="-106.847308"><ele>3253.8</ele><time>2026-04-10T15:27:36Z</time></rtept><rtept lat="37.985247" lon="-106.847697"><ele>3255.0</ele><time>2026-04-10T15:27:36Z</time></rtept><rtept lat="37.985068" lon="-106.84823"><ele>3256.6</ele><time>2026-04-10T15:27:36Z</time></rtept><rtept lat="37.98475" lon="-106.848687"><ele>3256.4</ele><time>2026-04-10T15:27:36Z</time></rtept><rtept lat="37.984428" lon="-106.849395"><ele>3263.6</ele><time>2026-04-10T15:27:36Z</time></rtept><rtept lat="37.984107" lon="-106.849996"><ele>3264.8</ele><time>2026-04-10T15:27:36Z</time></rtept><rtept lat="37.983928" lon="-106.850528"><ele>3270.2</ele><time>2026-04-10T15:27:36Z</time></rtept><rtept lat="37.983835" lon="-106.850977"><ele>3271.2</ele><time>2026-04-10T15:27:36Z</time></rtept><rtept lat="37.983859" lon="-106.851479"><ele>3278.4</ele><time>2026-04-10T15:27:36Z</time></rtept><rtept lat="37.983819" lon="-106.852016"><ele>3284.2</ele><time>2026-04-10T15:27:36Z</time></rtept><rtept lat="37.983672" lon="-106.852477"><ele>3287.8</ele><time>2026-04-10T15:27:36Z</time></rtept><rtept lat="37.983439" lon="-106.85265"><ele>3282.4</ele><time>2026-04-10T15:27:36Z</time></rtept><rtept lat="37.983207" lon="-106.85311"><ele>3287.4</ele><time>2026-04-10T15:27:36Z</time></rtept><rtept lat="37.983088" lon="-106.853465"><ele>3292.0</ele><time>2026-04-10T15:27:36Z</time></rtept><rtept lat="37.982856" lon="-106.853925"><ele>3293.8</ele><time>2026-04-10T15:27:36Z</time></rtept><rtept lat="37.982563" lon="-106.85449"><ele>3296.4</ele><time>2026-04-10T15:27:36Z</time></rtept><rtept lat="37.982241" lon="-106.855198"><ele>3300.6</ele><time>2026-04-10T15:27:36Z</time></rtept><rtept lat="37.982052" lon="-106.85634"><ele>3305.8</ele><time>2026-04-10T15:27:36Z</time></rtept><rtept lat="37.981814" lon="-106.857122"><ele>3305.8</ele><time>2026-04-10T15:27:36Z</time></rtept><rtept lat="37.981685" lon="-106.85787"><ele>3309.2</ele><time>2026-04-10T15:27:36Z</time></rtept><rtept lat="37.98139" lon="-106.858579"><ele>3313.8</ele><time>2026-04-10T15:27:36Z</time></rtept><rtept lat="37.981212" lon="-106.85929"><ele>3317.4</ele><time>2026-04-10T15:27:36Z</time></rtept><rtept lat="37.981117" lon="-106.859897"><ele>3323.4</ele><time>2026-04-10T15:27:36Z</time></rtept><rtept lat="37.981048" lon="-106.860539"><ele>3326.8</ele><time>2026-04-10T15:27:36Z</time></rtept><rtept lat="37.980872" lon="-106.861144"><ele>3327.6</ele><time>2026-04-10T15:27:36Z</time></rtept><rtept lat="37.98069" lon="-106.861855"><ele>3330.6</ele><time>2026-04-10T15:27:36Z</time></rtept><rtept lat="37.980564" lon="-106.86264"><ele>3335.8</ele><time>2026-04-10T15:27:36Z</time></rtept><rtept lat="37.980498" lon="-106.863125"><ele>3339.2</ele><time>2026-04-10T15:27:36Z</time></rtept><rtept lat="37.980488" lon="-106.863769"><ele>3345.6</ele><time>2026-04-10T15:27:36Z</time></rtept><rtept lat="37.980505" lon="-106.864378"><ele>3350.0</ele><time>2026-04-10T15:27:36Z</time></rtept><rtept lat="37.980581" lon="-106.864989"><ele>3355.6</ele><time>2026-04-10T15:27:36Z</time></rtept><rtept lat="37.980489" lon="-106.865381"><ele>3357.4</ele><time>2026-04-10T15:27:36Z</time></rtept><rtept lat="37.980317" lon="-106.86577"><ele>3357.8</ele><time>2026-04-10T15:27:36Z</time></rtept><rtept lat="37.980081" lon="-106.866122"><ele>3357.0</ele><time>2026-04-10T15:27:36Z</time></rtept><rtept lat="37.980012" lon="-106.866182"><ele>3356.6</ele><time>2026-04-10T15:27:36Z</time></rtept><rtept lat="37.980012" lon="-106.866182"><ele>3356.6</ele><time>2026-04-10T15:27:36Z</time></rtept><rtept lat="37.979679" lon="-106.86647"><ele>3354.2</ele><time>2026-04-10T15:27:36Z</time></rtept><rtept lat="37.979422" lon="-106.866786"><ele>3353.8</ele><time>2026-04-10T15:27:36Z</time></rtept><rtept lat="37.979244" lon="-106.867175"><ele>3355.0</ele><time>2026-04-10T15:27:36Z</time></rtept><rtept lat="37.979127" lon="-106.867494"><ele>3357.8</ele><time>2026-04-10T15:27:36Z</time></rtept><rtept lat="37.979035" lon="-106.867886"><ele>3361.8</ele><time>2026-04-10T15:27:36Z</time></rtept><rtept lat="37.978745" lon="-106.868237"><ele>3361.6</ele><time>2026-04-10T15:27:36Z</time></rtept><rtept lat="37.978513" lon="-106.868696"><ele>3362.8</ele><time>2026-04-10T15:27:36Z</time></rtept><rtept lat="37.978415" lon="-106.869197"><ele>3364.2</ele><time>2026-04-10T15:27:36Z</time></rtept><rtept lat="37.978273" lon="-106.869477"><ele>3363.8</ele><time>2026-04-10T15:27:36Z</time></rtept><rtept lat="37.978349" lon="-106.869803"><ele>3368.4</ele><time>2026-04-10T15:27:36Z</time></rtept><rtept lat="37.978286" lon="-106.870269"><ele>3372.2</ele><time>2026-04-10T15:27:36Z</time></rtept><rtept lat="37.977916" lon="-106.871167"><ele>3373.6</ele><time>2026-04-10T15:27:36Z</time></rtept><rtept lat="37.977904" lon="-106.871337"><ele>3374.4</ele><time>2026-04-10T15:27:36Z</time></rtept><rtept lat="37.977977" lon="-106.871608"><ele>3377.2</ele><time>2026-04-10T15:27:36Z</time></rtept><rtept lat="37.977924" lon="-106.871725"><ele>3377.8</ele><time>2026-04-10T15:27:36Z</time></rtept><rtept lat="37.977873" lon="-106.872291"><ele>3380.4</ele><time>2026-04-10T15:27:36Z</time></rtept><rtept lat="37.977746" lon="-106.872697"><ele>3382.2</ele><time>2026-04-10T15:27:36Z</time></rtept><rtept lat="37.977704" lon="-106.873154"><ele>3386.0</ele><time>2026-04-10T15:27:36Z</time></rtept><rtept lat="37.977696" lon="-106.873581"><ele>3388.6</ele><time>2026-04-10T15:27:36Z</time></rtept><rtept lat="37.977632" lon="-106.874188"><ele>3394.6</ele><time>2026-04-10T15:27:36Z</time></rtept><rtept lat="37.97762" lon="-106.874975"><ele>3401.0</ele><time>2026-04-10T15:27:36Z</time></rtept><rtept lat="37.977549" lon="-106.875725"><ele>3407.6</ele><time>2026-04-10T15:27:36Z</time></rtept><rtept lat="37.977622" lon="-106.876299"><ele>3413.8</ele><time>2026-04-10T15:27:36Z</time></rtept><rtept lat="37.977521" lon="-106.876515"><ele>3417.2</ele><time>2026-04-10T15:27:36Z</time></rtept><rtept lat="37.977498" lon="-106.876754"><ele>3421.6</ele><time>2026-04-10T15:27:36Z</time></rtept><rtept lat="37.977332" lon="-106.876937"><ele>3421.2</ele><time>2026-04-10T15:27:36Z</time></rtept><rtept lat="37.977179" lon="-106.877434"><ele>3427.6</ele><time>2026-04-10T15:27:36Z</time></rtept><rtept lat="37.976986" lon="-106.877713"><ele>3428.8</ele><time>2026-04-10T15:27:36Z</time></rtept><rtept lat="37.976986" lon="-106.878061"><ele>3430.8</ele><time>2026-04-10T15:27:36Z</time></rtept><rtept lat="37.976909" lon="-106.878328"><ele>3430.6</ele><time>2026-04-10T15:27:36Z</time></rtept><rtept lat="37.976857" lon="-106.878779"><ele>3435.4</ele><time>2026-04-10T15:27:36Z</time></rtept><rtept lat="37.976747" lon="-106.879149"><ele>3435.6</ele><time>2026-04-10T15:27:36Z</time></rtept><rtept lat="37.97674" lon="-106.879579"><ele>3437.8</ele><time>2026-04-10T15:27:36Z</time></rtept><rtept lat="37.976638" lon="-106.880118"><ele>3441.0</ele><time>2026-04-10T15:27:36Z</time></rtept><rtept lat="37.976575" lon="-106.880341"><ele>3441.6</ele><time>2026-04-10T15:27:36Z</time></rtept><rtept lat="37.976626" lon="-106.88055"><ele>3443.8</ele><time>2026-04-10T15:27:36Z</time></rtept><rtept lat="37.976482" lon="-106.880905"><ele>3442.8</ele><time>2026-04-10T15:27:36Z</time></rtept><rtept lat="37.976423" lon="-106.881088"><ele>3442.0</ele><time>2026-04-10T15:27:36Z</time></rtept><rtept lat="37.976435" lon="-106.881545"><ele>3445.6</ele><time>2026-04-10T15:27:36Z</time></rtept><rtept lat="37.976367" lon="-106.881962"><ele>3448.4</ele><time>2026-04-10T15:27:36Z</time></rtept><rtept lat="37.976179" lon="-106.882235"><ele>3448.4</ele><time>2026-04-10T15:27:36Z</time></rtept><rtept lat="37.975936" lon="-106.882784"><ele>3450.0</ele><time>2026-04-10T15:27:36Z</time></rtept><rtept lat="37.975701" lon="-106.883362"><ele>3449.0</ele><time>2026-04-10T15:27:36Z</time></rtept><rtept lat="37.975646" lon="-106.884045"><ele>3451.2</ele><time>2026-04-10T15:27:36Z</time></rtept><rtept lat="37.975639" lon="-106.884456"><ele>3452.0</ele><time>2026-04-10T15:27:36Z</time></rtept><rtept lat="37.975749" lon="-106.884888"><ele>3457.2</ele><time>2026-04-10T15:27:36Z</time></rtept><rtept lat="37.975714" lon="-106.885102"><ele>3457.6</ele><time>2026-04-10T15:27:36Z</time></rtept><rtept lat="37.975597" lon="-106.885385"><ele>3457.4</ele><time>2026-04-10T15:27:36Z</time></rtept><rtept lat="37.975601" lon="-106.885712"><ele>3462.0</ele><time>2026-04-10T15:27:36Z</time></rtept><rtept lat="37.975472" lon="-106.886186"><ele>3466.2</ele><time>2026-04-10T15:27:36Z</time></rtept><rtept lat="37.975522" lon="-106.886701"><ele>3470.2</ele><time>2026-04-10T15:27:36Z</time></rtept><rtept lat="37.975576" lon="-106.886992"><ele>3473.2</ele><time>2026-04-10T15:27:36Z</time></rtept><rtept lat="37.975568" lon="-106.887204"><ele>3473.6</ele><time>2026-04-10T15:27:36Z</time></rtept><rtept lat="37.975638" lon="-106.887584"><ele>3476.2</ele><time>2026-04-10T15:27:36Z</time></rtept><rtept lat="37.975645" lon="-106.887743"><ele>3477.6</ele><time>2026-04-10T15:27:36Z</time></rtept><rtept lat="37.975522" lon="-106.888121"><ele>3478.6</ele><time>2026-04-10T15:27:36Z</time></rtept><rtept lat="37.975375" lon="-106.888543"><ele>3481.0</ele><time>2026-04-10T15:27:36Z</time></rtept><rtept lat="37.975303" lon="-106.888636"><ele>3481.2</ele><time>2026-04-10T15:27:36Z</time></rtept><rtept lat="37.975089" lon="-106.888981"><ele>3482.8</ele><time>2026-04-10T15:27:36Z</time></rtept><rtept lat="37.974958" lon="-106.889349"><ele>3484.8</ele><time>2026-04-10T15:27:36Z</time></rtept><rtept lat="37.974901" lon="-106.889811"><ele>3487.2</ele><time>2026-04-10T15:27:36Z</time></rtept><rtept lat="37.974937" lon="-106.8903"><ele>3492.0</ele><time>2026-04-10T15:27:36Z</time></rtept><rtept lat="37.974808" lon="-106.890442"><ele>3491.0</ele><time>2026-04-10T15:27:36Z</time></rtept><rtept lat="37.974736" lon="-106.8913"><ele>3497.0</ele><time>2026-04-10T15:27:36Z</time></rtept><rtept lat="37.97479" lon="-106.891621"><ele>3500.2</ele><time>2026-04-10T15:27:36Z</time></rtept><rtept lat="37.974726" lon="-106.891908"><ele>3500.2</ele><time>2026-04-10T15:27:36Z</time></rtept><rtept lat="37.974661" lon="-106.892622"><ele>3503.8</ele><time>2026-04-10T15:27:36Z</time></rtept><rtept lat="37.974681" lon="-106.893053"><ele>3505.4</ele><time>2026-04-10T15:27:36Z</time></rtept><rtept lat="37.974739" lon="-106.893249"><ele>3507.0</ele><time>2026-04-10T15:27:36Z</time></rtept><rtept lat="37.974847" lon="-106.893379"><ele>3508.4</ele><time>2026-04-10T15:27:36Z</time></rtept><rtept lat="37.975091" lon="-106.893851"><ele>3512.2</ele><time>2026-04-10T15:27:36Z</time></rtept><rtept lat="37.975313" lon="-106.894358"><ele>3516.4</ele><time>2026-04-10T15:27:36Z</time></rtept><rtept lat="37.975614" lon="-106.894974"><ele>3523.4</ele><time>2026-04-10T15:27:36Z</time></rtept><rtept lat="37.975832" lon="-106.895409"><ele>3529.6</ele><time>2026-04-10T15:27:36Z</time></rtept><rtept lat="37.975801" lon="-106.895695"><ele>3532.2</ele><time>2026-04-10T15:27:36Z</time></rtept><rtept lat="37.975713" lon="-106.895836"><ele>3530.8</ele><time>2026-04-10T15:27:36Z</time></rtept><rtept lat="37.975513" lon="-106.895902"><ele>3529.4</ele><time>2026-04-10T15:27:36Z</time></rtept><rtept lat="37.975288" lon="-106.895896"><ele>3527.2</ele><time>2026-04-10T15:27:36Z</time></rtept><rtept lat="37.975001" lon="-106.896104"><ele>3526.2</ele><time>2026-04-10T15:27:36Z</time></rtept><rtept lat="37.974737" lon="-106.896544"><ele>3527.4</ele><time>2026-04-10T15:27:36Z</time></rtept><rtept lat="37.974612" lon="-106.896715"><ele>3526.4</ele><time>2026-04-10T15:27:36Z</time></rtept><rtept lat="37.974551" lon="-106.897216"><ele>3528.4</ele><time>2026-04-10T15:27:36Z</time></rtept><rtept lat="37.974458" lon="-106.897555"><ele>3529.0</ele><time>2026-04-10T15:27:36Z</time></rtept><rtept lat="37.974402" lon="-106.897903"><ele>3529.4</ele><time>2026-04-10T15:27:36Z</time></rtept><rtept lat="37.974404" lon="-106.89822"><ele>3531.0</ele><time>2026-04-10T15:27:36Z</time></rtept><rtept lat="37.974329" lon="-106.898951"><ele>3534.2</ele><time>2026-04-10T15:27:36Z</time></rtept><rtept lat="37.974359" lon="-106.899509"><ele>3535.0</ele><time>2026-04-10T15:27:36Z</time></rtept><rtept lat="37.974318" lon="-106.899631"><ele>3535.2</ele><time>2026-04-10T15:27:36Z</time></rtept><rtept lat="37.974318" lon="-106.899643"><ele>3535.4</ele><time>2026-04-10T15:27:36Z</time></rtept><rtept lat="37.974315" lon="-106.899723"><ele>3536.0</ele><time>2026-04-10T15:27:36Z</time></rtept></rte></gpx>