<?xml version="1.0" ?><gpx xmlns="http://www.topografix.com/GPX/1/1" creator="GaiaGPS" version="1.1" xmlns:xsi="http://www.w3.org/2001/XMLSchema-instance" xsi:schemaLocation="http://www.topografix.com/GPX/1/1 http://www.topografix.com/GPX/1/1/gpx.xsd"><rte><name>TD13:S3:D4 Willow Cr to Spring Creek Pass</name><desc>Trail day 13, segment 3, day 4. Night in Lake City?</desc><extensions><line xmlns="http://www.topografix.com/GPX/gpx_style/0/2"><color>FFEF00</color></line></extensions><rtept lat="37.939699" lon="-107.074345"><ele>3751.8</ele><time>2026-04-10T15:33:17Z</time></rtept><rtept lat="37.939543" lon="-107.074201"><ele>3753.0</ele><time>2026-04-10T15:33:17Z</time></rtept><rtept lat="37.939461" lon="-107.074345"><ele>3752.8</ele><time>2026-04-10T15:33:17Z</time></rtept><rtept lat="37.939279" lon="-107.074716"><ele>3753.0</ele><time>2026-04-10T15:33:17Z</time></rtept><rtept lat="37.939241" lon="-107.074828"><ele>3753.0</ele><time>2026-04-10T15:33:17Z</time></rtept><rtept lat="37.939197" lon="-107.075"><ele>3752.6</ele><time>2026-04-10T15:33:17Z</time></rtept><rtept lat="37.939135" lon="-107.075706"><ele>3751.4</ele><time>2026-04-10T15:33:17Z</time></rtept><rtept lat="37.93909" lon="-107.07595"><ele>3751.0</ele><time>2026-04-10T15:33:17Z</time></rtept><rtept lat="37.939033" lon="-107.076118"><ele>3750.6</ele><time>2026-04-10T15:33:17Z</time></rtept><rtept lat="37.938892" lon="-107.076443"><ele>3750.0</ele><time>2026-04-10T15:33:17Z</time></rtept><rtept lat="37.938779" lon="-107.076739"><ele>3749.0</ele><time>2026-04-10T15:33:17Z</time></rtept><rtept lat="37.938731" lon="-107.076909"><ele>3748.6</ele><time>2026-04-10T15:33:17Z</time></rtept><rtept lat="37.938677" lon="-107.077144"><ele>3747.8</ele><time>2026-04-10T15:33:17Z</time></rtept><rtept lat="37.93854" lon="-107.077529"><ele>3746.8</ele><time>2026-04-10T15:33:17Z</time></rtept><rtept lat="37.938445" lon="-107.077815"><ele>3746.2</ele><time>2026-04-10T15:33:17Z</time></rtept><rtept lat="37.938453" lon="-107.077916"><ele>3745.6</ele><time>2026-04-10T15:33:17Z</time></rtept><rtept lat="37.938402" lon="-107.07804"><ele>3745.4</ele><time>2026-04-10T15:33:17Z</time></rtept><rtept lat="37.938352" lon="-107.078137"><ele>3745.4</ele><time>2026-04-10T15:33:17Z</time></rtept><rtept lat="37.938356" lon="-107.078183"><ele>3745.2</ele><time>2026-04-10T15:33:17Z</time></rtept><rtept lat="37.938417" lon="-107.078358"><ele>3745.4</ele><time>2026-04-10T15:33:17Z</time></rtept><rtept lat="37.938451" lon="-107.078498"><ele>3745.6</ele><time>2026-04-10T15:33:17Z</time></rtept><rtept lat="37.938462" lon="-107.078613"><ele>3746.0</ele><time>2026-04-10T15:33:17Z</time></rtept><rtept lat="37.938479" lon="-107.079209"><ele>3747.6</ele><time>2026-04-10T15:33:17Z</time></rtept><rtept lat="37.938463" lon="-107.079568"><ele>3748.6</ele><time>2026-04-10T15:33:17Z</time></rtept><rtept lat="37.938464" lon="-107.079809"><ele>3749.6</ele><time>2026-04-10T15:33:17Z</time></rtept><rtept lat="37.938455" lon="-107.080051"><ele>3750.6</ele><time>2026-04-10T15:33:17Z</time></rtept><rtept lat="37.938364" lon="-107.081136"><ele>3751.8</ele><time>2026-04-10T15:33:17Z</time></rtept><rtept lat="37.938347" lon="-107.081298"><ele>3750.8</ele><time>2026-04-10T15:33:17Z</time></rtept><rtept lat="37.938323" lon="-107.081399"><ele>3750.4</ele><time>2026-04-10T15:33:17Z</time></rtept><rtept lat="37.938312" lon="-107.081496"><ele>3749.8</ele><time>2026-04-10T15:33:17Z</time></rtept><rtept lat="37.938311" lon="-107.08181"><ele>3747.0</ele><time>2026-04-10T15:33:17Z</time></rtept><rtept lat="37.938327" lon="-107.081927"><ele>3746.4</ele><time>2026-04-10T15:33:17Z</time></rtept><rtept lat="37.938357" lon="-107.082039"><ele>3745.6</ele><time>2026-04-10T15:33:17Z</time></rtept><rtept lat="37.938478" lon="-107.08228"><ele>3746.2</ele><time>2026-04-10T15:33:17Z</time></rtept><rtept lat="37.938522" lon="-107.082381"><ele>3746.4</ele><time>2026-04-10T15:33:17Z</time></rtept><rtept lat="37.938573" lon="-107.082525"><ele>3746.4</ele><time>2026-04-10T15:33:17Z</time></rtept><rtept lat="37.938607" lon="-107.08266"><ele>3746.8</ele><time>2026-04-10T15:33:17Z</time></rtept><rtept lat="37.938658" lon="-107.082815"><ele>3747.0</ele><time>2026-04-10T15:33:17Z</time></rtept><rtept lat="37.938719" lon="-107.082969"><ele>3747.8</ele><time>2026-04-10T15:33:17Z</time></rtept><rtept lat="37.938793" lon="-107.083105"><ele>3748.4</ele><time>2026-04-10T15:33:17Z</time></rtept><rtept lat="37.938806" lon="-107.083153"><ele>3748.4</ele><time>2026-04-10T15:33:17Z</time></rtept><rtept lat="37.938824" lon="-107.083364"><ele>3748.6</ele><time>2026-04-10T15:33:17Z</time></rtept><rtept lat="37.938823" lon="-107.08342"><ele>3748.6</ele><time>2026-04-10T15:33:17Z</time></rtept><rtept lat="37.938803" lon="-107.083525"><ele>3748.8</ele><time>2026-04-10T15:33:17Z</time></rtept><rtept lat="37.938789" lon="-107.083559"><ele>3748.8</ele><time>2026-04-10T15:33:17Z</time></rtept><rtept lat="37.938773" lon="-107.083722"><ele>3748.0</ele><time>2026-04-10T15:33:17Z</time></rtept><rtept lat="37.938782" lon="-107.08394"><ele>3749.6</ele><time>2026-04-10T15:33:17Z</time></rtept><rtept lat="37.938765" lon="-107.084189"><ele>3751.6</ele><time>2026-04-10T15:33:17Z</time></rtept><rtept lat="37.938731" lon="-107.084325"><ele>3752.4</ele><time>2026-04-10T15:33:17Z</time></rtept><rtept lat="37.938712" lon="-107.084382"><ele>3751.6</ele><time>2026-04-10T15:33:17Z</time></rtept><rtept lat="37.938615" lon="-107.084501"><ele>3750.6</ele><time>2026-04-10T15:33:17Z</time></rtept><rtept lat="37.938568" lon="-107.084595"><ele>3749.8</ele><time>2026-04-10T15:33:17Z</time></rtept><rtept lat="37.938477" lon="-107.084915"><ele>3750.6</ele><time>2026-04-10T15:33:17Z</time></rtept><rtept lat="37.93842" lon="-107.085072"><ele>3750.2</ele><time>2026-04-10T15:33:17Z</time></rtept><rtept lat="37.938341" lon="-107.085222"><ele>3749.6</ele><time>2026-04-10T15:33:17Z</time></rtept><rtept lat="37.938253" lon="-107.085368"><ele>3748.8</ele><time>2026-04-10T15:33:17Z</time></rtept><rtept lat="37.938186" lon="-107.085581"><ele>3747.8</ele><time>2026-04-10T15:33:17Z</time></rtept><rtept lat="37.938221" lon="-107.085865"><ele>3745.6</ele><time>2026-04-10T15:33:17Z</time></rtept><rtept lat="37.938309" lon="-107.086254"><ele>3742.2</ele><time>2026-04-10T15:33:17Z</time></rtept><rtept lat="37.938325" lon="-107.086369"><ele>3741.6</ele><time>2026-04-10T15:33:17Z</time></rtept><rtept lat="37.938337" lon="-107.08673"><ele>3739.0</ele><time>2026-04-10T15:33:17Z</time></rtept><rtept lat="37.938324" lon="-107.086915"><ele>3736.8</ele><time>2026-04-10T15:33:17Z</time></rtept><rtept lat="37.938357" lon="-107.087113"><ele>3734.4</ele><time>2026-04-10T15:33:17Z</time></rtept><rtept lat="37.938415" lon="-107.087393"><ele>3734.4</ele><time>2026-04-10T15:33:17Z</time></rtept><rtept lat="37.938418" lon="-107.08749"><ele>3733.8</ele><time>2026-04-10T15:33:17Z</time></rtept><rtept lat="37.938354" lon="-107.087769"><ele>3731.0</ele><time>2026-04-10T15:33:17Z</time></rtept><rtept lat="37.938306" lon="-107.088215"><ele>3727.6</ele><time>2026-04-10T15:33:17Z</time></rtept><rtept lat="37.938291" lon="-107.088291"><ele>3727.4</ele><time>2026-04-10T15:33:17Z</time></rtept><rtept lat="37.938266" lon="-107.088916"><ele>3727.4</ele><time>2026-04-10T15:33:17Z</time></rtept><rtept lat="37.938194" lon="-107.089174"><ele>3727.0</ele><time>2026-04-10T15:33:17Z</time></rtept><rtept lat="37.938188" lon="-107.08926"><ele>3727.0</ele><time>2026-04-10T15:33:17Z</time></rtept><rtept lat="37.938213" lon="-107.089425"><ele>3727.0</ele><time>2026-04-10T15:33:17Z</time></rtept><rtept lat="37.938224" lon="-107.089539"><ele>3727.2</ele><time>2026-04-10T15:33:17Z</time></rtept><rtept lat="37.938202" lon="-107.089717"><ele>3728.2</ele><time>2026-04-10T15:33:17Z</time></rtept><rtept lat="37.938218" lon="-107.089863"><ele>3730.0</ele><time>2026-04-10T15:33:17Z</time></rtept><rtept lat="37.938218" lon="-107.090133"><ele>3731.8</ele><time>2026-04-10T15:33:17Z</time></rtept><rtept lat="37.938225" lon="-107.090207"><ele>3732.2</ele><time>2026-04-10T15:33:17Z</time></rtept><rtept lat="37.938218" lon="-107.090363"><ele>3732.6</ele><time>2026-04-10T15:33:17Z</time></rtept><rtept lat="37.938208" lon="-107.090433"><ele>3732.6</ele><time>2026-04-10T15:33:17Z</time></rtept><rtept lat="37.938211" lon="-107.090495"><ele>3733.0</ele><time>2026-04-10T15:33:17Z</time></rtept><rtept lat="37.938177" lon="-107.090662"><ele>3733.8</ele><time>2026-04-10T15:33:17Z</time></rtept><rtept lat="37.938173" lon="-107.091116"><ele>3735.4</ele><time>2026-04-10T15:33:17Z</time></rtept><rtept lat="37.938167" lon="-107.091181"><ele>3735.6</ele><time>2026-04-10T15:33:17Z</time></rtept><rtept lat="37.938173" lon="-107.091345"><ele>3736.2</ele><time>2026-04-10T15:33:17Z</time></rtept><rtept lat="37.938169" lon="-107.0916"><ele>3737.8</ele><time>2026-04-10T15:33:17Z</time></rtept><rtept lat="37.938178" lon="-107.09186"><ele>3740.0</ele><time>2026-04-10T15:33:17Z</time></rtept><rtept lat="37.938177" lon="-107.092187"><ele>3743.8</ele><time>2026-04-10T15:33:17Z</time></rtept><rtept lat="37.938194" lon="-107.09271"><ele>3746.2</ele><time>2026-04-10T15:33:17Z</time></rtept><rtept lat="37.938205" lon="-107.09289"><ele>3746.6</ele><time>2026-04-10T15:33:17Z</time></rtept><rtept lat="37.938232" lon="-107.093155"><ele>3747.4</ele><time>2026-04-10T15:33:17Z</time></rtept><rtept lat="37.938243" lon="-107.093243"><ele>3747.8</ele><time>2026-04-10T15:33:17Z</time></rtept><rtept lat="37.938264" lon="-107.093324"><ele>3748.2</ele><time>2026-04-10T15:33:17Z</time></rtept><rtept lat="37.938319" lon="-107.093805"><ele>3751.4</ele><time>2026-04-10T15:33:17Z</time></rtept><rtept lat="37.938389" lon="-107.094154"><ele>3753.6</ele><time>2026-04-10T15:33:17Z</time></rtept><rtept lat="37.938454" lon="-107.094601"><ele>3754.2</ele><time>2026-04-10T15:33:17Z</time></rtept><rtept lat="37.938587" lon="-107.095432"><ele>3753.4</ele><time>2026-04-10T15:33:17Z</time></rtept><rtept lat="37.938595" lon="-107.095526"><ele>3753.4</ele><time>2026-04-10T15:33:17Z</time></rtept><rtept lat="37.938611" lon="-107.095619"><ele>3753.4</ele><time>2026-04-10T15:33:17Z</time></rtept><rtept lat="37.938737" lon="-107.096909"><ele>3752.6</ele><time>2026-04-10T15:33:17Z</time></rtept><rtept lat="37.938761" lon="-107.097088"><ele>3752.8</ele><time>2026-04-10T15:33:17Z</time></rtept><rtept lat="37.938771" lon="-107.097276"><ele>3753.0</ele><time>2026-04-10T15:33:17Z</time></rtept><rtept lat="37.938771" lon="-107.097547"><ele>3753.4</ele><time>2026-04-10T15:33:17Z</time></rtept><rtept lat="37.938782" lon="-107.097917"><ele>3753.6</ele><time>2026-04-10T15:33:17Z</time></rtept><rtept lat="37.938803" lon="-107.098268"><ele>3754.2</ele><time>2026-04-10T15:33:17Z</time></rtept><rtept lat="37.938796" lon="-107.098377"><ele>3754.0</ele><time>2026-04-10T15:33:17Z</time></rtept><rtept lat="37.938786" lon="-107.098471"><ele>3753.8</ele><time>2026-04-10T15:33:17Z</time></rtept><rtept lat="37.938766" lon="-107.098562"><ele>3752.4</ele><time>2026-04-10T15:33:17Z</time></rtept><rtept lat="37.938745" lon="-107.098747"><ele>3751.4</ele><time>2026-04-10T15:33:17Z</time></rtept><rtept lat="37.938721" lon="-107.099082"><ele>3749.0</ele><time>2026-04-10T15:33:17Z</time></rtept><rtept lat="37.938711" lon="-107.099137"><ele>3747.8</ele><time>2026-04-10T15:33:17Z</time></rtept><rtept lat="37.938662" lon="-107.099318"><ele>3746.8</ele><time>2026-04-10T15:33:17Z</time></rtept><rtept lat="37.938628" lon="-107.099498"><ele>3744.8</ele><time>2026-04-10T15:33:17Z</time></rtept><rtept lat="37.938545" lon="-107.099815"><ele>3740.2</ele><time>2026-04-10T15:33:17Z</time></rtept><rtept lat="37.938455" lon="-107.100094"><ele>3736.6</ele><time>2026-04-10T15:33:17Z</time></rtept><rtept lat="37.93843" lon="-107.100196"><ele>3735.0</ele><time>2026-04-10T15:33:17Z</time></rtept><rtept lat="37.938415" lon="-107.100292"><ele>3734.4</ele><time>2026-04-10T15:33:17Z</time></rtept><rtept lat="37.938397" lon="-107.100566"><ele>3733.8</ele><time>2026-04-10T15:33:17Z</time></rtept><rtept lat="37.938263" lon="-107.101011"><ele>3737.2</ele><time>2026-04-10T15:33:17Z</time></rtept><rtept lat="37.938135" lon="-107.101359"><ele>3741.4</ele><time>2026-04-10T15:33:17Z</time></rtept><rtept lat="37.938053" lon="-107.101637"><ele>3744.2</ele><time>2026-04-10T15:33:17Z</time></rtept><rtept lat="37.937973" lon="-107.101855"><ele>3747.8</ele><time>2026-04-10T15:33:17Z</time></rtept><rtept lat="37.937905" lon="-107.102139"><ele>3752.6</ele><time>2026-04-10T15:33:17Z</time></rtept><rtept lat="37.93777" lon="-107.102592"><ele>3758.4</ele><time>2026-04-10T15:33:17Z</time></rtept><rtept lat="37.93771" lon="-107.102913"><ele>3761.2</ele><time>2026-04-10T15:33:17Z</time></rtept><rtept lat="37.937667" lon="-107.103076"><ele>3762.2</ele><time>2026-04-10T15:33:17Z</time></rtept><rtept lat="37.937572" lon="-107.103375"><ele>3763.8</ele><time>2026-04-10T15:33:17Z</time></rtept><rtept lat="37.937336" lon="-107.103941"><ele>3766.4</ele><time>2026-04-10T15:33:17Z</time></rtept><rtept lat="37.937057" lon="-107.104688"><ele>3767.8</ele><time>2026-04-10T15:33:17Z</time></rtept><rtept lat="37.937027" lon="-107.104865"><ele>3768.2</ele><time>2026-04-10T15:33:17Z</time></rtept><rtept lat="37.936959" lon="-107.105355"><ele>3769.4</ele><time>2026-04-10T15:33:17Z</time></rtept><rtept lat="37.936953" lon="-107.105438"><ele>3769.2</ele><time>2026-04-10T15:33:17Z</time></rtept><rtept lat="37.936923" lon="-107.105616"><ele>3769.6</ele><time>2026-04-10T15:33:17Z</time></rtept><rtept lat="37.936908" lon="-107.10569"><ele>3769.6</ele><time>2026-04-10T15:33:17Z</time></rtept><rtept lat="37.936832" lon="-107.105925"><ele>3769.8</ele><time>2026-04-10T15:33:17Z</time></rtept><rtept lat="37.936792" lon="-107.106121"><ele>3770.0</ele><time>2026-04-10T15:33:17Z</time></rtept><rtept lat="37.936766" lon="-107.106336"><ele>3770.2</ele><time>2026-04-10T15:33:17Z</time></rtept><rtept lat="37.936757" lon="-107.10662"><ele>3770.6</ele><time>2026-04-10T15:33:17Z</time></rtept><rtept lat="37.936756" lon="-107.107387"><ele>3770.8</ele><time>2026-04-10T15:33:17Z</time></rtept><rtept lat="37.936736" lon="-107.107766"><ele>3770.2</ele><time>2026-04-10T15:33:17Z</time></rtept><rtept lat="37.936739" lon="-107.107862"><ele>3770.0</ele><time>2026-04-10T15:33:17Z</time></rtept><rtept lat="37.936731" lon="-107.108064"><ele>3769.8</ele><time>2026-04-10T15:33:17Z</time></rtept><rtept lat="37.936739" lon="-107.108334"><ele>3770.0</ele><time>2026-04-10T15:33:17Z</time></rtept><rtept lat="37.936733" lon="-107.108703"><ele>3770.0</ele><time>2026-04-10T15:33:17Z</time></rtept><rtept lat="37.936716" lon="-107.1089"><ele>3769.6</ele><time>2026-04-10T15:33:17Z</time></rtept><rtept lat="37.936668" lon="-107.109279"><ele>3768.0</ele><time>2026-04-10T15:33:17Z</time></rtept><rtept lat="37.936635" lon="-107.109661"><ele>3766.6</ele><time>2026-04-10T15:33:17Z</time></rtept><rtept lat="37.936559" lon="-107.110854"><ele>3761.4</ele><time>2026-04-10T15:33:17Z</time></rtept><rtept lat="37.936538" lon="-107.111305"><ele>3759.4</ele><time>2026-04-10T15:33:17Z</time></rtept><rtept lat="37.936488" lon="-107.111788"><ele>3757.4</ele><time>2026-04-10T15:33:17Z</time></rtept><rtept lat="37.936403" lon="-107.112293"><ele>3750.6</ele><time>2026-04-10T15:33:17Z</time></rtept><rtept lat="37.93637" lon="-107.112594"><ele>3749.0</ele><time>2026-04-10T15:33:17Z</time></rtept><rtept lat="37.936358" lon="-107.112784"><ele>3749.6</ele><time>2026-04-10T15:33:17Z</time></rtept><rtept lat="37.936294" lon="-107.113339"><ele>3751.4</ele><time>2026-04-10T15:33:17Z</time></rtept><rtept lat="37.936217" lon="-107.114363"><ele>3755.0</ele><time>2026-04-10T15:33:17Z</time></rtept><rtept lat="37.93619" lon="-107.114814"><ele>3754.4</ele><time>2026-04-10T15:33:17Z</time></rtept><rtept lat="37.936183" lon="-107.115007"><ele>3753.8</ele><time>2026-04-10T15:33:17Z</time></rtept><rtept lat="37.936185" lon="-107.115388"><ele>3752.0</ele><time>2026-04-10T15:33:17Z</time></rtept><rtept lat="37.936156" lon="-107.115728"><ele>3749.6</ele><time>2026-04-10T15:33:17Z</time></rtept><rtept lat="37.936145" lon="-107.116115"><ele>3746.8</ele><time>2026-04-10T15:33:17Z</time></rtept><rtept lat="37.936147" lon="-107.116487"><ele>3745.4</ele><time>2026-04-10T15:33:17Z</time></rtept><rtept lat="37.936163" lon="-107.116576"><ele>3745.0</ele><time>2026-04-10T15:33:17Z</time></rtept><rtept lat="37.936246" lon="-107.116737"><ele>3744.4</ele><time>2026-04-10T15:33:17Z</time></rtept><rtept lat="37.936276" lon="-107.116834"><ele>3744.0</ele><time>2026-04-10T15:33:17Z</time></rtept><rtept lat="37.936263" lon="-107.117028"><ele>3743.2</ele><time>2026-04-10T15:33:17Z</time></rtept><rtept lat="37.936271" lon="-107.11711"><ele>3742.6</ele><time>2026-04-10T15:33:17Z</time></rtept><rtept lat="37.936187" lon="-107.11749"><ele>3741.8</ele><time>2026-04-10T15:33:17Z</time></rtept><rtept lat="37.936082" lon="-107.118084"><ele>3741.2</ele><time>2026-04-10T15:33:17Z</time></rtept><rtept lat="37.936045" lon="-107.118373"><ele>3741.0</ele><time>2026-04-10T15:33:17Z</time></rtept><rtept lat="37.936007" lon="-107.118777"><ele>3742.8</ele><time>2026-04-10T15:33:17Z</time></rtept><rtept lat="37.935999" lon="-107.118964"><ele>3744.0</ele><time>2026-04-10T15:33:17Z</time></rtept><rtept lat="37.935998" lon="-107.11924"><ele>3746.0</ele><time>2026-04-10T15:33:17Z</time></rtept><rtept lat="37.935932" lon="-107.120156"><ele>3748.0</ele><time>2026-04-10T15:33:17Z</time></rtept><rtept lat="37.935917" lon="-107.120511"><ele>3747.8</ele><time>2026-04-10T15:33:17Z</time></rtept><rtept lat="37.93586" lon="-107.121417"><ele>3746.8</ele><time>2026-04-10T15:33:17Z</time></rtept><rtept lat="37.93583" lon="-107.121797"><ele>3745.6</ele><time>2026-04-10T15:33:17Z</time></rtept><rtept lat="37.935781" lon="-107.122284"><ele>3744.6</ele><time>2026-04-10T15:33:17Z</time></rtept><rtept lat="37.935733" lon="-107.122971"><ele>3742.2</ele><time>2026-04-10T15:33:17Z</time></rtept><rtept lat="37.935721" lon="-107.12336"><ele>3741.2</ele><time>2026-04-10T15:33:17Z</time></rtept><rtept lat="37.93574" lon="-107.123834"><ele>3742.4</ele><time>2026-04-10T15:33:17Z</time></rtept><rtept lat="37.935726" lon="-107.124104"><ele>3743.2</ele><time>2026-04-10T15:33:17Z</time></rtept><rtept lat="37.935717" lon="-107.12487"><ele>3744.4</ele><time>2026-04-10T15:33:17Z</time></rtept><rtept lat="37.935694" lon="-107.125346"><ele>3744.2</ele><time>2026-04-10T15:33:17Z</time></rtept><rtept lat="37.935692" lon="-107.125733"><ele>3744.2</ele><time>2026-04-10T15:33:17Z</time></rtept><rtept lat="37.935691" lon="-107.126057"><ele>3744.2</ele><time>2026-04-10T15:33:17Z</time></rtept><rtept lat="37.935723" lon="-107.126523"><ele>3744.4</ele><time>2026-04-10T15:33:17Z</time></rtept><rtept lat="37.935719" lon="-107.12672"><ele>3744.4</ele><time>2026-04-10T15:33:17Z</time></rtept><rtept lat="37.935708" lon="-107.126818"><ele>3744.4</ele><time>2026-04-10T15:33:17Z</time></rtept><rtept lat="37.935598" lon="-107.127468"><ele>3745.0</ele><time>2026-04-10T15:33:17Z</time></rtept><rtept lat="37.935453" lon="-107.128001"><ele>3744.8</ele><time>2026-04-10T15:33:17Z</time></rtept><rtept lat="37.935412" lon="-107.128268"><ele>3745.0</ele><time>2026-04-10T15:33:17Z</time></rtept><rtept lat="37.935372" lon="-107.128456"><ele>3745.0</ele><time>2026-04-10T15:33:17Z</time></rtept><rtept lat="37.935287" lon="-107.128948"><ele>3745.4</ele><time>2026-04-10T15:33:17Z</time></rtept><rtept lat="37.935191" lon="-107.129275"><ele>3745.6</ele><time>2026-04-10T15:33:17Z</time></rtept><rtept lat="37.934976" lon="-107.129916"><ele>3741.4</ele><time>2026-04-10T15:33:17Z</time></rtept><rtept lat="37.934885" lon="-107.130219"><ele>3737.2</ele><time>2026-04-10T15:33:17Z</time></rtept><rtept lat="37.934857" lon="-107.130286"><ele>3736.2</ele><time>2026-04-10T15:33:17Z</time></rtept><rtept lat="37.934823" lon="-107.130414"><ele>3735.0</ele><time>2026-04-10T15:33:17Z</time></rtept><rtept lat="37.934776" lon="-107.130524"><ele>3733.2</ele><time>2026-04-10T15:33:17Z</time></rtept><rtept lat="37.93478" lon="-107.130549"><ele>3733.2</ele><time>2026-04-10T15:33:17Z</time></rtept><rtept lat="37.934828" lon="-107.130628"><ele>3732.4</ele><time>2026-04-10T15:33:17Z</time></rtept><rtept lat="37.934934" lon="-107.130767"><ele>3732.4</ele><time>2026-04-10T15:33:17Z</time></rtept><rtept lat="37.934933" lon="-107.130845"><ele>3731.0</ele><time>2026-04-10T15:33:17Z</time></rtept><rtept lat="37.934919" lon="-107.130864"><ele>3727.2</ele><time>2026-04-10T15:33:17Z</time></rtept><rtept lat="37.934918" lon="-107.130912"><ele>3727.2</ele><time>2026-04-10T15:33:17Z</time></rtept><rtept lat="37.934908" lon="-107.130931"><ele>3727.2</ele><time>2026-04-10T15:33:17Z</time></rtept><rtept lat="37.934877" lon="-107.130927"><ele>3727.2</ele><time>2026-04-10T15:33:17Z</time></rtept><rtept lat="37.934859" lon="-107.13091"><ele>3727.2</ele><time>2026-04-10T15:33:17Z</time></rtept><rtept lat="37.93485" lon="-107.13092"><ele>3724.8</ele><time>2026-04-10T15:33:17Z</time></rtept><rtept lat="37.934826" lon="-107.131024"><ele>3722.2</ele><time>2026-04-10T15:33:17Z</time></rtept><rtept lat="37.934812" lon="-107.131032"><ele>3722.2</ele><time>2026-04-10T15:33:17Z</time></rtept><rtept lat="37.934745" lon="-107.131011"><ele>3720.2</ele><time>2026-04-10T15:33:17Z</time></rtept><rtept lat="37.934736" lon="-107.131019"><ele>3720.2</ele><time>2026-04-10T15:33:17Z</time></rtept><rtept lat="37.934731" lon="-107.131058"><ele>3719.6</ele><time>2026-04-10T15:33:17Z</time></rtept><rtept lat="37.934647" lon="-107.131185"><ele>3717.4</ele><time>2026-04-10T15:33:17Z</time></rtept><rtept lat="37.934629" lon="-107.131197"><ele>3717.4</ele><time>2026-04-10T15:33:17Z</time></rtept><rtept lat="37.934606" lon="-107.131197"><ele>3717.4</ele><time>2026-04-10T15:33:17Z</time></rtept><rtept lat="37.934566" lon="-107.131168"><ele>3716.6</ele><time>2026-04-10T15:33:17Z</time></rtept><rtept lat="37.934499" lon="-107.131162"><ele>3716.2</ele><time>2026-04-10T15:33:17Z</time></rtept><rtept lat="37.934422" lon="-107.131201"><ele>3715.6</ele><time>2026-04-10T15:33:17Z</time></rtept><rtept lat="37.934272" lon="-107.131232"><ele>3712.2</ele><time>2026-04-10T15:33:17Z</time></rtept><rtept lat="37.934227" lon="-107.131271"><ele>3711.8</ele><time>2026-04-10T15:33:17Z</time></rtept><rtept lat="37.934144" lon="-107.131369"><ele>3709.8</ele><time>2026-04-10T15:33:17Z</time></rtept><rtept lat="37.934129" lon="-107.131418"><ele>3708.0</ele><time>2026-04-10T15:33:17Z</time></rtept><rtept lat="37.934133" lon="-107.131473"><ele>3707.0</ele><time>2026-04-10T15:33:17Z</time></rtept><rtept lat="37.934123" lon="-107.131494"><ele>3707.0</ele><time>2026-04-10T15:33:17Z</time></rtept><rtept lat="37.934086" lon="-107.131565"><ele>3705.8</ele><time>2026-04-10T15:33:17Z</time></rtept><rtept lat="37.934068" lon="-107.131587"><ele>3705.8</ele><time>2026-04-10T15:33:17Z</time></rtept><rtept lat="37.934045" lon="-107.131595"><ele>3705.8</ele><time>2026-04-10T15:33:17Z</time></rtept><rtept lat="37.933999" lon="-107.131648"><ele>3704.8</ele><time>2026-04-10T15:33:17Z</time></rtept><rtept lat="37.933961" lon="-107.131728"><ele>3703.6</ele><time>2026-04-10T15:33:17Z</time></rtept><rtept lat="37.933902" lon="-107.131782"><ele>3703.6</ele><time>2026-04-10T15:33:17Z</time></rtept><rtept lat="37.933839" lon="-107.131997"><ele>3698.4</ele><time>2026-04-10T15:33:17Z</time></rtept><rtept lat="37.933811" lon="-107.132051"><ele>3698.4</ele><time>2026-04-10T15:33:17Z</time></rtept><rtept lat="37.933779" lon="-107.132083"><ele>3696.8</ele><time>2026-04-10T15:33:17Z</time></rtept><rtept lat="37.933773" lon="-107.132192"><ele>3695.4</ele><time>2026-04-10T15:33:17Z</time></rtept><rtept lat="37.933794" lon="-107.132267"><ele>3694.6</ele><time>2026-04-10T15:33:17Z</time></rtept><rtept lat="37.933793" lon="-107.132294"><ele>3694.6</ele><time>2026-04-10T15:33:17Z</time></rtept><rtept lat="37.933755" lon="-107.13242"><ele>3693.4</ele><time>2026-04-10T15:33:17Z</time></rtept><rtept lat="37.933754" lon="-107.132481"><ele>3693.4</ele><time>2026-04-10T15:33:17Z</time></rtept><rtept lat="37.933739" lon="-107.132544"><ele>3692.8</ele><time>2026-04-10T15:33:17Z</time></rtept><rtept lat="37.933738" lon="-107.13262"><ele>3692.2</ele><time>2026-04-10T15:33:17Z</time></rtept><rtept lat="37.93375" lon="-107.1327"><ele>3691.6</ele><time>2026-04-10T15:33:17Z</time></rtept><rtept lat="37.933763" lon="-107.132725"><ele>3691.6</ele><time>2026-04-10T15:33:17Z</time></rtept><rtept lat="37.933767" lon="-107.132754"><ele>3690.8</ele><time>2026-04-10T15:33:17Z</time></rtept><rtept lat="37.933766" lon="-107.132806"><ele>3690.8</ele><time>2026-04-10T15:33:17Z</time></rtept><rtept lat="37.933747" lon="-107.132887"><ele>3690.0</ele><time>2026-04-10T15:33:17Z</time></rtept><rtept lat="37.933759" lon="-107.132955"><ele>3689.2</ele><time>2026-04-10T15:33:17Z</time></rtept><rtept lat="37.933777" lon="-107.132972"><ele>3689.0</ele><time>2026-04-10T15:33:17Z</time></rtept><rtept lat="37.933794" lon="-107.133008"><ele>3688.0</ele><time>2026-04-10T15:33:17Z</time></rtept><rtept lat="37.93383" lon="-107.133003"><ele>3689.0</ele><time>2026-04-10T15:33:17Z</time></rtept><rtept lat="37.933853" lon="-107.133011"><ele>3688.2</ele><time>2026-04-10T15:33:17Z</time></rtept><rtept lat="37.933888" lon="-107.133064"><ele>3688.2</ele><time>2026-04-10T15:33:17Z</time></rtept><rtept lat="37.933881" lon="-107.133162"><ele>3686.8</ele><time>2026-04-10T15:33:17Z</time></rtept><rtept lat="37.933848" lon="-107.133253"><ele>3685.4</ele><time>2026-04-10T15:33:17Z</time></rtept><rtept lat="37.933825" lon="-107.133291"><ele>3684.2</ele><time>2026-04-10T15:33:17Z</time></rtept><rtept lat="37.93382" lon="-107.133318"><ele>3684.2</ele><time>2026-04-10T15:33:17Z</time></rtept><rtept lat="37.933823" lon="-107.133369"><ele>3683.4</ele><time>2026-04-10T15:33:17Z</time></rtept><rtept lat="37.933845" lon="-107.133447"><ele>3682.2</ele><time>2026-04-10T15:33:17Z</time></rtept><rtept lat="37.933861" lon="-107.13355"><ele>3681.4</ele><time>2026-04-10T15:33:17Z</time></rtept><rtept lat="37.933913" lon="-107.133641"><ele>3679.8</ele><time>2026-04-10T15:33:17Z</time></rtept><rtept lat="37.933942" lon="-107.133773"><ele>3679.2</ele><time>2026-04-10T15:33:17Z</time></rtept><rtept lat="37.93396" lon="-107.133805"><ele>3678.4</ele><time>2026-04-10T15:33:17Z</time></rtept><rtept lat="37.934" lon="-107.133846"><ele>3677.2</ele><time>2026-04-10T15:33:17Z</time></rtept><rtept lat="37.934021" lon="-107.133906"><ele>3676.6</ele><time>2026-04-10T15:33:17Z</time></rtept><rtept lat="37.934069" lon="-107.133995"><ele>3674.8</ele><time>2026-04-10T15:33:17Z</time></rtept><rtept lat="37.934122" lon="-107.134039"><ele>3673.0</ele><time>2026-04-10T15:33:17Z</time></rtept><rtept lat="37.934153" lon="-107.134082"><ele>3673.0</ele><time>2026-04-10T15:33:17Z</time></rtept><rtept lat="37.934161" lon="-107.134127"><ele>3671.6</ele><time>2026-04-10T15:33:17Z</time></rtept><rtept lat="37.934196" lon="-107.134185"><ele>3670.8</ele><time>2026-04-10T15:33:17Z</time></rtept><rtept lat="37.934191" lon="-107.134235"><ele>3668.8</ele><time>2026-04-10T15:33:17Z</time></rtept><rtept lat="37.934239" lon="-107.134321"><ele>3666.8</ele><time>2026-04-10T15:33:17Z</time></rtept><rtept lat="37.934286" lon="-107.134451"><ele>3664.2</ele><time>2026-04-10T15:33:17Z</time></rtept><rtept lat="37.93437" lon="-107.13453"><ele>3661.2</ele><time>2026-04-10T15:33:17Z</time></rtept><rtept lat="37.934401" lon="-107.134573"><ele>3658.8</ele><time>2026-04-10T15:33:17Z</time></rtept><rtept lat="37.934481" lon="-107.134611"><ele>3659.4</ele><time>2026-04-10T15:33:17Z</time></rtept><rtept lat="37.934495" lon="-107.13463"><ele>3659.4</ele><time>2026-04-10T15:33:17Z</time></rtept><rtept lat="37.934499" lon="-107.134655"><ele>3658.0</ele><time>2026-04-10T15:33:17Z</time></rtept><rtept lat="37.934585" lon="-107.134879"><ele>3656.8</ele><time>2026-04-10T15:33:17Z</time></rtept><rtept lat="37.934602" lon="-107.134902"><ele>3656.6</ele><time>2026-04-10T15:33:17Z</time></rtept><rtept lat="37.93465" lon="-107.135007"><ele>3655.2</ele><time>2026-04-10T15:33:17Z</time></rtept><rtept lat="37.93468" lon="-107.13509"><ele>3655.0</ele><time>2026-04-10T15:33:17Z</time></rtept><rtept lat="37.934673" lon="-107.1352"><ele>3653.4</ele><time>2026-04-10T15:33:17Z</time></rtept><rtept lat="37.934731" lon="-107.135271"><ele>3653.2</ele><time>2026-04-10T15:33:17Z</time></rtept><rtept lat="37.934775" lon="-107.135295"><ele>3653.2</ele><time>2026-04-10T15:33:17Z</time></rtept><rtept lat="37.934851" lon="-107.135368"><ele>3652.8</ele><time>2026-04-10T15:33:17Z</time></rtept><rtept lat="37.934926" lon="-107.135417"><ele>3653.6</ele><time>2026-04-10T15:33:17Z</time></rtept><rtept lat="37.934993" lon="-107.135486"><ele>3655.0</ele><time>2026-04-10T15:33:17Z</time></rtept><rtept lat="37.935053" lon="-107.135638"><ele>3651.6</ele><time>2026-04-10T15:33:17Z</time></rtept><rtept lat="37.935052" lon="-107.135697"><ele>3649.8</ele><time>2026-04-10T15:33:17Z</time></rtept><rtept lat="37.935081" lon="-107.135847"><ele>3647.2</ele><time>2026-04-10T15:33:17Z</time></rtept><rtept lat="37.935103" lon="-107.135877"><ele>3647.2</ele><time>2026-04-10T15:33:17Z</time></rtept><rtept lat="37.935124" lon="-107.135945"><ele>3644.4</ele><time>2026-04-10T15:33:17Z</time></rtept><rtept lat="37.935155" lon="-107.135993"><ele>3646.2</ele><time>2026-04-10T15:33:17Z</time></rtept><rtept lat="37.935176" lon="-107.13607"><ele>3642.8</ele><time>2026-04-10T15:33:17Z</time></rtept><rtept lat="37.935166" lon="-107.136121"><ele>3638.8</ele><time>2026-04-10T15:33:17Z</time></rtept><rtept lat="37.93517" lon="-107.136148"><ele>3638.8</ele><time>2026-04-10T15:33:17Z</time></rtept><rtept lat="37.935183" lon="-107.13617"><ele>3638.8</ele><time>2026-04-10T15:33:17Z</time></rtept><rtept lat="37.935218" lon="-107.136202"><ele>3637.4</ele><time>2026-04-10T15:33:17Z</time></rtept><rtept lat="37.93524" lon="-107.136252"><ele>3637.4</ele><time>2026-04-10T15:33:17Z</time></rtept><rtept lat="37.935243" lon="-107.136351"><ele>3634.4</ele><time>2026-04-10T15:33:17Z</time></rtept><rtept lat="37.935223" lon="-107.136418"><ele>3631.8</ele><time>2026-04-10T15:33:17Z</time></rtept><rtept lat="37.9352" lon="-107.136455"><ele>3629.4</ele><time>2026-04-10T15:33:17Z</time></rtept><rtept lat="37.93519" lon="-107.136525"><ele>3628.0</ele><time>2026-04-10T15:33:17Z</time></rtept><rtept lat="37.935163" lon="-107.136549"><ele>3625.8</ele><time>2026-04-10T15:33:17Z</time></rtept><rtept lat="37.935166" lon="-107.136584"><ele>3625.8</ele><time>2026-04-10T15:33:17Z</time></rtept><rtept lat="37.935188" lon="-107.136611"><ele>3625.8</ele><time>2026-04-10T15:33:17Z</time></rtept><rtept lat="37.935201" lon="-107.136653"><ele>3625.2</ele><time>2026-04-10T15:33:17Z</time></rtept><rtept lat="37.935187" lon="-107.136703"><ele>3622.0</ele><time>2026-04-10T15:33:17Z</time></rtept><rtept lat="37.935239" lon="-107.136797"><ele>3621.0</ele><time>2026-04-10T15:33:17Z</time></rtept><rtept lat="37.935301" lon="-107.136874"><ele>3620.2</ele><time>2026-04-10T15:33:17Z</time></rtept><rtept lat="37.935388" lon="-107.137025"><ele>3619.0</ele><time>2026-04-10T15:33:17Z</time></rtept><rtept lat="37.935427" lon="-107.137108"><ele>3617.8</ele><time>2026-04-10T15:33:17Z</time></rtept><rtept lat="37.935457" lon="-107.137196"><ele>3616.0</ele><time>2026-04-10T15:33:17Z</time></rtept><rtept lat="37.935488" lon="-107.137229"><ele>3615.2</ele><time>2026-04-10T15:33:17Z</time></rtept><rtept lat="37.935523" lon="-107.137288"><ele>3615.2</ele><time>2026-04-10T15:33:17Z</time></rtept><rtept lat="37.93554" lon="-107.137341"><ele>3614.6</ele><time>2026-04-10T15:33:17Z</time></rtept><rtept lat="37.935601" lon="-107.137445"><ele>3614.0</ele><time>2026-04-10T15:33:17Z</time></rtept><rtept lat="37.935601" lon="-107.137456"><ele>3614.0</ele><time>2026-04-10T15:33:17Z</time></rtept><rtept lat="37.935799" lon="-107.137738"><ele>3609.6</ele><time>2026-04-10T15:33:17Z</time></rtept><rtept lat="37.935817" lon="-107.137741"><ele>3610.6</ele><time>2026-04-10T15:33:17Z</time></rtept><rtept lat="37.935843" lon="-107.137804"><ele>3610.6</ele><time>2026-04-10T15:33:17Z</time></rtept><rtept lat="37.935854" lon="-107.137955"><ele>3607.6</ele><time>2026-04-10T15:33:17Z</time></rtept><rtept lat="37.93581" lon="-107.138138"><ele>3604.4</ele><time>2026-04-10T15:33:17Z</time></rtept><rtept lat="37.935796" lon="-107.138172"><ele>3602.2</ele><time>2026-04-10T15:33:17Z</time></rtept><rtept lat="37.935773" lon="-107.13818"><ele>3602.2</ele><time>2026-04-10T15:33:17Z</time></rtept><rtept lat="37.935749" lon="-107.138253"><ele>3600.6</ele><time>2026-04-10T15:33:17Z</time></rtept><rtept lat="37.935775" lon="-107.138297"><ele>3600.6</ele><time>2026-04-10T15:33:17Z</time></rtept><rtept lat="37.935797" lon="-107.138308"><ele>3600.6</ele><time>2026-04-10T15:33:17Z</time></rtept><rtept lat="37.935883" lon="-107.138291"><ele>3602.0</ele><time>2026-04-10T15:33:17Z</time></rtept><rtept lat="37.935969" lon="-107.138519"><ele>3597.4</ele><time>2026-04-10T15:33:17Z</time></rtept><rtept lat="37.935983" lon="-107.138526"><ele>3597.4</ele><time>2026-04-10T15:33:17Z</time></rtept><rtept lat="37.936092" lon="-107.138708"><ele>3595.2</ele><time>2026-04-10T15:33:17Z</time></rtept><rtept lat="37.936117" lon="-107.138823"><ele>3593.6</ele><time>2026-04-10T15:33:17Z</time></rtept><rtept lat="37.936111" lon="-107.138935"><ele>3590.0</ele><time>2026-04-10T15:33:17Z</time></rtept><rtept lat="37.936083" lon="-107.138966"><ele>3590.0</ele><time>2026-04-10T15:33:17Z</time></rtept><rtept lat="37.936046" lon="-107.138984"><ele>3589.4</ele><time>2026-04-10T15:33:17Z</time></rtept><rtept lat="37.936018" lon="-107.139088"><ele>3587.8</ele><time>2026-04-10T15:33:17Z</time></rtept><rtept lat="37.936021" lon="-107.139141"><ele>3586.0</ele><time>2026-04-10T15:33:17Z</time></rtept><rtept lat="37.936068" lon="-107.139284"><ele>3583.0</ele><time>2026-04-10T15:33:17Z</time></rtept><rtept lat="37.936089" lon="-107.139379"><ele>3581.6</ele><time>2026-04-10T15:33:17Z</time></rtept><rtept lat="37.936088" lon="-107.139437"><ele>3581.6</ele><time>2026-04-10T15:33:17Z</time></rtept><rtept lat="37.936032" lon="-107.139512"><ele>3579.4</ele><time>2026-04-10T15:33:17Z</time></rtept><rtept lat="37.935995" lon="-107.1396"><ele>3578.2</ele><time>2026-04-10T15:33:17Z</time></rtept><rtept lat="37.935958" lon="-107.139636"><ele>3577.4</ele><time>2026-04-10T15:33:17Z</time></rtept><rtept lat="37.935953" lon="-107.139658"><ele>3577.4</ele><time>2026-04-10T15:33:17Z</time></rtept><rtept lat="37.935961" lon="-107.139737"><ele>3576.8</ele><time>2026-04-10T15:33:17Z</time></rtept><rtept lat="37.935947" lon="-107.13977"><ele>3576.8</ele><time>2026-04-10T15:33:17Z</time></rtept><rtept lat="37.935946" lon="-107.139795"><ele>3576.0</ele><time>2026-04-10T15:33:17Z</time></rtept><rtept lat="37.935968" lon="-107.139848"><ele>3576.0</ele><time>2026-04-10T15:33:17Z</time></rtept><rtept lat="37.935967" lon="-107.139879"><ele>3575.4</ele><time>2026-04-10T15:33:17Z</time></rtept><rtept lat="37.93602" lon="-107.139947"><ele>3574.2</ele><time>2026-04-10T15:33:17Z</time></rtept><rtept lat="37.936024" lon="-107.139978"><ele>3573.4</ele><time>2026-04-10T15:33:17Z</time></rtept><rtept lat="37.936018" lon="-107.140046"><ele>3572.4</ele><time>2026-04-10T15:33:17Z</time></rtept><rtept lat="37.936027" lon="-107.140076"><ele>3572.4</ele><time>2026-04-10T15:33:17Z</time></rtept><rtept lat="37.936036" lon="-107.140294"><ele>3570.6</ele><time>2026-04-10T15:33:17Z</time></rtept><rtept lat="37.936049" lon="-107.140358"><ele>3569.6</ele><time>2026-04-10T15:33:17Z</time></rtept><rtept lat="37.936039" lon="-107.140395"><ele>3568.6</ele><time>2026-04-10T15:33:17Z</time></rtept><rtept lat="37.936047" lon="-107.140429"><ele>3568.6</ele><time>2026-04-10T15:33:17Z</time></rtept><rtept lat="37.936122" lon="-107.140543"><ele>3567.0</ele><time>2026-04-10T15:33:17Z</time></rtept><rtept lat="37.9362" lon="-107.140688"><ele>3564.6</ele><time>2026-04-10T15:33:17Z</time></rtept><rtept lat="37.936186" lon="-107.140724"><ele>3564.6</ele><time>2026-04-10T15:33:17Z</time></rtept><rtept lat="37.936181" lon="-107.140769"><ele>3563.6</ele><time>2026-04-10T15:33:17Z</time></rtept><rtept lat="37.936202" lon="-107.140834"><ele>3562.6</ele><time>2026-04-10T15:33:17Z</time></rtept><rtept lat="37.936187" lon="-107.140918"><ele>3561.6</ele><time>2026-04-10T15:33:17Z</time></rtept><rtept lat="37.936185" lon="-107.141029"><ele>3560.4</ele><time>2026-04-10T15:33:17Z</time></rtept><rtept lat="37.9362" lon="-107.141177"><ele>3558.2</ele><time>2026-04-10T15:33:17Z</time></rtept><rtept lat="37.936186" lon="-107.141223"><ele>3558.2</ele><time>2026-04-10T15:33:17Z</time></rtept><rtept lat="37.93621" lon="-107.1414"><ele>3555.8</ele><time>2026-04-10T15:33:17Z</time></rtept><rtept lat="37.936227" lon="-107.141425"><ele>3554.2</ele><time>2026-04-10T15:33:17Z</time></rtept><rtept lat="37.936316" lon="-107.141489"><ele>3554.2</ele><time>2026-04-10T15:33:17Z</time></rtept><rtept lat="37.936357" lon="-107.141507"><ele>3553.4</ele><time>2026-04-10T15:33:17Z</time></rtept><rtept lat="37.936418" lon="-107.141615"><ele>3553.2</ele><time>2026-04-10T15:33:17Z</time></rtept><rtept lat="37.936594" lon="-107.141814"><ele>3552.8</ele><time>2026-04-10T15:33:17Z</time></rtept><rtept lat="37.936634" lon="-107.141891"><ele>3552.8</ele><time>2026-04-10T15:33:17Z</time></rtept><rtept lat="37.936811" lon="-107.142057"><ele>3552.6</ele><time>2026-04-10T15:33:17Z</time></rtept><rtept lat="37.936846" lon="-107.142069"><ele>3553.4</ele><time>2026-04-10T15:33:17Z</time></rtept><rtept lat="37.936895" lon="-107.142137"><ele>3553.2</ele><time>2026-04-10T15:33:17Z</time></rtept><rtept lat="37.937103" lon="-107.142325"><ele>3554.2</ele><time>2026-04-10T15:33:17Z</time></rtept><rtept lat="37.937125" lon="-107.14236"><ele>3554.2</ele><time>2026-04-10T15:33:17Z</time></rtept><rtept lat="37.937231" lon="-107.142471"><ele>3554.0</ele><time>2026-04-10T15:33:17Z</time></rtept><rtept lat="37.937328" lon="-107.142598"><ele>3553.8</ele><time>2026-04-10T15:33:17Z</time></rtept><rtept lat="37.937487" lon="-107.142757"><ele>3553.2</ele><time>2026-04-10T15:33:17Z</time></rtept><rtept lat="37.937575" lon="-107.142901"><ele>3552.4</ele><time>2026-04-10T15:33:17Z</time></rtept><rtept lat="37.937856" lon="-107.143266"><ele>3549.6</ele><time>2026-04-10T15:33:17Z</time></rtept><rtept lat="37.937879" lon="-107.143298"><ele>3549.6</ele><time>2026-04-10T15:33:17Z</time></rtept><rtept lat="37.937891" lon="-107.143339"><ele>3548.4</ele><time>2026-04-10T15:33:17Z</time></rtept><rtept lat="37.93794" lon="-107.14339"><ele>3548.2</ele><time>2026-04-10T15:33:17Z</time></rtept><rtept lat="37.937966" lon="-107.143462"><ele>3547.0</ele><time>2026-04-10T15:33:17Z</time></rtept><rtept lat="37.937987" lon="-107.143494"><ele>3545.4</ele><time>2026-04-10T15:33:17Z</time></rtept><rtept lat="37.937996" lon="-107.143531"><ele>3545.4</ele><time>2026-04-10T15:33:17Z</time></rtept><rtept lat="37.938035" lon="-107.143601"><ele>3544.0</ele><time>2026-04-10T15:33:17Z</time></rtept><rtept lat="37.938096" lon="-107.143737"><ele>3541.6</ele><time>2026-04-10T15:33:17Z</time></rtept><rtept lat="37.9381" lon="-107.143772"><ele>3541.6</ele><time>2026-04-10T15:33:17Z</time></rtept><rtept lat="37.938156" lon="-107.143892"><ele>3541.0</ele><time>2026-04-10T15:33:17Z</time></rtept><rtept lat="37.938168" lon="-107.143958"><ele>3540.0</ele><time>2026-04-10T15:33:17Z</time></rtept><rtept lat="37.938239" lon="-107.144065"><ele>3539.4</ele><time>2026-04-10T15:33:17Z</time></rtept><rtept lat="37.938274" lon="-107.144087"><ele>3538.2</ele><time>2026-04-10T15:33:17Z</time></rtept><rtept lat="37.938315" lon="-107.144079"><ele>3538.8</ele><time>2026-04-10T15:33:17Z</time></rtept><rtept lat="37.938342" lon="-107.144088"><ele>3537.8</ele><time>2026-04-10T15:33:17Z</time></rtept><rtept lat="37.938486" lon="-107.144082"><ele>3536.6</ele><time>2026-04-10T15:33:17Z</time></rtept><rtept lat="37.938616" lon="-107.144102"><ele>3535.4</ele><time>2026-04-10T15:33:17Z</time></rtept><rtept lat="37.938752" lon="-107.144064"><ele>3536.0</ele><time>2026-04-10T15:33:17Z</time></rtept><rtept lat="37.938801" lon="-107.144121"><ele>3534.8</ele><time>2026-04-10T15:33:17Z</time></rtept><rtept lat="37.938845" lon="-107.144159"><ele>3534.8</ele><time>2026-04-10T15:33:17Z</time></rtept><rtept lat="37.93888" lon="-107.144218"><ele>3533.2</ele><time>2026-04-10T15:33:17Z</time></rtept><rtept lat="37.938888" lon="-107.144259"><ele>3531.0</ele><time>2026-04-10T15:33:17Z</time></rtept><rtept lat="37.938946" lon="-107.14432"><ele>3531.2</ele><time>2026-04-10T15:33:17Z</time></rtept><rtept lat="37.938945" lon="-107.144343"><ele>3529.0</ele><time>2026-04-10T15:33:17Z</time></rtept><rtept lat="37.938998" lon="-107.14444"><ele>3528.2</ele><time>2026-04-10T15:33:17Z</time></rtept><rtept lat="37.93901" lon="-107.144489"><ele>3528.2</ele><time>2026-04-10T15:33:17Z</time></rtept><rtept lat="37.939051" lon="-107.144699"><ele>3524.8</ele><time>2026-04-10T15:33:17Z</time></rtept><rtept lat="37.939069" lon="-107.144744"><ele>3526.0</ele><time>2026-04-10T15:33:17Z</time></rtept><rtept lat="37.939068" lon="-107.144768"><ele>3524.8</ele><time>2026-04-10T15:33:17Z</time></rtept><rtept lat="37.939097" lon="-107.144906"><ele>3523.0</ele><time>2026-04-10T15:33:17Z</time></rtept><rtept lat="37.939119" lon="-107.144969"><ele>3520.8</ele><time>2026-04-10T15:33:17Z</time></rtept><rtept lat="37.93913" lon="-107.145102"><ele>3520.2</ele><time>2026-04-10T15:33:17Z</time></rtept><rtept lat="37.939123" lon="-107.145233"><ele>3515.6</ele><time>2026-04-10T15:33:17Z</time></rtept><rtept lat="37.939131" lon="-107.145277"><ele>3515.6</ele><time>2026-04-10T15:33:17Z</time></rtept><rtept lat="37.939231" lon="-107.145493"><ele>3512.4</ele><time>2026-04-10T15:33:17Z</time></rtept><rtept lat="37.939276" lon="-107.145512"><ele>3513.2</ele><time>2026-04-10T15:33:17Z</time></rtept><rtept lat="37.939319" lon="-107.145583"><ele>3511.0</ele><time>2026-04-10T15:33:17Z</time></rtept><rtept lat="37.939322" lon="-107.145651"><ele>3508.4</ele><time>2026-04-10T15:33:17Z</time></rtept><rtept lat="37.939356" lon="-107.145803"><ele>3504.6</ele><time>2026-04-10T15:33:17Z</time></rtept><rtept lat="37.939408" lon="-107.14591"><ele>3504.2</ele><time>2026-04-10T15:33:17Z</time></rtept><rtept lat="37.939435" lon="-107.145929"><ele>3504.2</ele><time>2026-04-10T15:33:17Z</time></rtept><rtept lat="37.939487" lon="-107.146009"><ele>3503.8</ele><time>2026-04-10T15:33:17Z</time></rtept><rtept lat="37.939487" lon="-107.146021"><ele>3503.8</ele><time>2026-04-10T15:33:17Z</time></rtept><rtept lat="37.939517" lon="-107.146091"><ele>3502.4</ele><time>2026-04-10T15:33:17Z</time></rtept><rtept lat="37.939549" lon="-107.146107"><ele>3503.2</ele><time>2026-04-10T15:33:17Z</time></rtept><rtept lat="37.939636" lon="-107.146226"><ele>3501.2</ele><time>2026-04-10T15:33:17Z</time></rtept><rtept lat="37.939645" lon="-107.146256"><ele>3501.2</ele><time>2026-04-10T15:33:17Z</time></rtept><rtept lat="37.939644" lon="-107.14629"><ele>3501.2</ele><time>2026-04-10T15:33:17Z</time></rtept><rtept lat="37.939706" lon="-107.146366"><ele>3500.2</ele><time>2026-04-10T15:33:17Z</time></rtept><rtept lat="37.939719" lon="-107.146399"><ele>3498.6</ele><time>2026-04-10T15:33:17Z</time></rtept><rtept lat="37.939746" lon="-107.146419"><ele>3498.8</ele><time>2026-04-10T15:33:17Z</time></rtept><rtept lat="37.939772" lon="-107.146458"><ele>3498.8</ele><time>2026-04-10T15:33:17Z</time></rtept><rtept lat="37.939771" lon="-107.146529"><ele>3497.2</ele><time>2026-04-10T15:33:17Z</time></rtept><rtept lat="37.939864" lon="-107.146587"><ele>3495.8</ele><time>2026-04-10T15:33:17Z</time></rtept><rtept lat="37.93989" lon="-107.146647"><ele>3495.4</ele><time>2026-04-10T15:33:17Z</time></rtept><rtept lat="37.939876" lon="-107.146703"><ele>3494.2</ele><time>2026-04-10T15:33:17Z</time></rtept><rtept lat="37.939915" lon="-107.146783"><ele>3493.2</ele><time>2026-04-10T15:33:17Z</time></rtept><rtept lat="37.939919" lon="-107.146814"><ele>3493.2</ele><time>2026-04-10T15:33:17Z</time></rtept><rtept lat="37.939945" lon="-107.146866"><ele>3491.8</ele><time>2026-04-10T15:33:17Z</time></rtept><rtept lat="37.93997" lon="-107.146954"><ele>3491.0</ele><time>2026-04-10T15:33:17Z</time></rtept><rtept lat="37.94" lon="-107.147028"><ele>3490.0</ele><time>2026-04-10T15:33:17Z</time></rtept><rtept lat="37.940017" lon="-107.147085"><ele>3488.4</ele><time>2026-04-10T15:33:17Z</time></rtept><rtept lat="37.940021" lon="-107.147136"><ele>3488.4</ele><time>2026-04-10T15:33:17Z</time></rtept><rtept lat="37.940056" lon="-107.147206"><ele>3486.8</ele><time>2026-04-10T15:33:17Z</time></rtept><rtept lat="37.940104" lon="-107.147266"><ele>3484.8</ele><time>2026-04-10T15:33:17Z</time></rtept><rtept lat="37.940108" lon="-107.147298"><ele>3484.8</ele><time>2026-04-10T15:33:17Z</time></rtept><rtept lat="37.940098" lon="-107.147366"><ele>3482.8</ele><time>2026-04-10T15:33:17Z</time></rtept><rtept lat="37.940118" lon="-107.147486"><ele>3481.0</ele><time>2026-04-10T15:33:17Z</time></rtept><rtept lat="37.940109" lon="-107.147516"><ele>3479.6</ele><time>2026-04-10T15:33:17Z</time></rtept><rtept lat="37.940141" lon="-107.147728"><ele>3476.6</ele><time>2026-04-10T15:33:17Z</time></rtept><rtept lat="37.940131" lon="-107.147747"><ele>3476.4</ele><time>2026-04-10T15:33:17Z</time></rtept><rtept lat="37.940063" lon="-107.147812"><ele>3474.4</ele><time>2026-04-10T15:33:17Z</time></rtept><rtept lat="37.940044" lon="-107.147846"><ele>3474.4</ele><time>2026-04-10T15:33:17Z</time></rtept><rtept lat="37.940048" lon="-107.147884"><ele>3472.8</ele><time>2026-04-10T15:33:17Z</time></rtept><rtept lat="37.940077" lon="-107.14799"><ele>3471.4</ele><time>2026-04-10T15:33:17Z</time></rtept><rtept lat="37.940081" lon="-107.148045"><ele>3469.8</ele><time>2026-04-10T15:33:17Z</time></rtept><rtept lat="37.940075" lon="-107.148099"><ele>3469.8</ele><time>2026-04-10T15:33:17Z</time></rtept><rtept lat="37.940097" lon="-107.148141"><ele>3468.6</ele><time>2026-04-10T15:33:17Z</time></rtept><rtept lat="37.940099" lon="-107.148261"><ele>3467.4</ele><time>2026-04-10T15:33:17Z</time></rtept><rtept lat="37.940081" lon="-107.148287"><ele>3466.4</ele><time>2026-04-10T15:33:17Z</time></rtept><rtept lat="37.940066" lon="-107.14834"><ele>3466.0</ele><time>2026-04-10T15:33:17Z</time></rtept><rtept lat="37.940066" lon="-107.148371"><ele>3464.6</ele><time>2026-04-10T15:33:17Z</time></rtept><rtept lat="37.940009" lon="-107.148507"><ele>3463.4</ele><time>2026-04-10T15:33:17Z</time></rtept><rtept lat="37.939995" lon="-107.148555"><ele>3461.4</ele><time>2026-04-10T15:33:17Z</time></rtept><rtept lat="37.939994" lon="-107.148605"><ele>3461.4</ele><time>2026-04-10T15:33:17Z</time></rtept><rtept lat="37.939985" lon="-107.148624"><ele>3461.4</ele><time>2026-04-10T15:33:17Z</time></rtept><rtept lat="37.940003" lon="-107.148867"><ele>3457.0</ele><time>2026-04-10T15:33:17Z</time></rtept><rtept lat="37.940002" lon="-107.148931"><ele>3455.6</ele><time>2026-04-10T15:33:17Z</time></rtept><rtept lat="37.939992" lon="-107.148958"><ele>3455.6</ele><time>2026-04-10T15:33:17Z</time></rtept><rtept lat="37.939986" lon="-107.149023"><ele>3454.4</ele><time>2026-04-10T15:33:17Z</time></rtept><rtept lat="37.93999" lon="-107.149058"><ele>3453.0</ele><time>2026-04-10T15:33:17Z</time></rtept><rtept lat="37.940003" lon="-107.14909"><ele>3453.0</ele><time>2026-04-10T15:33:17Z</time></rtept><rtept lat="37.939988" lon="-107.149159"><ele>3451.6</ele><time>2026-04-10T15:33:17Z</time></rtept><rtept lat="37.939992" lon="-107.149219"><ele>3451.6</ele><time>2026-04-10T15:33:17Z</time></rtept><rtept lat="37.939977" lon="-107.149277"><ele>3450.2</ele><time>2026-04-10T15:33:17Z</time></rtept><rtept lat="37.939977" lon="-107.149308"><ele>3450.2</ele><time>2026-04-10T15:33:17Z</time></rtept><rtept lat="37.939992" lon="-107.149446"><ele>3446.8</ele><time>2026-04-10T15:33:17Z</time></rtept><rtept lat="37.939987" lon="-107.149506"><ele>3445.6</ele><time>2026-04-10T15:33:17Z</time></rtept><rtept lat="37.939994" lon="-107.14957"><ele>3445.6</ele><time>2026-04-10T15:33:17Z</time></rtept><rtept lat="37.939975" lon="-107.149665"><ele>3443.4</ele><time>2026-04-10T15:33:17Z</time></rtept><rtept lat="37.939947" lon="-107.149709"><ele>3443.4</ele><time>2026-04-10T15:33:17Z</time></rtept><rtept lat="37.939936" lon="-107.149795"><ele>3442.4</ele><time>2026-04-10T15:33:17Z</time></rtept><rtept lat="37.939917" lon="-107.149854"><ele>3440.6</ele><time>2026-04-10T15:33:17Z</time></rtept><rtept lat="37.939932" lon="-107.150035"><ele>3438.0</ele><time>2026-04-10T15:33:17Z</time></rtept><rtept lat="37.939876" lon="-107.150378"><ele>3432.0</ele><time>2026-04-10T15:33:17Z</time></rtept><rtept lat="37.939875" lon="-107.150444"><ele>3430.8</ele><time>2026-04-10T15:33:17Z</time></rtept><rtept lat="37.939855" lon="-107.150559"><ele>3429.0</ele><time>2026-04-10T15:33:17Z</time></rtept><rtept lat="37.939859" lon="-107.150572"><ele>3429.0</ele><time>2026-04-10T15:33:17Z</time></rtept><rtept lat="37.939843" lon="-107.150677"><ele>3427.8</ele><time>2026-04-10T15:33:17Z</time></rtept><rtept lat="37.939836" lon="-107.150858"><ele>3425.2</ele><time>2026-04-10T15:33:17Z</time></rtept><rtept lat="37.939784" lon="-107.150979"><ele>3421.8</ele><time>2026-04-10T15:33:17Z</time></rtept><rtept lat="37.939779" lon="-107.151015"><ele>3421.8</ele><time>2026-04-10T15:33:17Z</time></rtept><rtept lat="37.939779" lon="-107.151254"><ele>3418.8</ele><time>2026-04-10T15:33:17Z</time></rtept><rtept lat="37.939759" lon="-107.151348"><ele>3418.0</ele><time>2026-04-10T15:33:17Z</time></rtept><rtept lat="37.939762" lon="-107.151449"><ele>3417.4</ele><time>2026-04-10T15:33:17Z</time></rtept><rtept lat="37.939738" lon="-107.151504"><ele>3417.0</ele><time>2026-04-10T15:33:17Z</time></rtept><rtept lat="37.93972" lon="-107.151522"><ele>3415.8</ele><time>2026-04-10T15:33:17Z</time></rtept><rtept lat="37.9397" lon="-107.151629"><ele>3415.2</ele><time>2026-04-10T15:33:17Z</time></rtept><rtept lat="37.939699" lon="-107.151672"><ele>3414.4</ele><time>2026-04-10T15:33:17Z</time></rtept><rtept lat="37.939736" lon="-107.151871"><ele>3413.4</ele><time>2026-04-10T15:33:17Z</time></rtept><rtept lat="37.939703" lon="-107.151953"><ele>3411.2</ele><time>2026-04-10T15:33:17Z</time></rtept><rtept lat="37.939688" lon="-107.152035"><ele>3410.0</ele><time>2026-04-10T15:33:17Z</time></rtept><rtept lat="37.939692" lon="-107.152078"><ele>3408.6</ele><time>2026-04-10T15:33:17Z</time></rtept><rtept lat="37.939681" lon="-107.152152"><ele>3407.4</ele><time>2026-04-10T15:33:17Z</time></rtept><rtept lat="37.939687" lon="-107.152344"><ele>3405.2</ele><time>2026-04-10T15:33:17Z</time></rtept><rtept lat="37.939704" lon="-107.152413"><ele>3404.2</ele><time>2026-04-10T15:33:17Z</time></rtept><rtept lat="37.939795" lon="-107.152586"><ele>3402.2</ele><time>2026-04-10T15:33:17Z</time></rtept><rtept lat="37.939807" lon="-107.152652"><ele>3402.8</ele><time>2026-04-10T15:33:17Z</time></rtept><rtept lat="37.939802" lon="-107.152715"><ele>3401.4</ele><time>2026-04-10T15:33:17Z</time></rtept><rtept lat="37.93981" lon="-107.152752"><ele>3400.0</ele><time>2026-04-10T15:33:17Z</time></rtept><rtept lat="37.939805" lon="-107.152784"><ele>3400.0</ele><time>2026-04-10T15:33:17Z</time></rtept><rtept lat="37.939809" lon="-107.152828"><ele>3400.0</ele><time>2026-04-10T15:33:17Z</time></rtept><rtept lat="37.939771" lon="-107.152893"><ele>3397.8</ele><time>2026-04-10T15:33:17Z</time></rtept><rtept lat="37.939764" lon="-107.153048"><ele>3395.0</ele><time>2026-04-10T15:33:17Z</time></rtept><rtept lat="37.939766" lon="-107.153164"><ele>3394.0</ele><time>2026-04-10T15:33:17Z</time></rtept><rtept lat="37.939757" lon="-107.153204"><ele>3392.8</ele><time>2026-04-10T15:33:17Z</time></rtept><rtept lat="37.93976" lon="-107.153262"><ele>3392.8</ele><time>2026-04-10T15:33:17Z</time></rtept><rtept lat="37.939737" lon="-107.153326"><ele>3391.8</ele><time>2026-04-10T15:33:17Z</time></rtept><rtept lat="37.93973" lon="-107.153423"><ele>3389.8</ele><time>2026-04-10T15:33:17Z</time></rtept><rtept lat="37.939745" lon="-107.153609"><ele>3387.6</ele><time>2026-04-10T15:33:17Z</time></rtept><rtept lat="37.939761" lon="-107.153715"><ele>3386.6</ele><time>2026-04-10T15:33:17Z</time></rtept><rtept lat="37.939775" lon="-107.15392"><ele>3384.6</ele><time>2026-04-10T15:33:17Z</time></rtept><rtept lat="37.939774" lon="-107.153993"><ele>3383.6</ele><time>2026-04-10T15:33:17Z</time></rtept><rtept lat="37.939786" lon="-107.154064"><ele>3382.8</ele><time>2026-04-10T15:33:17Z</time></rtept><rtept lat="37.93977" lon="-107.154226"><ele>3381.4</ele><time>2026-04-10T15:33:17Z</time></rtept><rtept lat="37.939773" lon="-107.154304"><ele>3380.8</ele><time>2026-04-10T15:33:17Z</time></rtept><rtept lat="37.939762" lon="-107.154375"><ele>3380.8</ele><time>2026-04-10T15:33:17Z</time></rtept><rtept lat="37.939775" lon="-107.154448"><ele>3380.2</ele><time>2026-04-10T15:33:17Z</time></rtept><rtept lat="37.939804" lon="-107.154547"><ele>3380.6</ele><time>2026-04-10T15:33:17Z</time></rtept><rtept lat="37.939789" lon="-107.15465"><ele>3378.8</ele><time>2026-04-10T15:33:17Z</time></rtept><rtept lat="37.939881" lon="-107.154795"><ele>3380.6</ele><time>2026-04-10T15:33:17Z</time></rtept><rtept lat="37.939927" lon="-107.154992"><ele>3379.8</ele><time>2026-04-10T15:33:17Z</time></rtept><rtept lat="37.939992" lon="-107.155135"><ele>3380.2</ele><time>2026-04-10T15:33:17Z</time></rtept><rtept lat="37.940022" lon="-107.155184"><ele>3380.2</ele><time>2026-04-10T15:33:17Z</time></rtept><rtept lat="37.940061" lon="-107.155321"><ele>3379.6</ele><time>2026-04-10T15:33:17Z</time></rtept><rtept lat="37.940117" lon="-107.155422"><ele>3378.4</ele><time>2026-04-10T15:33:17Z</time></rtept><rtept lat="37.940128" lon="-107.155566"><ele>3377.0</ele><time>2026-04-10T15:33:17Z</time></rtept><rtept lat="37.940154" lon="-107.155642"><ele>3376.2</ele><time>2026-04-10T15:33:17Z</time></rtept><rtept lat="37.940171" lon="-107.155672"><ele>3374.8</ele><time>2026-04-10T15:33:17Z</time></rtept><rtept lat="37.940209" lon="-107.155808"><ele>3373.8</ele><time>2026-04-10T15:33:17Z</time></rtept><rtept lat="37.940217" lon="-107.155884"><ele>3372.2</ele><time>2026-04-10T15:33:17Z</time></rtept><rtept lat="37.940191" lon="-107.156064"><ele>3369.4</ele><time>2026-04-10T15:33:17Z</time></rtept><rtept lat="37.94022" lon="-107.156177"><ele>3368.4</ele><time>2026-04-10T15:33:17Z</time></rtept><rtept lat="37.940211" lon="-107.156209"><ele>3367.2</ele><time>2026-04-10T15:33:17Z</time></rtept><rtept lat="37.940161" lon="-107.15624"><ele>3366.8</ele><time>2026-04-10T15:33:17Z</time></rtept><rtept lat="37.940119" lon="-107.156294"><ele>3365.0</ele><time>2026-04-10T15:33:17Z</time></rtept><rtept lat="37.94008" lon="-107.156481"><ele>3362.0</ele><time>2026-04-10T15:33:17Z</time></rtept><rtept lat="37.940096" lon="-107.156561"><ele>3360.4</ele><time>2026-04-10T15:33:17Z</time></rtept><rtept lat="37.940091" lon="-107.156633"><ele>3358.8</ele><time>2026-04-10T15:33:17Z</time></rtept><rtept lat="37.940111" lon="-107.156728"><ele>3357.4</ele><time>2026-04-10T15:33:17Z</time></rtept><rtept lat="37.940088" lon="-107.157007"><ele>3351.4</ele><time>2026-04-10T15:33:17Z</time></rtept><rtept lat="37.940094" lon="-107.157153"><ele>3346.0</ele><time>2026-04-10T15:33:17Z</time></rtept><rtept lat="37.940117" lon="-107.157148"><ele>3346.0</ele><time>2026-04-10T15:33:17Z</time></rtept><rtept lat="37.940148" lon="-107.157161"><ele>3346.2</ele><time>2026-04-10T15:33:17Z</time></rtept><rtept lat="37.940284" lon="-107.157147"><ele>3346.6</ele><time>2026-04-10T15:33:17Z</time></rtept><rtept lat="37.940342" lon="-107.157185"><ele>3346.8</ele><time>2026-04-10T15:33:17Z</time></rtept><rtept lat="37.940355" lon="-107.157214"><ele>3344.6</ele><time>2026-04-10T15:33:17Z</time></rtept><rtept lat="37.940322" lon="-107.157263"><ele>3344.4</ele><time>2026-04-10T15:33:17Z</time></rtept><rtept lat="37.940254" lon="-107.15729"><ele>3344.0</ele><time>2026-04-10T15:33:17Z</time></rtept><rtept lat="37.940149" lon="-107.157367"><ele>3341.4</ele><time>2026-04-10T15:33:17Z</time></rtept><rtept lat="37.940135" lon="-107.157385"><ele>3339.0</ele><time>2026-04-10T15:33:17Z</time></rtept><rtept lat="37.940067" lon="-107.15742"><ele>3338.6</ele><time>2026-04-10T15:33:17Z</time></rtept><rtept lat="37.940076" lon="-107.157442"><ele>3339.0</ele><time>2026-04-10T15:33:17Z</time></rtept><rtept lat="37.940093" lon="-107.15745"><ele>3339.0</ele><time>2026-04-10T15:33:17Z</time></rtept><rtept lat="37.940237" lon="-107.157468"><ele>3339.6</ele><time>2026-04-10T15:33:17Z</time></rtept><rtept lat="37.94025" lon="-107.157521"><ele>3337.4</ele><time>2026-04-10T15:33:17Z</time></rtept><rtept lat="37.940245" lon="-107.157548"><ele>3337.4</ele><time>2026-04-10T15:33:17Z</time></rtept><rtept lat="37.940226" lon="-107.157581"><ele>3335.2</ele><time>2026-04-10T15:33:17Z</time></rtept><rtept lat="37.940149" lon="-107.157611"><ele>3335.0</ele><time>2026-04-10T15:33:17Z</time></rtept><rtept lat="37.940139" lon="-107.157664"><ele>3333.0</ele><time>2026-04-10T15:33:17Z</time></rtept><rtept lat="37.940165" lon="-107.157704"><ele>3333.0</ele><time>2026-04-10T15:33:17Z</time></rtept><rtept lat="37.940273" lon="-107.157756"><ele>3331.0</ele><time>2026-04-10T15:33:17Z</time></rtept><rtept lat="37.940299" lon="-107.157781"><ele>3331.0</ele><time>2026-04-10T15:33:17Z</time></rtept><rtept lat="37.940307" lon="-107.157868"><ele>3329.4</ele><time>2026-04-10T15:33:17Z</time></rtept><rtept lat="37.940329" lon="-107.157892"><ele>3329.4</ele><time>2026-04-10T15:33:17Z</time></rtept><rtept lat="37.940387" lon="-107.157926"><ele>3328.0</ele><time>2026-04-10T15:33:17Z</time></rtept><rtept lat="37.940404" lon="-107.157948"><ele>3328.0</ele><time>2026-04-10T15:33:17Z</time></rtept><rtept lat="37.940402" lon="-107.158047"><ele>3327.0</ele><time>2026-04-10T15:33:17Z</time></rtept><rtept lat="37.940379" lon="-107.158097"><ele>3326.2</ele><time>2026-04-10T15:33:17Z</time></rtept><rtept lat="37.94035" lon="-107.158214"><ele>3325.4</ele><time>2026-04-10T15:33:17Z</time></rtept><rtept lat="37.940313" lon="-107.158266"><ele>3325.2</ele><time>2026-04-10T15:33:17Z</time></rtept><rtept lat="37.940244" lon="-107.158327"><ele>3325.6</ele><time>2026-04-10T15:33:17Z</time></rtept><rtept lat="37.940224" lon="-107.158443"><ele>3325.0</ele><time>2026-04-10T15:33:17Z</time></rtept><rtept lat="37.940215" lon="-107.158446"><ele>3325.0</ele><time>2026-04-10T15:33:17Z</time></rtept><rtept lat="37.940166" lon="-107.15841"><ele>3325.6</ele><time>2026-04-10T15:33:17Z</time></rtept><rtept lat="37.940118" lon="-107.15832"><ele>3326.2</ele><time>2026-04-10T15:33:17Z</time></rtept><rtept lat="37.940056" lon="-107.158242"><ele>3326.4</ele><time>2026-04-10T15:33:17Z</time></rtept><rtept lat="37.940039" lon="-107.158231"><ele>3326.6</ele><time>2026-04-10T15:33:17Z</time></rtept><rtept lat="37.940042" lon="-107.158316"><ele>3326.4</ele><time>2026-04-10T15:33:17Z</time></rtept><rtept lat="37.940036" lon="-107.158389"><ele>3326.0</ele><time>2026-04-10T15:33:17Z</time></rtept><rtept lat="37.94004" lon="-107.158417"><ele>3325.8</ele><time>2026-04-10T15:33:17Z</time></rtept></rte></gpx>