<?xml version="1.0" ?><gpx xmlns="http://www.topografix.com/GPX/1/1" creator="GaiaGPS" version="1.1" xmlns:xsi="http://www.w3.org/2001/XMLSchema-instance" xsi:schemaLocation="http://www.topografix.com/GPX/1/1 http://www.topografix.com/GPX/1/1/gpx.xsd"><rte><name>TD14:S4:D1 Spring Creek Pass to Ruby Creek Headwaters</name><desc></desc><extensions><line xmlns="http://www.topografix.com/GPX/gpx_style/0/2"><color>F42410</color></line></extensions><rtept lat="37.940671" lon="-107.159321"><ele>3320.4000000000015</ele><time>2026-04-12T16:43:58Z</time></rtept><rtept lat="37.940635" lon="-107.159566"><ele>3321.800000000001</ele><time>2026-04-12T16:43:58Z</time></rtept><rtept lat="37.940763" lon="-107.159596"><ele>3320.800000000001</ele><time>2026-04-12T16:43:58Z</time></rtept><rtept lat="37.940936" lon="-107.159647"><ele>3320.4000000000015</ele><time>2026-04-12T16:43:58Z</time></rtept><rtept lat="37.940983" lon="-107.159699"><ele>3319.800000000001</ele><time>2026-04-12T16:43:58Z</time></rtept><rtept lat="37.941035" lon="-107.159774"><ele>3320.0</ele><time>2026-04-12T16:43:58Z</time></rtept><rtept lat="37.941063" lon="-107.159867"><ele>3320.6000000000004</ele><time>2026-04-12T16:43:58Z</time></rtept><rtept lat="37.941075" lon="-107.159983"><ele>3322.0</ele><time>2026-04-12T16:43:58Z</time></rtept><rtept lat="37.941058" lon="-107.160076"><ele>3322.6000000000004</ele><time>2026-04-12T16:43:58Z</time></rtept><rtept lat="37.94102" lon="-107.160138"><ele>3323.2000000000007</ele><time>2026-04-12T16:43:58Z</time></rtept><rtept lat="37.940912" lon="-107.160164"><ele>3324.2000000000007</ele><time>2026-04-12T16:43:58Z</time></rtept><rtept lat="37.940968" lon="-107.160433"><ele>3325.6000000000004</ele><time>2026-04-12T16:43:58Z</time></rtept><rtept lat="37.940968" lon="-107.160724"><ele>3327.6000000000004</ele><time>2026-04-12T16:43:58Z</time></rtept><rtept lat="37.940858" lon="-107.1613"><ele>3333.6000000000004</ele><time>2026-04-12T16:43:58Z</time></rtept><rtept lat="37.940861" lon="-107.16152"><ele>3335.800000000001</ele><time>2026-04-12T16:43:58Z</time></rtept><rtept lat="37.941015" lon="-107.161897"><ele>3338.0</ele><time>2026-04-12T16:43:58Z</time></rtept><rtept lat="37.941194" lon="-107.163054"><ele>3345.6000000000004</ele><time>2026-04-12T16:43:58Z</time></rtept><rtept lat="37.941225" lon="-107.163273"><ele>3346.2000000000007</ele><time>2026-04-12T16:43:58Z</time></rtept><rtept lat="37.941179" lon="-107.163613"><ele>3347.800000000001</ele><time>2026-04-12T16:43:58Z</time></rtept><rtept lat="37.941127" lon="-107.163855"><ele>3349.2000000000007</ele><time>2026-04-12T16:43:58Z</time></rtept><rtept lat="37.941122" lon="-107.164109"><ele>3350.4000000000015</ele><time>2026-04-12T16:43:58Z</time></rtept><rtept lat="37.941014" lon="-107.164266"><ele>3351.800000000001</ele><time>2026-04-12T16:43:58Z</time></rtept><rtept lat="37.940853" lon="-107.164496"><ele>3353.2000000000007</ele><time>2026-04-12T16:43:58Z</time></rtept><rtept lat="37.940721" lon="-107.164752"><ele>3355.2000000000007</ele><time>2026-04-12T16:43:58Z</time></rtept><rtept lat="37.940565" lon="-107.164907"><ele>3356.4000000000015</ele><time>2026-04-12T16:43:58Z</time></rtept><rtept lat="37.940144" lon="-107.165089"><ele>3358.4000000000015</ele><time>2026-04-12T16:43:58Z</time></rtept><rtept lat="37.939873" lon="-107.165273"><ele>3360.800000000001</ele><time>2026-04-12T16:43:58Z</time></rtept><rtept lat="37.939623" lon="-107.165511"><ele>3363.800000000001</ele><time>2026-04-12T16:43:58Z</time></rtept><rtept lat="37.93936" lon="-107.165918"><ele>3367.800000000001</ele><time>2026-04-12T16:43:58Z</time></rtept><rtept lat="37.939139" lon="-107.166046"><ele>3369.0</ele><time>2026-04-12T16:43:58Z</time></rtept><rtept lat="37.939031" lon="-107.166208"><ele>3370.800000000001</ele><time>2026-04-12T16:43:58Z</time></rtept><rtept lat="37.938855" lon="-107.166323"><ele>3372.800000000001</ele><time>2026-04-12T16:43:58Z</time></rtept><rtept lat="37.938793" lon="-107.16661"><ele>3374.6000000000004</ele><time>2026-04-12T16:43:58Z</time></rtept><rtept lat="37.938639" lon="-107.16716"><ele>3379.0</ele><time>2026-04-12T16:43:58Z</time></rtept><rtept lat="37.938616" lon="-107.167377"><ele>3380.4000000000015</ele><time>2026-04-12T16:43:58Z</time></rtept><rtept lat="37.938705" lon="-107.16757"><ele>3380.6000000000004</ele><time>2026-04-12T16:43:58Z</time></rtept><rtept lat="37.938728" lon="-107.167772"><ele>3380.800000000001</ele><time>2026-04-12T16:43:58Z</time></rtept><rtept lat="37.938701" lon="-107.167918"><ele>3382.0</ele><time>2026-04-12T16:43:58Z</time></rtept><rtept lat="37.938563" lon="-107.168123"><ele>3384.800000000001</ele><time>2026-04-12T16:43:58Z</time></rtept><rtept lat="37.93848" lon="-107.168271"><ele>3386.2000000000007</ele><time>2026-04-12T16:43:58Z</time></rtept><rtept lat="37.93838" lon="-107.168792"><ele>3387.6000000000004</ele><time>2026-04-12T16:43:58Z</time></rtept><rtept lat="37.938382" lon="-107.1691"><ele>3387.2000000000007</ele><time>2026-04-12T16:43:58Z</time></rtept><rtept lat="37.938343" lon="-107.169312"><ele>3388.6000000000004</ele><time>2026-04-12T16:43:58Z</time></rtept><rtept lat="37.93799" lon="-107.170172"><ele>3395.6000000000004</ele><time>2026-04-12T16:43:58Z</time></rtept><rtept lat="37.937983" lon="-107.171003"><ele>3395.4000000000015</ele><time>2026-04-12T16:43:58Z</time></rtept><rtept lat="37.93784" lon="-107.171635"><ele>3397.2000000000007</ele><time>2026-04-12T16:43:58Z</time></rtept><rtept lat="37.937795" lon="-107.172085"><ele>3397.800000000001</ele><time>2026-04-12T16:43:58Z</time></rtept><rtept lat="37.937645" lon="-107.172498"><ele>3398.6000000000004</ele><time>2026-04-12T16:43:58Z</time></rtept><rtept lat="37.937467" lon="-107.172808"><ele>3398.800000000001</ele><time>2026-04-12T16:43:58Z</time></rtept><rtept lat="37.937095" lon="-107.17342"><ele>3398.800000000001</ele><time>2026-04-12T16:43:58Z</time></rtept><rtept lat="37.936819" lon="-107.173896"><ele>3398.4000000000015</ele><time>2026-04-12T16:43:58Z</time></rtept><rtept lat="37.936475" lon="-107.174404"><ele>3397.6000000000004</ele><time>2026-04-12T16:43:58Z</time></rtept><rtept lat="37.936289" lon="-107.174669"><ele>3397.0</ele><time>2026-04-12T16:43:58Z</time></rtept><rtept lat="37.936163" lon="-107.174811"><ele>3396.6000000000004</ele><time>2026-04-12T16:43:58Z</time></rtept><rtept lat="37.935959" lon="-107.174993"><ele>3396.0</ele><time>2026-04-12T16:43:58Z</time></rtept><rtept lat="37.935833" lon="-107.175282"><ele>3395.0</ele><time>2026-04-12T16:43:58Z</time></rtept><rtept lat="37.935559" lon="-107.175656"><ele>3393.6000000000004</ele><time>2026-04-12T16:43:58Z</time></rtept><rtept lat="37.935479" lon="-107.175813"><ele>3392.800000000001</ele><time>2026-04-12T16:43:58Z</time></rtept><rtept lat="37.935445" lon="-107.17624"><ele>3391.4000000000015</ele><time>2026-04-12T16:43:58Z</time></rtept><rtept lat="37.935441" lon="-107.176671"><ele>3389.0</ele><time>2026-04-12T16:43:58Z</time></rtept><rtept lat="37.935417" lon="-107.177029"><ele>3386.4000000000015</ele><time>2026-04-12T16:43:58Z</time></rtept><rtept lat="37.935319" lon="-107.177656"><ele>3380.2000000000007</ele><time>2026-04-12T16:43:58Z</time></rtept><rtept lat="37.935294" lon="-107.178026"><ele>3378.6000000000004</ele><time>2026-04-12T16:43:58Z</time></rtept><rtept lat="37.935185" lon="-107.178328"><ele>3376.800000000001</ele><time>2026-04-12T16:43:58Z</time></rtept><rtept lat="37.935101" lon="-107.178705"><ele>3375.4000000000015</ele><time>2026-04-12T16:43:58Z</time></rtept><rtept lat="37.935007" lon="-107.178842"><ele>3374.6000000000004</ele><time>2026-04-12T16:43:58Z</time></rtept><rtept lat="37.934931" lon="-107.178957"><ele>3374.2000000000007</ele><time>2026-04-12T16:43:58Z</time></rtept><rtept lat="37.934828" lon="-107.179224"><ele>3373.0</ele><time>2026-04-12T16:43:58Z</time></rtept><rtept lat="37.934601" lon="-107.179608"><ele>3371.0</ele><time>2026-04-12T16:43:58Z</time></rtept><rtept lat="37.934529" lon="-107.17982"><ele>3370.2000000000007</ele><time>2026-04-12T16:43:58Z</time></rtept><rtept lat="37.93446" lon="-107.180114"><ele>3369.2000000000007</ele><time>2026-04-12T16:43:58Z</time></rtept><rtept lat="37.934426" lon="-107.180366"><ele>3368.4000000000015</ele><time>2026-04-12T16:43:58Z</time></rtept><rtept lat="37.93447" lon="-107.18071"><ele>3368.0</ele><time>2026-04-12T16:43:58Z</time></rtept><rtept lat="37.93447" lon="-107.180901"><ele>3367.6000000000004</ele><time>2026-04-12T16:43:58Z</time></rtept><rtept lat="37.934431" lon="-107.181164"><ele>3366.4000000000015</ele><time>2026-04-12T16:43:58Z</time></rtept><rtept lat="37.934456" lon="-107.181451"><ele>3365.6000000000004</ele><time>2026-04-12T16:43:58Z</time></rtept><rtept lat="37.934532" lon="-107.181764"><ele>3364.6000000000004</ele><time>2026-04-12T16:43:58Z</time></rtept><rtept lat="37.934701" lon="-107.182033"><ele>3365.0</ele><time>2026-04-12T16:43:58Z</time></rtept><rtept lat="37.934864" lon="-107.182546"><ele>3365.2000000000007</ele><time>2026-04-12T16:43:58Z</time></rtept><rtept lat="37.934953" lon="-107.182828"><ele>3364.800000000001</ele><time>2026-04-12T16:43:58Z</time></rtept><rtept lat="37.934972" lon="-107.183036"><ele>3364.2000000000007</ele><time>2026-04-12T16:43:58Z</time></rtept><rtept lat="37.934982" lon="-107.183503"><ele>3363.800000000001</ele><time>2026-04-12T16:43:58Z</time></rtept><rtept lat="37.934993" lon="-107.18391"><ele>3365.0</ele><time>2026-04-12T16:43:58Z</time></rtept><rtept lat="37.935055" lon="-107.184445"><ele>3366.2000000000007</ele><time>2026-04-12T16:43:58Z</time></rtept><rtept lat="37.935046" lon="-107.1846"><ele>3366.800000000001</ele><time>2026-04-12T16:43:58Z</time></rtept><rtept lat="37.934913" lon="-107.184755"><ele>3365.4000000000015</ele><time>2026-04-12T16:43:58Z</time></rtept><rtept lat="37.934743" lon="-107.18513"><ele>3365.0</ele><time>2026-04-12T16:43:58Z</time></rtept><rtept lat="37.934699" lon="-107.18551"><ele>3365.2000000000007</ele><time>2026-04-12T16:43:58Z</time></rtept><rtept lat="37.934592" lon="-107.185932"><ele>3365.4000000000015</ele><time>2026-04-12T16:43:58Z</time></rtept><rtept lat="37.934594" lon="-107.186258"><ele>3366.6000000000004</ele><time>2026-04-12T16:43:58Z</time></rtept><rtept lat="37.934554" lon="-107.186721"><ele>3367.2000000000007</ele><time>2026-04-12T16:43:58Z</time></rtept><rtept lat="37.934568" lon="-107.187049"><ele>3368.6000000000004</ele><time>2026-04-12T16:43:58Z</time></rtept><rtept lat="37.934507" lon="-107.187332"><ele>3368.800000000001</ele><time>2026-04-12T16:43:58Z</time></rtept><rtept lat="37.934506" lon="-107.187676"><ele>3369.800000000001</ele><time>2026-04-12T16:43:58Z</time></rtept><rtept lat="37.934525" lon="-107.188112"><ele>3372.4000000000015</ele><time>2026-04-12T16:43:58Z</time></rtept><rtept lat="37.934614" lon="-107.188434"><ele>3374.4000000000015</ele><time>2026-04-12T16:43:58Z</time></rtept><rtept lat="37.9346" lon="-107.188645"><ele>3375.6000000000004</ele><time>2026-04-12T16:43:58Z</time></rtept><rtept lat="37.934497" lon="-107.189218"><ele>3377.2000000000007</ele><time>2026-04-12T16:43:58Z</time></rtept><rtept lat="37.934483" lon="-107.189535"><ele>3379.4000000000015</ele><time>2026-04-12T16:43:58Z</time></rtept><rtept lat="37.934396" lon="-107.190353"><ele>3383.2000000000007</ele><time>2026-04-12T16:43:58Z</time></rtept><rtept lat="37.934177" lon="-107.191782"><ele>3389.0</ele><time>2026-04-12T16:43:58Z</time></rtept><rtept lat="37.934164" lon="-107.192025"><ele>3390.4000000000015</ele><time>2026-04-12T16:43:58Z</time></rtept><rtept lat="37.934059" lon="-107.192227"><ele>3391.4000000000015</ele><time>2026-04-12T16:43:58Z</time></rtept><rtept lat="37.933942" lon="-107.1923"><ele>3391.4000000000015</ele><time>2026-04-12T16:43:58Z</time></rtept><rtept lat="37.933805" lon="-107.192356"><ele>3391.800000000001</ele><time>2026-04-12T16:43:58Z</time></rtept><rtept lat="37.933596" lon="-107.192528"><ele>3392.6000000000004</ele><time>2026-04-12T16:43:58Z</time></rtept><rtept lat="37.932825" lon="-107.192639"><ele>3391.800000000001</ele><time>2026-04-12T16:43:58Z</time></rtept><rtept lat="37.932468" lon="-107.193139"><ele>3395.6000000000004</ele><time>2026-04-12T16:43:58Z</time></rtept><rtept lat="37.932385" lon="-107.193832"><ele>3403.2000000000007</ele><time>2026-04-12T16:43:58Z</time></rtept><rtept lat="37.932322" lon="-107.193961"><ele>3405.0</ele><time>2026-04-12T16:43:58Z</time></rtept><rtept lat="37.932008" lon="-107.194178"><ele>3406.6000000000004</ele><time>2026-04-12T16:43:58Z</time></rtept><rtept lat="37.931762" lon="-107.194658"><ele>3412.4000000000015</ele><time>2026-04-12T16:43:58Z</time></rtept><rtept lat="37.931233" lon="-107.195545"><ele>3421.2000000000007</ele><time>2026-04-12T16:43:58Z</time></rtept><rtept lat="37.931012" lon="-107.196186"><ele>3428.4000000000015</ele><time>2026-04-12T16:43:58Z</time></rtept><rtept lat="37.930706" lon="-107.196299"><ele>3430.0</ele><time>2026-04-12T16:43:58Z</time></rtept><rtept lat="37.930606" lon="-107.196962"><ele>3436.800000000001</ele><time>2026-04-12T16:43:58Z</time></rtept><rtept lat="37.92985" lon="-107.197634"><ele>3443.800000000001</ele><time>2026-04-12T16:43:58Z</time></rtept><rtept lat="37.929611" lon="-107.197863"><ele>3447.6000000000004</ele><time>2026-04-12T16:43:58Z</time></rtept><rtept lat="37.929439" lon="-107.198152"><ele>3451.800000000001</ele><time>2026-04-12T16:43:58Z</time></rtept><rtept lat="37.929173" lon="-107.198283"><ele>3455.2000000000007</ele><time>2026-04-12T16:43:58Z</time></rtept><rtept lat="37.92895" lon="-107.198797"><ele>3464.800000000001</ele><time>2026-04-12T16:43:58Z</time></rtept><rtept lat="37.928882" lon="-107.199312"><ele>3471.0</ele><time>2026-04-12T16:43:58Z</time></rtept><rtept lat="37.928751" lon="-107.199481"><ele>3473.0</ele><time>2026-04-12T16:43:58Z</time></rtept><rtept lat="37.928427" lon="-107.200222"><ele>3485.2000000000007</ele><time>2026-04-12T16:43:58Z</time></rtept><rtept lat="37.928164" lon="-107.200696"><ele>3493.0</ele><time>2026-04-12T16:43:58Z</time></rtept><rtept lat="37.928061" lon="-107.200866"><ele>3495.800000000001</ele><time>2026-04-12T16:43:58Z</time></rtept><rtept lat="37.928006" lon="-107.201089"><ele>3498.6000000000004</ele><time>2026-04-12T16:43:58Z</time></rtept><rtept lat="37.927825" lon="-107.201594"><ele>3502.6000000000004</ele><time>2026-04-12T16:43:58Z</time></rtept><rtept lat="37.92769" lon="-107.201768"><ele>3503.800000000001</ele><time>2026-04-12T16:43:58Z</time></rtept><rtept lat="37.927562" lon="-107.202179"><ele>3505.800000000001</ele><time>2026-04-12T16:43:58Z</time></rtept><rtept lat="37.927552" lon="-107.202461"><ele>3507.6000000000004</ele><time>2026-04-12T16:43:58Z</time></rtept><rtept lat="37.927618" lon="-107.202803"><ele>3509.0</ele><time>2026-04-12T16:43:58Z</time></rtept><rtept lat="37.927696" lon="-107.20307"><ele>3510.0</ele><time>2026-04-12T16:43:58Z</time></rtept><rtept lat="37.929676" lon="-107.205378"><ele>3513.800000000001</ele><time>2026-04-12T16:43:58Z</time></rtept><rtept lat="37.929724" lon="-107.205499"><ele>3513.6000000000004</ele><time>2026-04-12T16:43:58Z</time></rtept><rtept lat="37.929739" lon="-107.205739"><ele>3514.4000000000015</ele><time>2026-04-12T16:43:58Z</time></rtept><rtept lat="37.929646" lon="-107.206428"><ele>3519.4000000000015</ele><time>2026-04-12T16:43:58Z</time></rtept><rtept lat="37.92958" lon="-107.20854"><ele>3531.800000000001</ele><time>2026-04-12T16:43:58Z</time></rtept><rtept lat="37.929933" lon="-107.210852"><ele>3548.800000000001</ele><time>2026-04-12T16:43:58Z</time></rtept><rtept lat="37.930274" lon="-107.211898"><ele>3562.0</ele><time>2026-04-12T16:43:58Z</time></rtept><rtept lat="37.930217" lon="-107.212532"><ele>3571.4000000000015</ele><time>2026-04-12T16:43:58Z</time></rtept><rtept lat="37.930794" lon="-107.213712"><ele>3588.2000000000007</ele><time>2026-04-12T16:43:58Z</time></rtept><rtept lat="37.930861" lon="-107.214203"><ele>3595.4000000000015</ele><time>2026-04-12T16:43:58Z</time></rtept><rtept lat="37.930834" lon="-107.215872"><ele>3619.2000000000007</ele><time>2026-04-12T16:43:58Z</time></rtept><rtept lat="37.930564" lon="-107.217766"><ele>3636.800000000001</ele><time>2026-04-12T16:43:58Z</time></rtept><rtept lat="37.929393" lon="-107.22158"><ele>3664.4000000000015</ele><time>2026-04-12T16:43:58Z</time></rtept><rtept lat="37.928777" lon="-107.225832"><ele>3665.4000000000015</ele><time>2026-04-12T16:43:58Z</time></rtept><rtept lat="37.927011" lon="-107.235072"><ele>3644.6000000000004</ele><time>2026-04-12T16:43:58Z</time></rtept><rtept lat="37.927015" lon="-107.235618"><ele>3642.800000000001</ele><time>2026-04-12T16:43:58Z</time></rtept><rtept lat="37.926908" lon="-107.236148"><ele>3640.800000000001</ele><time>2026-04-12T16:43:58Z</time></rtept><rtept lat="37.926988" lon="-107.23676"><ele>3639.2000000000007</ele><time>2026-04-12T16:43:58Z</time></rtept><rtept lat="37.926983" lon="-107.237388"><ele>3636.800000000001</ele><time>2026-04-12T16:43:58Z</time></rtept><rtept lat="37.927046" lon="-107.239382"><ele>3626.800000000001</ele><time>2026-04-12T16:43:58Z</time></rtept><rtept lat="37.928038" lon="-107.244665"><ele>3603.4000000000015</ele><time>2026-04-12T16:43:58Z</time></rtept><rtept lat="37.928141" lon="-107.245227"><ele>3602.0</ele><time>2026-04-12T16:43:58Z</time></rtept><rtept lat="37.928205" lon="-107.245728"><ele>3601.2000000000007</ele><time>2026-04-12T16:43:58Z</time></rtept><rtept lat="37.928483" lon="-107.249906"><ele>3575.2000000000007</ele><time>2026-04-12T16:43:58Z</time></rtept><rtept lat="37.928536" lon="-107.250075"><ele>3573.4000000000015</ele><time>2026-04-12T16:43:58Z</time></rtept><rtept lat="37.928543" lon="-107.250442"><ele>3570.2000000000007</ele><time>2026-04-12T16:43:58Z</time></rtept><rtept lat="37.928543" lon="-107.250442"><ele>3570.2000000000007</ele><time>2026-04-12T16:43:58Z</time></rtept><rtept lat="37.928553" lon="-107.250965"><ele>3570.4000000000015</ele><time>2026-04-12T16:43:58Z</time></rtept><rtept lat="37.928452" lon="-107.25143"><ele>3573.4000000000015</ele><time>2026-04-12T16:43:58Z</time></rtept><rtept lat="37.92831" lon="-107.251653"><ele>3575.0</ele><time>2026-04-12T16:43:58Z</time></rtept><rtept lat="37.92779" lon="-107.252007"><ele>3575.4000000000015</ele><time>2026-04-12T16:43:58Z</time></rtept><rtept lat="37.927456" lon="-107.252394"><ele>3575.6000000000004</ele><time>2026-04-12T16:43:58Z</time></rtept><rtept lat="37.92715" lon="-107.253026"><ele>3577.800000000001</ele><time>2026-04-12T16:43:58Z</time></rtept><rtept lat="37.927198" lon="-107.254769"><ele>3588.800000000001</ele><time>2026-04-12T16:43:58Z</time></rtept><rtept lat="37.927071" lon="-107.255086"><ele>3590.800000000001</ele><time>2026-04-12T16:43:58Z</time></rtept><rtept lat="37.92759" lon="-107.256168"><ele>3599.4000000000015</ele><time>2026-04-12T16:43:58Z</time></rtept><rtept lat="37.929347" lon="-107.258561"><ele>3622.2000000000007</ele><time>2026-04-12T16:43:58Z</time></rtept><rtept lat="37.930632" lon="-107.260858"><ele>3632.800000000001</ele><time>2026-04-12T16:43:58Z</time></rtept><rtept lat="37.930684" lon="-107.261282"><ele>3630.0</ele><time>2026-04-12T16:43:58Z</time></rtept><rtept lat="37.930808" lon="-107.261759"><ele>3629.2000000000007</ele><time>2026-04-12T16:43:58Z</time></rtept><rtept lat="37.930879" lon="-107.261915"><ele>3630.0</ele><time>2026-04-12T16:43:58Z</time></rtept><rtept lat="37.93121" lon="-107.263095"><ele>3634.0</ele><time>2026-04-12T16:43:58Z</time></rtept><rtept lat="37.931253" lon="-107.26344"><ele>3629.4000000000015</ele><time>2026-04-12T16:43:58Z</time></rtept><rtept lat="37.931301" lon="-107.263721"><ele>3626.6000000000004</ele><time>2026-04-12T16:43:58Z</time></rtept><rtept lat="37.9314" lon="-107.264037"><ele>3623.6000000000004</ele><time>2026-04-12T16:43:58Z</time></rtept><rtept lat="37.931444" lon="-107.264705"><ele>3626.0</ele><time>2026-04-12T16:43:58Z</time></rtept><rtept lat="37.931516" lon="-107.264913"><ele>3627.2000000000007</ele><time>2026-04-12T16:43:58Z</time></rtept><rtept lat="37.93147" lon="-107.265089"><ele>3626.0</ele><time>2026-04-12T16:43:58Z</time></rtept><rtept lat="37.931427" lon="-107.265268"><ele>3626.2000000000007</ele><time>2026-04-12T16:43:58Z</time></rtept><rtept lat="37.931467" lon="-107.265775"><ele>3628.0</ele><time>2026-04-12T16:43:58Z</time></rtept><rtept lat="37.931545" lon="-107.266213"><ele>3631.4000000000015</ele><time>2026-04-12T16:43:58Z</time></rtept><rtept lat="37.93162" lon="-107.267337"><ele>3636.0</ele><time>2026-04-12T16:43:58Z</time></rtept><rtept lat="37.931738" lon="-107.267713"><ele>3638.2000000000007</ele><time>2026-04-12T16:43:58Z</time></rtept><rtept lat="37.931744" lon="-107.267946"><ele>3640.2000000000007</ele><time>2026-04-12T16:43:58Z</time></rtept><rtept lat="37.931875" lon="-107.268405"><ele>3642.4000000000015</ele><time>2026-04-12T16:43:58Z</time></rtept><rtept lat="37.932095" lon="-107.268845"><ele>3647.2000000000007</ele><time>2026-04-12T16:43:58Z</time></rtept><rtept lat="37.932248" lon="-107.269333"><ele>3650.6000000000004</ele><time>2026-04-12T16:43:58Z</time></rtept><rtept lat="37.932363" lon="-107.270018"><ele>3654.6000000000004</ele><time>2026-04-12T16:43:58Z</time></rtept><rtept lat="37.93234" lon="-107.270292"><ele>3654.2000000000007</ele><time>2026-04-12T16:43:58Z</time></rtept><rtept lat="37.932446" lon="-107.270838"><ele>3660.0</ele><time>2026-04-12T16:43:58Z</time></rtept><rtept lat="37.932519" lon="-107.27095"><ele>3662.4000000000015</ele><time>2026-04-12T16:43:58Z</time></rtept><rtept lat="37.932589" lon="-107.27114"><ele>3665.2000000000007</ele><time>2026-04-12T16:43:58Z</time></rtept><rtept lat="37.932593" lon="-107.271391"><ele>3668.0</ele><time>2026-04-12T16:43:58Z</time></rtept><rtept lat="37.932692" lon="-107.271838"><ele>3673.2000000000007</ele><time>2026-04-12T16:43:58Z</time></rtept><rtept lat="37.932667" lon="-107.27207"><ele>3674.4000000000015</ele><time>2026-04-12T16:43:58Z</time></rtept><rtept lat="37.932623" lon="-107.27236"><ele>3675.800000000001</ele><time>2026-04-12T16:43:58Z</time></rtept><rtept lat="37.932545" lon="-107.272524"><ele>3678.4000000000015</ele><time>2026-04-12T16:43:58Z</time></rtept><rtept lat="37.932335" lon="-107.272784"><ele>3684.2000000000007</ele><time>2026-04-12T16:43:58Z</time></rtept><rtept lat="37.932017" lon="-107.273014"><ele>3689.800000000001</ele><time>2026-04-12T16:43:58Z</time></rtept><rtept lat="37.931694" lon="-107.273167"><ele>3696.0</ele><time>2026-04-12T16:43:58Z</time></rtept><rtept lat="37.931513" lon="-107.27316"><ele>3698.4000000000015</ele><time>2026-04-12T16:43:58Z</time></rtept><rtept lat="37.930429" lon="-107.273474"><ele>3712.0</ele><time>2026-04-12T16:43:58Z</time></rtept><rtept lat="37.929165" lon="-107.274089"><ele>3721.0</ele><time>2026-04-12T16:43:58Z</time></rtept><rtept lat="37.92833" lon="-107.274807"><ele>3722.6000000000004</ele><time>2026-04-12T16:43:58Z</time></rtept><rtept lat="37.927937" lon="-107.275227"><ele>3719.4000000000015</ele><time>2026-04-12T16:43:58Z</time></rtept><rtept lat="37.927593" lon="-107.27544"><ele>3717.4000000000015</ele><time>2026-04-12T16:43:58Z</time></rtept><rtept lat="37.927075" lon="-107.275973"><ele>3717.6000000000004</ele><time>2026-04-12T16:43:58Z</time></rtept><rtept lat="37.926913" lon="-107.276244"><ele>3717.800000000001</ele><time>2026-04-12T16:43:58Z</time></rtept><rtept lat="37.926644" lon="-107.276416"><ele>3716.4000000000015</ele><time>2026-04-12T16:43:58Z</time></rtept><rtept lat="37.926243" lon="-107.276828"><ele>3714.6000000000004</ele><time>2026-04-12T16:43:58Z</time></rtept><rtept lat="37.926116" lon="-107.277036"><ele>3713.4000000000015</ele><time>2026-04-12T16:43:58Z</time></rtept><rtept lat="37.925782" lon="-107.277303"><ele>3709.4000000000015</ele><time>2026-04-12T16:43:58Z</time></rtept><rtept lat="37.92431" lon="-107.279127"><ele>3692.4000000000015</ele><time>2026-04-12T16:43:58Z</time></rtept><rtept lat="37.924009" lon="-107.279602"><ele>3689.4000000000015</ele><time>2026-04-12T16:43:58Z</time></rtept><rtept lat="37.923666" lon="-107.279925"><ele>3687.0</ele><time>2026-04-12T16:43:58Z</time></rtept><rtept lat="37.923365" lon="-107.28051"><ele>3684.4000000000015</ele><time>2026-04-12T16:43:58Z</time></rtept><rtept lat="37.922937" lon="-107.281005"><ele>3675.800000000001</ele><time>2026-04-12T16:43:58Z</time></rtept><rtept lat="37.922791" lon="-107.281084"><ele>3673.2000000000007</ele><time>2026-04-12T16:43:58Z</time></rtept><rtept lat="37.922686" lon="-107.281212"><ele>3671.800000000001</ele><time>2026-04-12T16:43:58Z</time></rtept><rtept lat="37.922552" lon="-107.281214"><ele>3670.0</ele><time>2026-04-12T16:43:58Z</time></rtept><rtept lat="37.922079" lon="-107.28147"><ele>3663.6000000000004</ele><time>2026-04-12T16:43:58Z</time></rtept><rtept lat="37.921868" lon="-107.281542"><ele>3660.800000000001</ele><time>2026-04-12T16:43:58Z</time></rtept><rtept lat="37.921809" lon="-107.28156"><ele>3660.0</ele><time>2026-04-12T16:43:58Z</time></rtept><rtept lat="37.921809" lon="-107.28156"><ele>3660.0</ele><time>2026-04-12T16:43:58Z</time></rtept><rtept lat="37.921868" lon="-107.281542"><ele>3660.800000000001</ele><time>2026-04-12T16:43:58Z</time></rtept><rtept lat="37.921209" lon="-107.282107"><ele>3649.6000000000004</ele><time>2026-04-12T16:43:58Z</time></rtept><rtept lat="37.919269" lon="-107.282974"><ele>3631.6000000000004</ele><time>2026-04-12T16:43:58Z</time></rtept><rtept lat="37.918654" lon="-107.28313"><ele>3625.6000000000004</ele><time>2026-04-12T16:43:58Z</time></rtept><rtept lat="37.917428" lon="-107.282911"><ele>3611.2000000000007</ele><time>2026-04-12T16:43:58Z</time></rtept><rtept lat="37.915756" lon="-107.282929"><ele>3594.4000000000015</ele><time>2026-04-12T16:43:58Z</time></rtept><rtept lat="37.914528" lon="-107.283748"><ele>3592.6000000000004</ele><time>2026-04-12T16:43:58Z</time></rtept><rtept lat="37.914045" lon="-107.284269"><ele>3587.800000000001</ele><time>2026-04-12T16:43:58Z</time></rtept><rtept lat="37.913761" lon="-107.285358"><ele>3583.4000000000015</ele><time>2026-04-12T16:43:58Z</time></rtept><rtept lat="37.913701" lon="-107.285847"><ele>3582.2000000000007</ele><time>2026-04-12T16:43:58Z</time></rtept><rtept lat="37.913593" lon="-107.286219"><ele>3580.6000000000004</ele><time>2026-04-12T16:43:58Z</time></rtept><rtept lat="37.913334" lon="-107.286522"><ele>3577.800000000001</ele><time>2026-04-12T16:43:58Z</time></rtept><rtept lat="37.913026" lon="-107.286769"><ele>3572.0</ele><time>2026-04-12T16:43:58Z</time></rtept><rtept lat="37.912799" lon="-107.286869"><ele>3569.0</ele><time>2026-04-12T16:43:58Z</time></rtept><rtept lat="37.912659" lon="-107.287008"><ele>3568.0</ele><time>2026-04-12T16:43:58Z</time></rtept><rtept lat="37.912485" lon="-107.287181"><ele>3566.4000000000015</ele><time>2026-04-12T16:43:58Z</time></rtept><rtept lat="37.91237" lon="-107.287341"><ele>3566.0</ele><time>2026-04-12T16:43:58Z</time></rtept><rtept lat="37.912023" lon="-107.287637"><ele>3566.800000000001</ele><time>2026-04-12T16:43:58Z</time></rtept><rtept lat="37.911822" lon="-107.287621"><ele>3567.0</ele><time>2026-04-12T16:43:58Z</time></rtept><rtept lat="37.911592" lon="-107.287678"><ele>3568.4000000000015</ele><time>2026-04-12T16:43:58Z</time></rtept><rtept lat="37.911542" lon="-107.287701"><ele>3568.6000000000004</ele><time>2026-04-12T16:43:58Z</time></rtept><rtept lat="37.910931" lon="-107.287546"><ele>3570.6000000000004</ele><time>2026-04-12T16:43:58Z</time></rtept><rtept lat="37.910773" lon="-107.28733"><ele>3569.800000000001</ele><time>2026-04-12T16:43:58Z</time></rtept><rtept lat="37.910184" lon="-107.287262"><ele>3577.2000000000007</ele><time>2026-04-12T16:43:58Z</time></rtept><rtept lat="37.909937" lon="-107.286947"><ele>3578.4000000000015</ele><time>2026-04-12T16:43:58Z</time></rtept><rtept lat="37.909789" lon="-107.287175"><ele>3581.6000000000004</ele><time>2026-04-12T16:43:58Z</time></rtept><rtept lat="37.909541" lon="-107.287167"><ele>3584.4000000000015</ele><time>2026-04-12T16:43:58Z</time></rtept><rtept lat="37.909469" lon="-107.28738"><ele>3585.800000000001</ele><time>2026-04-12T16:43:58Z</time></rtept><rtept lat="37.909244" lon="-107.287386"><ele>3590.4000000000015</ele><time>2026-04-12T16:43:58Z</time></rtept><rtept lat="37.908914" lon="-107.287195"><ele>3595.800000000001</ele><time>2026-04-12T16:43:58Z</time></rtept><rtept lat="37.908546" lon="-107.286444"><ele>3602.6000000000004</ele><time>2026-04-12T16:43:58Z</time></rtept><rtept lat="37.907787" lon="-107.286538"><ele>3613.800000000001</ele><time>2026-04-12T16:43:58Z</time></rtept><rtept lat="37.907539" lon="-107.286117"><ele>3619.6000000000004</ele><time>2026-04-12T16:43:58Z</time></rtept><rtept lat="37.906954" lon="-107.2858"><ele>3630.6000000000004</ele><time>2026-04-12T16:43:58Z</time></rtept><rtept lat="37.90706" lon="-107.284562"><ele>3631.0</ele><time>2026-04-12T16:43:58Z</time></rtept><rtept lat="37.906663" lon="-107.284121"><ele>3639.0</ele><time>2026-04-12T16:43:58Z</time></rtept><rtept lat="37.905906" lon="-107.284349"><ele>3659.6000000000004</ele><time>2026-04-12T16:43:58Z</time></rtept><rtept lat="37.905772" lon="-107.28457"><ele>3661.4000000000015</ele><time>2026-04-12T16:43:58Z</time></rtept><rtept lat="37.905535" lon="-107.284711"><ele>3663.0</ele><time>2026-04-12T16:43:58Z</time></rtept><rtept lat="37.905409" lon="-107.284921"><ele>3663.6000000000004</ele><time>2026-04-12T16:43:58Z</time></rtept><rtept lat="37.904925" lon="-107.285453"><ele>3666.0</ele><time>2026-04-12T16:43:58Z</time></rtept><rtept lat="37.904753" lon="-107.285729"><ele>3665.800000000001</ele><time>2026-04-12T16:43:58Z</time></rtept><rtept lat="37.904748" lon="-107.285789"><ele>3665.6000000000004</ele><time>2026-04-12T16:43:58Z</time></rtept><rtept lat="37.904775" lon="-107.285864"><ele>3665.6000000000004</ele><time>2026-04-12T16:43:58Z</time></rtept><rtept lat="37.904994" lon="-107.286034"><ele>3666.2000000000007</ele><time>2026-04-12T16:43:58Z</time></rtept><rtept lat="37.90516" lon="-107.286306"><ele>3667.0</ele><time>2026-04-12T16:43:58Z</time></rtept><rtept lat="37.905249" lon="-107.286591"><ele>3667.800000000001</ele><time>2026-04-12T16:43:58Z</time></rtept><rtept lat="37.905277" lon="-107.286921"><ele>3669.800000000001</ele><time>2026-04-12T16:43:58Z</time></rtept><rtept lat="37.905436" lon="-107.287147"><ele>3670.800000000001</ele><time>2026-04-12T16:43:58Z</time></rtept><rtept lat="37.905511" lon="-107.287396"><ele>3672.2000000000007</ele><time>2026-04-12T16:43:58Z</time></rtept><rtept lat="37.905511" lon="-107.287542"><ele>3673.0</ele><time>2026-04-12T16:43:58Z</time></rtept><rtept lat="37.905688" lon="-107.287851"><ele>3673.800000000001</ele><time>2026-04-12T16:43:58Z</time></rtept><rtept lat="37.905928" lon="-107.288467"><ele>3674.800000000001</ele><time>2026-04-12T16:43:58Z</time></rtept><rtept lat="37.90592" lon="-107.288887"><ele>3676.4000000000015</ele><time>2026-04-12T16:43:58Z</time></rtept><rtept lat="37.905948" lon="-107.288974"><ele>3676.800000000001</ele><time>2026-04-12T16:43:58Z</time></rtept><rtept lat="37.906047" lon="-107.289071"><ele>3676.800000000001</ele><time>2026-04-12T16:43:58Z</time></rtept><rtept lat="37.906088" lon="-107.28918"><ele>3677.0</ele><time>2026-04-12T16:43:58Z</time></rtept><rtept lat="37.906106" lon="-107.289932"><ele>3684.800000000001</ele><time>2026-04-12T16:43:58Z</time></rtept><rtept lat="37.905967" lon="-107.290273"><ele>3687.4000000000015</ele><time>2026-04-12T16:43:58Z</time></rtept><rtept lat="37.905744" lon="-107.290476"><ele>3687.4000000000015</ele><time>2026-04-12T16:43:58Z</time></rtept><rtept lat="37.905738" lon="-107.290604"><ele>3688.0</ele><time>2026-04-12T16:43:58Z</time></rtept><rtept lat="37.905773" lon="-107.29069"><ele>3689.6000000000004</ele><time>2026-04-12T16:43:58Z</time></rtept><rtept lat="37.905763" lon="-107.290857"><ele>3691.0</ele><time>2026-04-12T16:43:58Z</time></rtept><rtept lat="37.905753" lon="-107.291095"><ele>3692.6000000000004</ele><time>2026-04-12T16:43:58Z</time></rtept><rtept lat="37.9058" lon="-107.291248"><ele>3694.2000000000007</ele><time>2026-04-12T16:43:58Z</time></rtept><rtept lat="37.905866" lon="-107.291383"><ele>3696.6000000000004</ele><time>2026-04-12T16:43:58Z</time></rtept><rtept lat="37.905855" lon="-107.291468"><ele>3697.2000000000007</ele><time>2026-04-12T16:43:58Z</time></rtept><rtept lat="37.905738" lon="-107.291497"><ele>3695.6000000000004</ele><time>2026-04-12T16:43:58Z</time></rtept><rtept lat="37.905594" lon="-107.291618"><ele>3694.6000000000004</ele><time>2026-04-12T16:43:58Z</time></rtept><rtept lat="37.905503" lon="-107.291657"><ele>3694.2000000000007</ele><time>2026-04-12T16:43:58Z</time></rtept><rtept lat="37.905406" lon="-107.291777"><ele>3693.800000000001</ele><time>2026-04-12T16:43:58Z</time></rtept><rtept lat="37.905429" lon="-107.292004"><ele>3695.6000000000004</ele><time>2026-04-12T16:43:58Z</time></rtept><rtept lat="37.905493" lon="-107.292081"><ele>3697.0</ele><time>2026-04-12T16:43:58Z</time></rtept><rtept lat="37.905548" lon="-107.292242"><ele>3699.800000000001</ele><time>2026-04-12T16:43:58Z</time></rtept><rtept lat="37.905562" lon="-107.292348"><ele>3701.0</ele><time>2026-04-12T16:43:58Z</time></rtept><rtept lat="37.905505" lon="-107.292416"><ele>3701.6000000000004</ele><time>2026-04-12T16:43:58Z</time></rtept><rtept lat="37.905486" lon="-107.292551"><ele>3702.6000000000004</ele><time>2026-04-12T16:43:58Z</time></rtept><rtept lat="37.905599" lon="-107.292786"><ele>3705.0</ele><time>2026-04-12T16:43:58Z</time></rtept><rtept lat="37.905482" lon="-107.293077"><ele>3707.0</ele><time>2026-04-12T16:43:58Z</time></rtept><rtept lat="37.905446" lon="-107.293221"><ele>3709.0</ele><time>2026-04-12T16:43:58Z</time></rtept><rtept lat="37.905466" lon="-107.293428"><ele>3713.2000000000007</ele><time>2026-04-12T16:43:58Z</time></rtept><rtept lat="37.905608" lon="-107.293818"><ele>3717.2000000000007</ele><time>2026-04-12T16:43:58Z</time></rtept><rtept lat="37.905628" lon="-107.294243"><ele>3721.4000000000015</ele><time>2026-04-12T16:43:58Z</time></rtept><rtept lat="37.905334" lon="-107.294226"><ele>3727.4000000000015</ele><time>2026-04-12T16:43:58Z</time></rtept><rtept lat="37.905155" lon="-107.294188"><ele>3728.4000000000015</ele><time>2026-04-12T16:43:58Z</time></rtept><rtept lat="37.90497" lon="-107.294205"><ele>3733.800000000001</ele><time>2026-04-12T16:43:58Z</time></rtept><rtept lat="37.905081" lon="-107.294465"><ele>3735.800000000001</ele><time>2026-04-12T16:43:58Z</time></rtept><rtept lat="37.905353" lon="-107.29492"><ele>3739.2000000000007</ele><time>2026-04-12T16:43:58Z</time></rtept><rtept lat="37.905359" lon="-107.294984"><ele>3741.6000000000004</ele><time>2026-04-12T16:43:58Z</time></rtept><rtept lat="37.904661" lon="-107.295002"><ele>3751.0</ele><time>2026-04-12T16:43:58Z</time></rtept><rtept lat="37.904402" lon="-107.295545"><ele>3758.4000000000015</ele><time>2026-04-12T16:43:58Z</time></rtept><rtept lat="37.903844" lon="-107.296176"><ele>3761.4000000000015</ele><time>2026-04-12T16:43:58Z</time></rtept><rtept lat="37.903479" lon="-107.296387"><ele>3761.0</ele><time>2026-04-12T16:43:58Z</time></rtept><rtept lat="37.903352" lon="-107.296503"><ele>3762.0</ele><time>2026-04-12T16:43:58Z</time></rtept><rtept lat="37.902859" lon="-107.296776"><ele>3766.2000000000007</ele><time>2026-04-12T16:43:58Z</time></rtept><rtept lat="37.902721" lon="-107.29681"><ele>3766.2000000000007</ele><time>2026-04-12T16:43:58Z</time></rtept><rtept lat="37.902588" lon="-107.296926"><ele>3767.4000000000015</ele><time>2026-04-12T16:43:58Z</time></rtept><rtept lat="37.90187" lon="-107.297347"><ele>3771.2000000000007</ele><time>2026-04-12T16:43:58Z</time></rtept><rtept lat="37.901544" lon="-107.297538"><ele>3772.6000000000004</ele><time>2026-04-12T16:43:58Z</time></rtept><rtept lat="37.901083" lon="-107.297759"><ele>3774.800000000001</ele><time>2026-04-12T16:43:58Z</time></rtept><rtept lat="37.900678" lon="-107.297914"><ele>3777.6000000000004</ele><time>2026-04-12T16:43:58Z</time></rtept><rtept lat="37.900533" lon="-107.297982"><ele>3779.0</ele><time>2026-04-12T16:43:58Z</time></rtept><rtept lat="37.900364" lon="-107.298036"><ele>3778.800000000001</ele><time>2026-04-12T16:43:58Z</time></rtept><rtept lat="37.90025" lon="-107.298062"><ele>3779.800000000001</ele><time>2026-04-12T16:43:58Z</time></rtept><rtept lat="37.90011" lon="-107.298108"><ele>3779.6000000000004</ele><time>2026-04-12T16:43:58Z</time></rtept><rtept lat="37.899459" lon="-107.298348"><ele>3781.0</ele><time>2026-04-12T16:43:58Z</time></rtept><rtept lat="37.899291" lon="-107.29845"><ele>3781.4000000000015</ele><time>2026-04-12T16:43:58Z</time></rtept><rtept lat="37.898961" lon="-107.298616"><ele>3782.0</ele><time>2026-04-12T16:43:58Z</time></rtept><rtept lat="37.898728" lon="-107.298753"><ele>3782.800000000001</ele><time>2026-04-12T16:43:58Z</time></rtept><rtept lat="37.898418" lon="-107.29899"><ele>3782.800000000001</ele><time>2026-04-12T16:43:58Z</time></rtept><rtept lat="37.897854" lon="-107.299315"><ele>3781.6000000000004</ele><time>2026-04-12T16:43:58Z</time></rtept><rtept lat="37.897486" lon="-107.299604"><ele>3780.0</ele><time>2026-04-12T16:43:58Z</time></rtept><rtept lat="37.897252" lon="-107.299649"><ele>3779.800000000001</ele><time>2026-04-12T16:43:58Z</time></rtept><rtept lat="37.896996" lon="-107.299661"><ele>3780.0</ele><time>2026-04-12T16:43:58Z</time></rtept><rtept lat="37.896854" lon="-107.299767"><ele>3781.6000000000004</ele><time>2026-04-12T16:43:58Z</time></rtept><rtept lat="37.896854" lon="-107.299767"><ele>3781.6000000000004</ele><time>2026-04-12T16:43:58Z</time></rtept><rtept lat="37.896629" lon="-107.299936"><ele>3786.6000000000004</ele><time>2026-04-12T16:43:58Z</time></rtept><rtept lat="37.896349" lon="-107.300147"><ele>3794.800000000001</ele><time>2026-04-12T16:43:58Z</time></rtept><rtept lat="37.896228" lon="-107.300289"><ele>3797.0</ele><time>2026-04-12T16:43:58Z</time></rtept><rtept lat="37.895993" lon="-107.300358"><ele>3798.800000000001</ele><time>2026-04-12T16:43:58Z</time></rtept><rtept lat="37.895757" lon="-107.300379"><ele>3800.2000000000007</ele><time>2026-04-12T16:43:58Z</time></rtept><rtept lat="37.895498" lon="-107.300486"><ele>3800.2000000000007</ele><time>2026-04-12T16:43:58Z</time></rtept><rtept lat="37.895259" lon="-107.300585"><ele>3800.0</ele><time>2026-04-12T16:43:58Z</time></rtept><rtept lat="37.895118" lon="-107.300853"><ele>3802.4000000000015</ele><time>2026-04-12T16:43:58Z</time></rtept><rtept lat="37.895106" lon="-107.301217"><ele>3806.0</ele><time>2026-04-12T16:43:58Z</time></rtept><rtept lat="37.893893" lon="-107.305369"><ele>3810.6000000000004</ele><time>2026-04-12T16:43:58Z</time></rtept><rtept lat="37.893052" lon="-107.306947"><ele>3800.0</ele><time>2026-04-12T16:43:58Z</time></rtept><rtept lat="37.892296" lon="-107.307811"><ele>3797.6000000000004</ele><time>2026-04-12T16:43:58Z</time></rtept></rte></gpx>