<?xml version="1.0" ?><gpx xmlns="http://www.topografix.com/GPX/1/1" creator="GaiaGPS" version="1.1" xmlns:xsi="http://www.w3.org/2001/XMLSchema-instance" xsi:schemaLocation="http://www.topografix.com/GPX/1/1 http://www.topografix.com/GPX/1/1/gpx.xsd"><rte><name>TD17:S4:D4 Elk Creek to Molas Lake</name><desc>Trail day 17, segment 4, day 4. Camp at Molas? Night in Silverton?</desc><extensions><line xmlns="http://www.topografix.com/GPX/gpx_style/0/2"><color>FFEF00</color></line></extensions><rtept lat="37.721143" lon="-107.6056"><ele>3058.0</ele><time>2026-04-10T15:49:52Z</time></rtept><rtept lat="37.721135" lon="-107.6056"><ele>3058.0</ele><time>2026-04-10T15:49:52Z</time></rtept><rtept lat="37.721128" lon="-107.605933"><ele>3054.2</ele><time>2026-04-10T15:49:52Z</time></rtept><rtept lat="37.721026" lon="-107.606294"><ele>3050.0</ele><time>2026-04-10T15:49:52Z</time></rtept><rtept lat="37.721069" lon="-107.60663"><ele>3048.8</ele><time>2026-04-10T15:49:52Z</time></rtept><rtept lat="37.721052" lon="-107.606767"><ele>3048.6</ele><time>2026-04-10T15:49:52Z</time></rtept><rtept lat="37.72109" lon="-107.607016"><ele>3048.6</ele><time>2026-04-10T15:49:52Z</time></rtept><rtept lat="37.720965" lon="-107.607397"><ele>3047.6</ele><time>2026-04-10T15:49:52Z</time></rtept><rtept lat="37.72091" lon="-107.607566"><ele>3047.2</ele><time>2026-04-10T15:49:52Z</time></rtept><rtept lat="37.720814" lon="-107.607621"><ele>3046.6</ele><time>2026-04-10T15:49:52Z</time></rtept><rtept lat="37.720743" lon="-107.607761"><ele>3045.8</ele><time>2026-04-10T15:49:52Z</time></rtept><rtept lat="37.720722" lon="-107.607942"><ele>3045.6</ele><time>2026-04-10T15:49:52Z</time></rtept><rtept lat="37.720735" lon="-107.608162"><ele>3046.2</ele><time>2026-04-10T15:49:52Z</time></rtept><rtept lat="37.720661" lon="-107.608275"><ele>3046.4</ele><time>2026-04-10T15:49:52Z</time></rtept><rtept lat="37.720563" lon="-107.60845"><ele>3046.0</ele><time>2026-04-10T15:49:52Z</time></rtept><rtept lat="37.720548" lon="-107.608552"><ele>3045.6</ele><time>2026-04-10T15:49:52Z</time></rtept><rtept lat="37.720462" lon="-107.608696"><ele>3045.4</ele><time>2026-04-10T15:49:52Z</time></rtept><rtept lat="37.720433" lon="-107.608782"><ele>3045.6</ele><time>2026-04-10T15:49:52Z</time></rtept><rtept lat="37.720333" lon="-107.608889"><ele>3044.2</ele><time>2026-04-10T15:49:52Z</time></rtept><rtept lat="37.720275" lon="-107.609103"><ele>3043.6</ele><time>2026-04-10T15:49:52Z</time></rtept><rtept lat="37.720229" lon="-107.60938"><ele>3045.0</ele><time>2026-04-10T15:49:52Z</time></rtept><rtept lat="37.720139" lon="-107.609668"><ele>3045.2</ele><time>2026-04-10T15:49:52Z</time></rtept><rtept lat="37.720064" lon="-107.609955"><ele>3046.0</ele><time>2026-04-10T15:49:52Z</time></rtept><rtept lat="37.719968" lon="-107.610315"><ele>3048.0</ele><time>2026-04-10T15:49:52Z</time></rtept><rtept lat="37.719796" lon="-107.610819"><ele>3041.2</ele><time>2026-04-10T15:49:52Z</time></rtept><rtept lat="37.719911" lon="-107.611152"><ele>3043.8</ele><time>2026-04-10T15:49:52Z</time></rtept><rtept lat="37.720143" lon="-107.611412"><ele>3047.6</ele><time>2026-04-10T15:49:52Z</time></rtept><rtept lat="37.720497" lon="-107.611631"><ele>3050.4</ele><time>2026-04-10T15:49:52Z</time></rtept><rtept lat="37.720867" lon="-107.611988"><ele>3053.2</ele><time>2026-04-10T15:49:52Z</time></rtept><rtept lat="37.721182" lon="-107.612562"><ele>3059.4</ele><time>2026-04-10T15:49:52Z</time></rtept><rtept lat="37.721236" lon="-107.612911"><ele>3054.4</ele><time>2026-04-10T15:49:52Z</time></rtept><rtept lat="37.721117" lon="-107.613713"><ele>3039.4</ele><time>2026-04-10T15:49:52Z</time></rtept><rtept lat="37.721199" lon="-107.613868"><ele>3037.4</ele><time>2026-04-10T15:49:52Z</time></rtept><rtept lat="37.721553" lon="-107.61411"><ele>3034.6</ele><time>2026-04-10T15:49:52Z</time></rtept><rtept lat="37.721636" lon="-107.614255"><ele>3032.8</ele><time>2026-04-10T15:49:52Z</time></rtept><rtept lat="37.721654" lon="-107.614397"><ele>3034.0</ele><time>2026-04-10T15:49:52Z</time></rtept><rtept lat="37.721529" lon="-107.614769"><ele>3036.4</ele><time>2026-04-10T15:49:52Z</time></rtept><rtept lat="37.721283" lon="-107.61515"><ele>3015.8</ele><time>2026-04-10T15:49:52Z</time></rtept><rtept lat="37.721186" lon="-107.615649"><ele>3028.8</ele><time>2026-04-10T15:49:52Z</time></rtept><rtept lat="37.720961" lon="-107.615838"><ele>3026.2</ele><time>2026-04-10T15:49:52Z</time></rtept><rtept lat="37.720661" lon="-107.616353"><ele>3028.0</ele><time>2026-04-10T15:49:52Z</time></rtept><rtept lat="37.720465" lon="-107.616851"><ele>3025.0</ele><time>2026-04-10T15:49:52Z</time></rtept><rtept lat="37.720414" lon="-107.617109"><ele>3022.2</ele><time>2026-04-10T15:49:52Z</time></rtept><rtept lat="37.720347" lon="-107.617559"><ele>3017.2</ele><time>2026-04-10T15:49:52Z</time></rtept><rtept lat="37.720315" lon="-107.617893"><ele>3015.0</ele><time>2026-04-10T15:49:52Z</time></rtept><rtept lat="37.720306" lon="-107.618005"><ele>3014.8</ele><time>2026-04-10T15:49:52Z</time></rtept><rtept lat="37.720294" lon="-107.618169"><ele>3014.4</ele><time>2026-04-10T15:49:52Z</time></rtept><rtept lat="37.720353" lon="-107.618652"><ele>3012.8</ele><time>2026-04-10T15:49:52Z</time></rtept><rtept lat="37.720367" lon="-107.618869"><ele>3013.2</ele><time>2026-04-10T15:49:52Z</time></rtept><rtept lat="37.720445" lon="-107.619487"><ele>3007.8</ele><time>2026-04-10T15:49:52Z</time></rtept><rtept lat="37.720599" lon="-107.620162"><ele>2995.8</ele><time>2026-04-10T15:49:52Z</time></rtept><rtept lat="37.720592" lon="-107.620524"><ele>2986.0</ele><time>2026-04-10T15:49:52Z</time></rtept><rtept lat="37.720592" lon="-107.621117"><ele>2987.6</ele><time>2026-04-10T15:49:52Z</time></rtept><rtept lat="37.720599" lon="-107.621601"><ele>2981.6</ele><time>2026-04-10T15:49:52Z</time></rtept><rtept lat="37.720634" lon="-107.622126"><ele>2981.4</ele><time>2026-04-10T15:49:52Z</time></rtept><rtept lat="37.720776" lon="-107.622496"><ele>2987.0</ele><time>2026-04-10T15:49:52Z</time></rtept><rtept lat="37.72085" lon="-107.622882"><ele>2983.6</ele><time>2026-04-10T15:49:52Z</time></rtept><rtept lat="37.720911" lon="-107.623508"><ele>2972.4</ele><time>2026-04-10T15:49:52Z</time></rtept><rtept lat="37.721046" lon="-107.624041"><ele>2970.2</ele><time>2026-04-10T15:49:52Z</time></rtept><rtept lat="37.721052" lon="-107.624394"><ele>2954.8</ele><time>2026-04-10T15:49:52Z</time></rtept><rtept lat="37.721057" lon="-107.624808"><ele>2939.4</ele><time>2026-04-10T15:49:52Z</time></rtept><rtept lat="37.721113" lon="-107.625167"><ele>2932.0</ele><time>2026-04-10T15:49:52Z</time></rtept><rtept lat="37.721037" lon="-107.625378"><ele>2926.0</ele><time>2026-04-10T15:49:52Z</time></rtept><rtept lat="37.720981" lon="-107.625534"><ele>2924.0</ele><time>2026-04-10T15:49:52Z</time></rtept><rtept lat="37.720836" lon="-107.625428"><ele>2919.0</ele><time>2026-04-10T15:49:52Z</time></rtept><rtept lat="37.720684" lon="-107.625935"><ele>2906.6</ele><time>2026-04-10T15:49:52Z</time></rtept><rtept lat="37.720805" lon="-107.626711"><ele>2896.6</ele><time>2026-04-10T15:49:52Z</time></rtept><rtept lat="37.720834" lon="-107.627186"><ele>2886.6</ele><time>2026-04-10T15:49:52Z</time></rtept><rtept lat="37.720853" lon="-107.627492"><ele>2876.8</ele><time>2026-04-10T15:49:52Z</time></rtept><rtept lat="37.720994" lon="-107.62785"><ele>2876.2</ele><time>2026-04-10T15:49:52Z</time></rtept><rtept lat="37.720933" lon="-107.628289"><ele>2874.0</ele><time>2026-04-10T15:49:52Z</time></rtept><rtept lat="37.72092" lon="-107.628716"><ele>2871.8</ele><time>2026-04-10T15:49:52Z</time></rtept><rtept lat="37.720782" lon="-107.62878"><ele>2865.2</ele><time>2026-04-10T15:49:52Z</time></rtept><rtept lat="37.720793" lon="-107.628945"><ele>2863.6</ele><time>2026-04-10T15:49:52Z</time></rtept><rtept lat="37.720816" lon="-107.629278"><ele>2861.4</ele><time>2026-04-10T15:49:52Z</time></rtept><rtept lat="37.720832" lon="-107.629698"><ele>2860.4</ele><time>2026-04-10T15:49:52Z</time></rtept><rtept lat="37.721003" lon="-107.630267"><ele>2854.8</ele><time>2026-04-10T15:49:52Z</time></rtept><rtept lat="37.721165" lon="-107.630435"><ele>2856.4</ele><time>2026-04-10T15:49:52Z</time></rtept><rtept lat="37.721242" lon="-107.630717"><ele>2854.0</ele><time>2026-04-10T15:49:52Z</time></rtept><rtept lat="37.72127" lon="-107.630807"><ele>2852.4</ele><time>2026-04-10T15:49:52Z</time></rtept><rtept lat="37.721356" lon="-107.630998"><ele>2852.4</ele><time>2026-04-10T15:49:52Z</time></rtept><rtept lat="37.721433" lon="-107.631258"><ele>2851.4</ele><time>2026-04-10T15:49:52Z</time></rtept><rtept lat="37.721538" lon="-107.631468"><ele>2855.8</ele><time>2026-04-10T15:49:52Z</time></rtept><rtept lat="37.721591" lon="-107.631949"><ele>2851.0</ele><time>2026-04-10T15:49:52Z</time></rtept><rtept lat="37.721569" lon="-107.632456"><ele>2850.2</ele><time>2026-04-10T15:49:52Z</time></rtept><rtept lat="37.721641" lon="-107.632869"><ele>2851.8</ele><time>2026-04-10T15:49:52Z</time></rtept><rtept lat="37.721566" lon="-107.633351"><ele>2839.0</ele><time>2026-04-10T15:49:52Z</time></rtept><rtept lat="37.721686" lon="-107.633672"><ele>2842.8</ele><time>2026-04-10T15:49:52Z</time></rtept><rtept lat="37.721756" lon="-107.634111"><ele>2842.4</ele><time>2026-04-10T15:49:52Z</time></rtept><rtept lat="37.721789" lon="-107.634634"><ele>2840.8</ele><time>2026-04-10T15:49:52Z</time></rtept><rtept lat="37.721773" lon="-107.634929"><ele>2832.4</ele><time>2026-04-10T15:49:52Z</time></rtept><rtept lat="37.72187" lon="-107.635251"><ele>2836.8</ele><time>2026-04-10T15:49:52Z</time></rtept><rtept lat="37.721842" lon="-107.635614"><ele>2828.0</ele><time>2026-04-10T15:49:52Z</time></rtept><rtept lat="37.721996" lon="-107.635943"><ele>2831.8</ele><time>2026-04-10T15:49:52Z</time></rtept><rtept lat="37.722132" lon="-107.636068"><ele>2827.0</ele><time>2026-04-10T15:49:52Z</time></rtept><rtept lat="37.722422" lon="-107.636458"><ele>2831.8</ele><time>2026-04-10T15:49:52Z</time></rtept><rtept lat="37.722668" lon="-107.637551"><ele>2824.8</ele><time>2026-04-10T15:49:52Z</time></rtept><rtept lat="37.722853" lon="-107.637889"><ele>2823.6</ele><time>2026-04-10T15:49:52Z</time></rtept><rtept lat="37.72316" lon="-107.638286"><ele>2830.8</ele><time>2026-04-10T15:49:52Z</time></rtept><rtept lat="37.723363" lon="-107.638753"><ele>2820.0</ele><time>2026-04-10T15:49:52Z</time></rtept><rtept lat="37.723677" lon="-107.639154"><ele>2804.2</ele><time>2026-04-10T15:49:52Z</time></rtept><rtept lat="37.723694" lon="-107.63917"><ele>2804.6</ele><time>2026-04-10T15:49:52Z</time></rtept><rtept lat="37.72398" lon="-107.63943"><ele>2804.8</ele><time>2026-04-10T15:49:52Z</time></rtept><rtept lat="37.724105" lon="-107.639663"><ele>2804.0</ele><time>2026-04-10T15:49:52Z</time></rtept><rtept lat="37.724194" lon="-107.639828"><ele>2802.2</ele><time>2026-04-10T15:49:52Z</time></rtept><rtept lat="37.724223" lon="-107.640092"><ele>2799.4</ele><time>2026-04-10T15:49:52Z</time></rtept><rtept lat="37.724454" lon="-107.640289"><ele>2801.2</ele><time>2026-04-10T15:49:52Z</time></rtept><rtept lat="37.724625" lon="-107.640702"><ele>2797.0</ele><time>2026-04-10T15:49:52Z</time></rtept><rtept lat="37.724662" lon="-107.640951"><ele>2794.8</ele><time>2026-04-10T15:49:52Z</time></rtept><rtept lat="37.724927" lon="-107.64138"><ele>2794.0</ele><time>2026-04-10T15:49:52Z</time></rtept><rtept lat="37.725171" lon="-107.641761"><ele>2788.4</ele><time>2026-04-10T15:49:52Z</time></rtept><rtept lat="37.725192" lon="-107.641795"><ele>2788.4</ele><time>2026-04-10T15:49:52Z</time></rtept><rtept lat="37.725624" lon="-107.641938"><ele>2796.8</ele><time>2026-04-10T15:49:52Z</time></rtept><rtept lat="37.72571" lon="-107.642291"><ele>2785.6</ele><time>2026-04-10T15:49:52Z</time></rtept><rtept lat="37.725687" lon="-107.642503"><ele>2782.4</ele><time>2026-04-10T15:49:52Z</time></rtept><rtept lat="37.725884" lon="-107.642903"><ele>2779.6</ele><time>2026-04-10T15:49:52Z</time></rtept><rtept lat="37.726221" lon="-107.643327"><ele>2778.2</ele><time>2026-04-10T15:49:52Z</time></rtept><rtept lat="37.726499" lon="-107.644092"><ele>2777.0</ele><time>2026-04-10T15:49:52Z</time></rtept><rtept lat="37.726639" lon="-107.644268"><ele>2782.0</ele><time>2026-04-10T15:49:52Z</time></rtept><rtept lat="37.726727" lon="-107.644419"><ele>2786.0</ele><time>2026-04-10T15:49:52Z</time></rtept><rtept lat="37.726786" lon="-107.644616"><ele>2788.0</ele><time>2026-04-10T15:49:52Z</time></rtept><rtept lat="37.726905" lon="-107.644792"><ele>2785.8</ele><time>2026-04-10T15:49:52Z</time></rtept><rtept lat="37.72691" lon="-107.644912"><ele>2783.0</ele><time>2026-04-10T15:49:52Z</time></rtept><rtept lat="37.727059" lon="-107.645233"><ele>2796.6</ele><time>2026-04-10T15:49:52Z</time></rtept><rtept lat="37.727129" lon="-107.645531"><ele>2789.0</ele><time>2026-04-10T15:49:52Z</time></rtept><rtept lat="37.727141" lon="-107.645889"><ele>2787.0</ele><time>2026-04-10T15:49:52Z</time></rtept><rtept lat="37.727195" lon="-107.646249"><ele>2783.6</ele><time>2026-04-10T15:49:52Z</time></rtept><rtept lat="37.727276" lon="-107.646505"><ele>2782.4</ele><time>2026-04-10T15:49:52Z</time></rtept><rtept lat="37.727366" lon="-107.646983"><ele>2777.6</ele><time>2026-04-10T15:49:52Z</time></rtept><rtept lat="37.727427" lon="-107.647254"><ele>2790.6</ele><time>2026-04-10T15:49:52Z</time></rtept><rtept lat="37.727439" lon="-107.64746"><ele>2793.4</ele><time>2026-04-10T15:49:52Z</time></rtept><rtept lat="37.727254" lon="-107.647827"><ele>2787.2</ele><time>2026-04-10T15:49:52Z</time></rtept><rtept lat="37.727083" lon="-107.648175"><ele>2790.2</ele><time>2026-04-10T15:49:52Z</time></rtept><rtept lat="37.726951" lon="-107.648711"><ele>2790.2</ele><time>2026-04-10T15:49:52Z</time></rtept><rtept lat="37.726948" lon="-107.649038"><ele>2797.2</ele><time>2026-04-10T15:49:52Z</time></rtept><rtept lat="37.726878" lon="-107.649204"><ele>2797.2</ele><time>2026-04-10T15:49:52Z</time></rtept><rtept lat="37.726766" lon="-107.649528"><ele>2790.0</ele><time>2026-04-10T15:49:52Z</time></rtept><rtept lat="37.726581" lon="-107.649776"><ele>2795.8</ele><time>2026-04-10T15:49:52Z</time></rtept><rtept lat="37.726547" lon="-107.650049"><ele>2797.6</ele><time>2026-04-10T15:49:52Z</time></rtept><rtept lat="37.72641" lon="-107.650194"><ele>2794.0</ele><time>2026-04-10T15:49:52Z</time></rtept><rtept lat="37.726311" lon="-107.650378"><ele>2790.6</ele><time>2026-04-10T15:49:52Z</time></rtept><rtept lat="37.726347" lon="-107.650554"><ele>2785.4</ele><time>2026-04-10T15:49:52Z</time></rtept><rtept lat="37.726481" lon="-107.65084"><ele>2781.0</ele><time>2026-04-10T15:49:52Z</time></rtept><rtept lat="37.726576" lon="-107.651068"><ele>2781.0</ele><time>2026-04-10T15:49:52Z</time></rtept><rtept lat="37.726707" lon="-107.651274"><ele>2780.2</ele><time>2026-04-10T15:49:52Z</time></rtept><rtept lat="37.726878" lon="-107.651361"><ele>2779.0</ele><time>2026-04-10T15:49:52Z</time></rtept><rtept lat="37.727042" lon="-107.651533"><ele>2779.4</ele><time>2026-04-10T15:49:52Z</time></rtept><rtept lat="37.726996" lon="-107.651641"><ele>2776.8</ele><time>2026-04-10T15:49:52Z</time></rtept><rtept lat="37.726763" lon="-107.651712"><ele>2770.4</ele><time>2026-04-10T15:49:52Z</time></rtept><rtept lat="37.726251" lon="-107.652224"><ele>2753.2</ele><time>2026-04-10T15:49:52Z</time></rtept><rtept lat="37.726133" lon="-107.652438"><ele>2746.8</ele><time>2026-04-10T15:49:52Z</time></rtept><rtept lat="37.725995" lon="-107.65253"><ele>2740.8</ele><time>2026-04-10T15:49:52Z</time></rtept><rtept lat="37.725797" lon="-107.652519"><ele>2736.0</ele><time>2026-04-10T15:49:52Z</time></rtept><rtept lat="37.725547" lon="-107.652578"><ele>2726.0</ele><time>2026-04-10T15:49:52Z</time></rtept><rtept lat="37.725343" lon="-107.65258"><ele>2721.4</ele><time>2026-04-10T15:49:52Z</time></rtept><rtept lat="37.725163" lon="-107.652555"><ele>2717.8</ele><time>2026-04-10T15:49:52Z</time></rtept><rtept lat="37.725043" lon="-107.652605"><ele>2715.4</ele><time>2026-04-10T15:49:52Z</time></rtept><rtept lat="37.724941" lon="-107.652695"><ele>2708.8</ele><time>2026-04-10T15:49:52Z</time></rtept><rtept lat="37.724854" lon="-107.652771"><ele>2707.6</ele><time>2026-04-10T15:49:52Z</time></rtept><rtept lat="37.724773" lon="-107.652861"><ele>2707.4</ele><time>2026-04-10T15:49:52Z</time></rtept><rtept lat="37.724854" lon="-107.652771"><ele>2707.6</ele><time>2026-04-10T15:49:52Z</time></rtept><rtept lat="37.724941" lon="-107.652695"><ele>2708.8</ele><time>2026-04-10T15:49:52Z</time></rtept><rtept lat="37.725043" lon="-107.652605"><ele>2715.4</ele><time>2026-04-10T15:49:52Z</time></rtept><rtept lat="37.725163" lon="-107.652555"><ele>2717.8</ele><time>2026-04-10T15:49:52Z</time></rtept><rtept lat="37.725343" lon="-107.65258"><ele>2721.4</ele><time>2026-04-10T15:49:52Z</time></rtept><rtept lat="37.725547" lon="-107.652578"><ele>2726.0</ele><time>2026-04-10T15:49:52Z</time></rtept><rtept lat="37.725797" lon="-107.652519"><ele>2736.0</ele><time>2026-04-10T15:49:52Z</time></rtept><rtept lat="37.725995" lon="-107.65253"><ele>2740.8</ele><time>2026-04-10T15:49:52Z</time></rtept><rtept lat="37.726133" lon="-107.652438"><ele>2746.8</ele><time>2026-04-10T15:49:52Z</time></rtept><rtept lat="37.726251" lon="-107.652224"><ele>2753.2</ele><time>2026-04-10T15:49:52Z</time></rtept><rtept lat="37.726763" lon="-107.651712"><ele>2770.4</ele><time>2026-04-10T15:49:52Z</time></rtept><rtept lat="37.726996" lon="-107.651641"><ele>2776.8</ele><time>2026-04-10T15:49:52Z</time></rtept><rtept lat="37.726876" lon="-107.651855"><ele>2772.6</ele><time>2026-04-10T15:49:52Z</time></rtept><rtept lat="37.726842" lon="-107.65209"><ele>2769.2</ele><time>2026-04-10T15:49:52Z</time></rtept><rtept lat="37.726925" lon="-107.652361"><ele>2764.8</ele><time>2026-04-10T15:49:52Z</time></rtept><rtept lat="37.727088" lon="-107.652672"><ele>2765.2</ele><time>2026-04-10T15:49:52Z</time></rtept><rtept lat="37.727269" lon="-107.65298"><ele>2764.6</ele><time>2026-04-10T15:49:52Z</time></rtept><rtept lat="37.727459" lon="-107.653249"><ele>2760.4</ele><time>2026-04-10T15:49:52Z</time></rtept><rtept lat="37.727618" lon="-107.653435"><ele>2762.0</ele><time>2026-04-10T15:49:52Z</time></rtept><rtept lat="37.727751" lon="-107.653573"><ele>2761.0</ele><time>2026-04-10T15:49:52Z</time></rtept><rtept lat="37.727931" lon="-107.653733"><ele>2756.0</ele><time>2026-04-10T15:49:52Z</time></rtept><rtept lat="37.728044" lon="-107.653751"><ele>2760.2</ele><time>2026-04-10T15:49:52Z</time></rtept><rtept lat="37.728077" lon="-107.653862"><ele>2761.0</ele><time>2026-04-10T15:49:52Z</time></rtept><rtept lat="37.728088" lon="-107.653993"><ele>2761.8</ele><time>2026-04-10T15:49:52Z</time></rtept><rtept lat="37.728071" lon="-107.65409"><ele>2766.2</ele><time>2026-04-10T15:49:52Z</time></rtept><rtept lat="37.728008" lon="-107.654188"><ele>2762.6</ele><time>2026-04-10T15:49:52Z</time></rtept><rtept lat="37.728013" lon="-107.654239"><ele>2762.6</ele><time>2026-04-10T15:49:52Z</time></rtept><rtept lat="37.728161" lon="-107.654378"><ele>2762.0</ele><time>2026-04-10T15:49:52Z</time></rtept><rtept lat="37.72849" lon="-107.654668"><ele>2754.0</ele><time>2026-04-10T15:49:52Z</time></rtept><rtept lat="37.728782" lon="-107.654887"><ele>2759.2</ele><time>2026-04-10T15:49:52Z</time></rtept><rtept lat="37.729029" lon="-107.655137"><ele>2759.8</ele><time>2026-04-10T15:49:52Z</time></rtept><rtept lat="37.72914" lon="-107.655338"><ele>2759.0</ele><time>2026-04-10T15:49:52Z</time></rtept><rtept lat="37.729364" lon="-107.655452"><ele>2757.0</ele><time>2026-04-10T15:49:52Z</time></rtept><rtept lat="37.729406" lon="-107.655534"><ele>2756.8</ele><time>2026-04-10T15:49:52Z</time></rtept><rtept lat="37.729351" lon="-107.655641"><ele>2754.6</ele><time>2026-04-10T15:49:52Z</time></rtept><rtept lat="37.729541" lon="-107.655985"><ele>2761.2</ele><time>2026-04-10T15:49:52Z</time></rtept><rtept lat="37.729783" lon="-107.656239"><ele>2750.8</ele><time>2026-04-10T15:49:52Z</time></rtept><rtept lat="37.729929" lon="-107.656473"><ele>2754.6</ele><time>2026-04-10T15:49:52Z</time></rtept><rtept lat="37.730086" lon="-107.656632"><ele>2754.8</ele><time>2026-04-10T15:49:52Z</time></rtept><rtept lat="37.730246" lon="-107.656837"><ele>2750.2</ele><time>2026-04-10T15:49:52Z</time></rtept><rtept lat="37.730583" lon="-107.657129"><ele>2748.8</ele><time>2026-04-10T15:49:52Z</time></rtept><rtept lat="37.730686" lon="-107.657297"><ele>2751.4</ele><time>2026-04-10T15:49:52Z</time></rtept><rtept lat="37.730749" lon="-107.657386"><ele>2748.6</ele><time>2026-04-10T15:49:52Z</time></rtept><rtept lat="37.730937" lon="-107.657605"><ele>2741.6</ele><time>2026-04-10T15:49:52Z</time></rtept><rtept lat="37.731092" lon="-107.657813"><ele>2742.8</ele><time>2026-04-10T15:49:52Z</time></rtept><rtept lat="37.731222" lon="-107.657986"><ele>2745.6</ele><time>2026-04-10T15:49:52Z</time></rtept><rtept lat="37.731478" lon="-107.658303"><ele>2736.8</ele><time>2026-04-10T15:49:52Z</time></rtept><rtept lat="37.731696" lon="-107.658572"><ele>2741.0</ele><time>2026-04-10T15:49:52Z</time></rtept><rtept lat="37.731818" lon="-107.658738"><ele>2736.4</ele><time>2026-04-10T15:49:52Z</time></rtept><rtept lat="37.731956" lon="-107.658897"><ele>2735.6</ele><time>2026-04-10T15:49:52Z</time></rtept><rtept lat="37.732073" lon="-107.659052"><ele>2736.8</ele><time>2026-04-10T15:49:52Z</time></rtept><rtept lat="37.732087" lon="-107.659172"><ele>2729.2</ele><time>2026-04-10T15:49:52Z</time></rtept><rtept lat="37.732209" lon="-107.659326"><ele>2726.4</ele><time>2026-04-10T15:49:52Z</time></rtept><rtept lat="37.732088" lon="-107.659289"><ele>2724.0</ele><time>2026-04-10T15:49:52Z</time></rtept><rtept lat="37.732129" lon="-107.659391"><ele>2723.2</ele><time>2026-04-10T15:49:52Z</time></rtept><rtept lat="37.732039" lon="-107.659479"><ele>2718.8</ele><time>2026-04-10T15:49:52Z</time></rtept><rtept lat="37.732026" lon="-107.659527"><ele>2717.4</ele><time>2026-04-10T15:49:52Z</time></rtept><rtept lat="37.732294" lon="-107.659823"><ele>2718.0</ele><time>2026-04-10T15:49:52Z</time></rtept><rtept lat="37.732294" lon="-107.659823"><ele>2718.0</ele><time>2026-04-10T15:49:52Z</time></rtept><rtept lat="37.732334" lon="-107.659867"><ele>2718.0</ele><time>2026-04-10T15:49:52Z</time></rtept><rtept lat="37.732601" lon="-107.660096"><ele>2718.2</ele><time>2026-04-10T15:49:52Z</time></rtept><rtept lat="37.732638" lon="-107.660176"><ele>2718.2</ele><time>2026-04-10T15:49:52Z</time></rtept><rtept lat="37.73273" lon="-107.660256"><ele>2718.6</ele><time>2026-04-10T15:49:52Z</time></rtept><rtept lat="37.732875" lon="-107.660336"><ele>2718.8</ele><time>2026-04-10T15:49:52Z</time></rtept><rtept lat="37.733044" lon="-107.660473"><ele>2718.4</ele><time>2026-04-10T15:49:52Z</time></rtept><rtept lat="37.733374" lon="-107.660641"><ele>2718.4</ele><time>2026-04-10T15:49:52Z</time></rtept><rtept lat="37.733476" lon="-107.66096"><ele>2718.0</ele><time>2026-04-10T15:49:52Z</time></rtept><rtept lat="37.733563" lon="-107.661237"><ele>2719.4</ele><time>2026-04-10T15:49:52Z</time></rtept><rtept lat="37.733597" lon="-107.661336"><ele>2722.0</ele><time>2026-04-10T15:49:52Z</time></rtept><rtept lat="37.734382" lon="-107.661625"><ele>2735.8</ele><time>2026-04-10T15:49:52Z</time></rtept><rtept lat="37.734899" lon="-107.661631"><ele>2734.0</ele><time>2026-04-10T15:49:52Z</time></rtept><rtept lat="37.735012" lon="-107.661554"><ele>2732.4</ele><time>2026-04-10T15:49:52Z</time></rtept><rtept lat="37.735132" lon="-107.66153"><ele>2728.0</ele><time>2026-04-10T15:49:52Z</time></rtept><rtept lat="37.735242" lon="-107.661508"><ele>2734.4</ele><time>2026-04-10T15:49:52Z</time></rtept><rtept lat="37.735295" lon="-107.661593"><ele>2739.8</ele><time>2026-04-10T15:49:52Z</time></rtept><rtept lat="37.735349" lon="-107.661765"><ele>2742.2</ele><time>2026-04-10T15:49:52Z</time></rtept><rtept lat="37.735499" lon="-107.662024"><ele>2753.4</ele><time>2026-04-10T15:49:52Z</time></rtept><rtept lat="37.735639" lon="-107.662198"><ele>2756.4</ele><time>2026-04-10T15:49:52Z</time></rtept><rtept lat="37.735698" lon="-107.662492"><ele>2752.6</ele><time>2026-04-10T15:49:52Z</time></rtept><rtept lat="37.73574" lon="-107.662761"><ele>2753.6</ele><time>2026-04-10T15:49:52Z</time></rtept><rtept lat="37.735796" lon="-107.662811"><ele>2757.4</ele><time>2026-04-10T15:49:52Z</time></rtept><rtept lat="37.735831" lon="-107.662818"><ele>2757.4</ele><time>2026-04-10T15:49:52Z</time></rtept><rtept lat="37.735849" lon="-107.662765"><ele>2760.4</ele><time>2026-04-10T15:49:52Z</time></rtept><rtept lat="37.73585" lon="-107.662722"><ele>2758.4</ele><time>2026-04-10T15:49:52Z</time></rtept><rtept lat="37.735866" lon="-107.662683"><ele>2758.4</ele><time>2026-04-10T15:49:52Z</time></rtept><rtept lat="37.735914" lon="-107.662633"><ele>2757.4</ele><time>2026-04-10T15:49:52Z</time></rtept><rtept lat="37.735994" lon="-107.662634"><ele>2759.6</ele><time>2026-04-10T15:49:52Z</time></rtept><rtept lat="37.736047" lon="-107.662713"><ele>2766.6</ele><time>2026-04-10T15:49:52Z</time></rtept><rtept lat="37.736042" lon="-107.662756"><ele>2770.2</ele><time>2026-04-10T15:49:52Z</time></rtept><rtept lat="37.736051" lon="-107.662766"><ele>2770.2</ele><time>2026-04-10T15:49:52Z</time></rtept><rtept lat="37.736039" lon="-107.662794"><ele>2770.2</ele><time>2026-04-10T15:49:52Z</time></rtept><rtept lat="37.73603" lon="-107.662837"><ele>2766.6</ele><time>2026-04-10T15:49:52Z</time></rtept><rtept lat="37.736019" lon="-107.662892"><ele>2769.0</ele><time>2026-04-10T15:49:52Z</time></rtept><rtept lat="37.736003" lon="-107.662916"><ele>2769.0</ele><time>2026-04-10T15:49:52Z</time></rtept><rtept lat="37.735987" lon="-107.662946"><ele>2770.4</ele><time>2026-04-10T15:49:52Z</time></rtept><rtept lat="37.73598" lon="-107.662971"><ele>2770.4</ele><time>2026-04-10T15:49:52Z</time></rtept><rtept lat="37.735991" lon="-107.662987"><ele>2770.4</ele><time>2026-04-10T15:49:52Z</time></rtept><rtept lat="37.736003" lon="-107.662977"><ele>2770.4</ele><time>2026-04-10T15:49:52Z</time></rtept><rtept lat="37.736014" lon="-107.662959"><ele>2770.4</ele><time>2026-04-10T15:49:52Z</time></rtept><rtept lat="37.736032" lon="-107.662943"><ele>2770.4</ele><time>2026-04-10T15:49:52Z</time></rtept><rtept lat="37.736067" lon="-107.662797"><ele>2770.2</ele><time>2026-04-10T15:49:52Z</time></rtept><rtept lat="37.736121" lon="-107.662891"><ele>2777.6</ele><time>2026-04-10T15:49:52Z</time></rtept><rtept lat="37.736098" lon="-107.663093"><ele>2775.4</ele><time>2026-04-10T15:49:52Z</time></rtept><rtept lat="37.736181" lon="-107.663084"><ele>2783.6</ele><time>2026-04-10T15:49:52Z</time></rtept><rtept lat="37.736219" lon="-107.662885"><ele>2781.6</ele><time>2026-04-10T15:49:52Z</time></rtept><rtept lat="37.736317" lon="-107.663125"><ele>2791.8</ele><time>2026-04-10T15:49:52Z</time></rtept><rtept lat="37.736375" lon="-107.662966"><ele>2789.2</ele><time>2026-04-10T15:49:52Z</time></rtept><rtept lat="37.73641" lon="-107.663083"><ele>2794.2</ele><time>2026-04-10T15:49:52Z</time></rtept><rtept lat="37.736381" lon="-107.663221"><ele>2796.6</ele><time>2026-04-10T15:49:52Z</time></rtept><rtept lat="37.736412" lon="-107.663281"><ele>2797.0</ele><time>2026-04-10T15:49:52Z</time></rtept><rtept lat="37.736524" lon="-107.662881"><ele>2795.0</ele><time>2026-04-10T15:49:52Z</time></rtept><rtept lat="37.736748" lon="-107.662722"><ele>2793.0</ele><time>2026-04-10T15:49:52Z</time></rtept><rtept lat="37.737035" lon="-107.662728"><ele>2797.4</ele><time>2026-04-10T15:49:52Z</time></rtept><rtept lat="37.737179" lon="-107.662773"><ele>2804.4</ele><time>2026-04-10T15:49:52Z</time></rtept><rtept lat="37.737513" lon="-107.662828"><ele>2812.2</ele><time>2026-04-10T15:49:52Z</time></rtept><rtept lat="37.737511" lon="-107.662915"><ele>2816.8</ele><time>2026-04-10T15:49:52Z</time></rtept><rtept lat="37.737363" lon="-107.663014"><ele>2821.4</ele><time>2026-04-10T15:49:52Z</time></rtept><rtept lat="37.737386" lon="-107.663104"><ele>2824.4</ele><time>2026-04-10T15:49:52Z</time></rtept><rtept lat="37.737702" lon="-107.663058"><ele>2826.2</ele><time>2026-04-10T15:49:52Z</time></rtept><rtept lat="37.737534" lon="-107.66326"><ele>2829.6</ele><time>2026-04-10T15:49:52Z</time></rtept><rtept lat="37.73712" lon="-107.663444"><ele>2834.8</ele><time>2026-04-10T15:49:52Z</time></rtept><rtept lat="37.73703" lon="-107.663557"><ele>2835.2</ele><time>2026-04-10T15:49:52Z</time></rtept><rtept lat="37.737386" lon="-107.663486"><ele>2840.6</ele><time>2026-04-10T15:49:52Z</time></rtept><rtept lat="37.737767" lon="-107.663451"><ele>2849.0</ele><time>2026-04-10T15:49:52Z</time></rtept><rtept lat="37.737887" lon="-107.663532"><ele>2854.8</ele><time>2026-04-10T15:49:52Z</time></rtept><rtept lat="37.738031" lon="-107.663494"><ele>2851.8</ele><time>2026-04-10T15:49:52Z</time></rtept><rtept lat="37.738092" lon="-107.663529"><ele>2856.2</ele><time>2026-04-10T15:49:52Z</time></rtept><rtept lat="37.737901" lon="-107.663621"><ele>2858.8</ele><time>2026-04-10T15:49:52Z</time></rtept><rtept lat="37.737791" lon="-107.663671"><ele>2857.4</ele><time>2026-04-10T15:49:52Z</time></rtept><rtept lat="37.737861" lon="-107.663736"><ele>2862.4</ele><time>2026-04-10T15:49:52Z</time></rtept><rtept lat="37.738029" lon="-107.663736"><ele>2863.4</ele><time>2026-04-10T15:49:52Z</time></rtept><rtept lat="37.73806" lon="-107.663759"><ele>2863.4</ele><time>2026-04-10T15:49:52Z</time></rtept><rtept lat="37.737917" lon="-107.663806"><ele>2866.2</ele><time>2026-04-10T15:49:52Z</time></rtept><rtept lat="37.737869" lon="-107.663859"><ele>2866.0</ele><time>2026-04-10T15:49:52Z</time></rtept><rtept lat="37.737856" lon="-107.6639"><ele>2868.6</ele><time>2026-04-10T15:49:52Z</time></rtept><rtept lat="37.737869" lon="-107.66391"><ele>2868.6</ele><time>2026-04-10T15:49:52Z</time></rtept><rtept lat="37.737892" lon="-107.66391"><ele>2869.0</ele><time>2026-04-10T15:49:52Z</time></rtept><rtept lat="37.737924" lon="-107.663906"><ele>2869.0</ele><time>2026-04-10T15:49:52Z</time></rtept><rtept lat="37.737969" lon="-107.663898"><ele>2869.4</ele><time>2026-04-10T15:49:52Z</time></rtept><rtept lat="37.738019" lon="-107.663918"><ele>2869.6</ele><time>2026-04-10T15:49:52Z</time></rtept><rtept lat="37.738223" lon="-107.664014"><ele>2872.6</ele><time>2026-04-10T15:49:52Z</time></rtept><rtept lat="37.738558" lon="-107.664279"><ele>2872.0</ele><time>2026-04-10T15:49:52Z</time></rtept><rtept lat="37.738688" lon="-107.664594"><ele>2891.4</ele><time>2026-04-10T15:49:52Z</time></rtept><rtept lat="37.738784" lon="-107.664737"><ele>2898.6</ele><time>2026-04-10T15:49:52Z</time></rtept><rtept lat="37.739006" lon="-107.664848"><ele>2900.6</ele><time>2026-04-10T15:49:52Z</time></rtept><rtept lat="37.739391" lon="-107.665074"><ele>2903.2</ele><time>2026-04-10T15:49:52Z</time></rtept><rtept lat="37.739453" lon="-107.665145"><ele>2907.2</ele><time>2026-04-10T15:49:52Z</time></rtept><rtept lat="37.739352" lon="-107.665168"><ele>2909.8</ele><time>2026-04-10T15:49:52Z</time></rtept><rtept lat="37.739102" lon="-107.665176"><ele>2914.6</ele><time>2026-04-10T15:49:52Z</time></rtept><rtept lat="37.739055" lon="-107.665149"><ele>2911.4</ele><time>2026-04-10T15:49:52Z</time></rtept><rtept lat="37.738998" lon="-107.665123"><ele>2912.2</ele><time>2026-04-10T15:49:52Z</time></rtept><rtept lat="37.738958" lon="-107.665104"><ele>2912.2</ele><time>2026-04-10T15:49:52Z</time></rtept><rtept lat="37.738913" lon="-107.665144"><ele>2912.2</ele><time>2026-04-10T15:49:52Z</time></rtept><rtept lat="37.738896" lon="-107.6652"><ele>2915.2</ele><time>2026-04-10T15:49:52Z</time></rtept><rtept lat="37.738913" lon="-107.665281"><ele>2916.8</ele><time>2026-04-10T15:49:52Z</time></rtept><rtept lat="37.738949" lon="-107.665321"><ele>2916.8</ele><time>2026-04-10T15:49:52Z</time></rtept><rtept lat="37.738995" lon="-107.665486"><ele>2919.2</ele><time>2026-04-10T15:49:52Z</time></rtept><rtept lat="37.739097" lon="-107.665762"><ele>2929.6</ele><time>2026-04-10T15:49:52Z</time></rtept><rtept lat="37.739191" lon="-107.666081"><ele>2935.4</ele><time>2026-04-10T15:49:52Z</time></rtept><rtept lat="37.739241" lon="-107.666417"><ele>2942.6</ele><time>2026-04-10T15:49:52Z</time></rtept><rtept lat="37.739219" lon="-107.666778"><ele>2939.4</ele><time>2026-04-10T15:49:52Z</time></rtept><rtept lat="37.739099" lon="-107.667157"><ele>2936.0</ele><time>2026-04-10T15:49:52Z</time></rtept><rtept lat="37.739281" lon="-107.666916"><ele>2946.0</ele><time>2026-04-10T15:49:52Z</time></rtept><rtept lat="37.739351" lon="-107.666753"><ele>2951.4</ele><time>2026-04-10T15:49:52Z</time></rtept><rtept lat="37.739404" lon="-107.66647"><ele>2956.0</ele><time>2026-04-10T15:49:52Z</time></rtept><rtept lat="37.739466" lon="-107.665982"><ele>2953.6</ele><time>2026-04-10T15:49:52Z</time></rtept><rtept lat="37.739524" lon="-107.665815"><ele>2944.4</ele><time>2026-04-10T15:49:52Z</time></rtept><rtept lat="37.739719" lon="-107.665903"><ele>2946.2</ele><time>2026-04-10T15:49:52Z</time></rtept><rtept lat="37.739815" lon="-107.665978"><ele>2950.2</ele><time>2026-04-10T15:49:52Z</time></rtept><rtept lat="37.739626" lon="-107.666013"><ele>2954.2</ele><time>2026-04-10T15:49:52Z</time></rtept><rtept lat="37.739605" lon="-107.666268"><ele>2966.2</ele><time>2026-04-10T15:49:52Z</time></rtept><rtept lat="37.739622" lon="-107.666534"><ele>2972.2</ele><time>2026-04-10T15:49:52Z</time></rtept><rtept lat="37.739561" lon="-107.666987"><ele>2971.6</ele><time>2026-04-10T15:49:52Z</time></rtept><rtept lat="37.739532" lon="-107.667168"><ele>2972.0</ele><time>2026-04-10T15:49:52Z</time></rtept><rtept lat="37.739523" lon="-107.667266"><ele>2971.8</ele><time>2026-04-10T15:49:52Z</time></rtept><rtept lat="37.739533" lon="-107.667306"><ele>2971.2</ele><time>2026-04-10T15:49:52Z</time></rtept><rtept lat="37.739553" lon="-107.667311"><ele>2971.2</ele><time>2026-04-10T15:49:52Z</time></rtept><rtept lat="37.739578" lon="-107.667267"><ele>2976.8</ele><time>2026-04-10T15:49:52Z</time></rtept><rtept lat="37.739611" lon="-107.667167"><ele>2977.2</ele><time>2026-04-10T15:49:52Z</time></rtept><rtept lat="37.739678" lon="-107.666965"><ele>2982.4</ele><time>2026-04-10T15:49:52Z</time></rtept><rtept lat="37.739759" lon="-107.666633"><ele>2982.0</ele><time>2026-04-10T15:49:52Z</time></rtept><rtept lat="37.739793" lon="-107.666515"><ele>2979.8</ele><time>2026-04-10T15:49:52Z</time></rtept><rtept lat="37.739808" lon="-107.666466"><ele>2979.8</ele><time>2026-04-10T15:49:52Z</time></rtept><rtept lat="37.739834" lon="-107.666477"><ele>2979.8</ele><time>2026-04-10T15:49:52Z</time></rtept><rtept lat="37.739842" lon="-107.666514"><ele>2981.0</ele><time>2026-04-10T15:49:52Z</time></rtept><rtept lat="37.739832" lon="-107.666673"><ele>2985.0</ele><time>2026-04-10T15:49:52Z</time></rtept><rtept lat="37.739776" lon="-107.667004"><ele>2992.2</ele><time>2026-04-10T15:49:52Z</time></rtept><rtept lat="37.73977" lon="-107.667379"><ele>2986.6</ele><time>2026-04-10T15:49:52Z</time></rtept><rtept lat="37.739771" lon="-107.667489"><ele>2990.2</ele><time>2026-04-10T15:49:52Z</time></rtept><rtept lat="37.739766" lon="-107.667586"><ele>2983.0</ele><time>2026-04-10T15:49:52Z</time></rtept><rtept lat="37.739777" lon="-107.667742"><ele>2985.4</ele><time>2026-04-10T15:49:52Z</time></rtept><rtept lat="37.739806" lon="-107.667787"><ele>2985.4</ele><time>2026-04-10T15:49:52Z</time></rtept><rtept lat="37.73984" lon="-107.667789"><ele>2990.8</ele><time>2026-04-10T15:49:52Z</time></rtept><rtept lat="37.739865" lon="-107.667747"><ele>2990.8</ele><time>2026-04-10T15:49:52Z</time></rtept><rtept lat="37.739874" lon="-107.667673"><ele>2992.8</ele><time>2026-04-10T15:49:52Z</time></rtept><rtept lat="37.73988" lon="-107.667433"><ele>2998.0</ele><time>2026-04-10T15:49:52Z</time></rtept><rtept lat="37.73988" lon="-107.667302"><ele>2998.6</ele><time>2026-04-10T15:49:52Z</time></rtept><rtept lat="37.73993" lon="-107.667026"><ele>3001.2</ele><time>2026-04-10T15:49:52Z</time></rtept><rtept lat="37.740029" lon="-107.666801"><ele>3001.0</ele><time>2026-04-10T15:49:52Z</time></rtept><rtept lat="37.740426" lon="-107.666717"><ele>3005.6</ele><time>2026-04-10T15:49:52Z</time></rtept><rtept lat="37.740432" lon="-107.666807"><ele>3011.6</ele><time>2026-04-10T15:49:52Z</time></rtept><rtept lat="37.740179" lon="-107.666891"><ele>3011.4</ele><time>2026-04-10T15:49:52Z</time></rtept><rtept lat="37.740064" lon="-107.66705"><ele>3011.6</ele><time>2026-04-10T15:49:52Z</time></rtept><rtept lat="37.740078" lon="-107.667256"><ele>3013.4</ele><time>2026-04-10T15:49:52Z</time></rtept><rtept lat="37.740157" lon="-107.667521"><ele>3017.2</ele><time>2026-04-10T15:49:52Z</time></rtept><rtept lat="37.740249" lon="-107.667765"><ele>3024.0</ele><time>2026-04-10T15:49:52Z</time></rtept><rtept lat="37.740238" lon="-107.668101"><ele>3016.0</ele><time>2026-04-10T15:49:52Z</time></rtept><rtept lat="37.74033" lon="-107.668293"><ele>3022.8</ele><time>2026-04-10T15:49:52Z</time></rtept><rtept lat="37.740493" lon="-107.668547"><ele>3024.6</ele><time>2026-04-10T15:49:52Z</time></rtept><rtept lat="37.740565" lon="-107.668795"><ele>3031.6</ele><time>2026-04-10T15:49:52Z</time></rtept><rtept lat="37.740548" lon="-107.668944"><ele>3034.0</ele><time>2026-04-10T15:49:52Z</time></rtept><rtept lat="37.740512" lon="-107.669385"><ele>3033.6</ele><time>2026-04-10T15:49:52Z</time></rtept><rtept lat="37.740508" lon="-107.669426"><ele>3033.6</ele><time>2026-04-10T15:49:52Z</time></rtept><rtept lat="37.740519" lon="-107.66945"><ele>3039.8</ele><time>2026-04-10T15:49:52Z</time></rtept><rtept lat="37.740529" lon="-107.669452"><ele>3039.8</ele><time>2026-04-10T15:49:52Z</time></rtept><rtept lat="37.740549" lon="-107.669433"><ele>3038.4</ele><time>2026-04-10T15:49:52Z</time></rtept><rtept lat="37.74064" lon="-107.669107"><ele>3040.0</ele><time>2026-04-10T15:49:52Z</time></rtept><rtept lat="37.740648" lon="-107.669068"><ele>3039.4</ele><time>2026-04-10T15:49:52Z</time></rtept><rtept lat="37.740664" lon="-107.669059"><ele>3042.8</ele><time>2026-04-10T15:49:52Z</time></rtept><rtept lat="37.740675" lon="-107.669073"><ele>3042.8</ele><time>2026-04-10T15:49:52Z</time></rtept><rtept lat="37.740673" lon="-107.669119"><ele>3043.2</ele><time>2026-04-10T15:49:52Z</time></rtept><rtept lat="37.740631" lon="-107.669419"><ele>3042.6</ele><time>2026-04-10T15:49:52Z</time></rtept><rtept lat="37.740612" lon="-107.669584"><ele>3047.4</ele><time>2026-04-10T15:49:52Z</time></rtept><rtept lat="37.740585" lon="-107.669621"><ele>3051.0</ele><time>2026-04-10T15:49:52Z</time></rtept><rtept lat="37.740569" lon="-107.669672"><ele>3046.0</ele><time>2026-04-10T15:49:52Z</time></rtept><rtept lat="37.740571" lon="-107.6697"><ele>3046.0</ele><time>2026-04-10T15:49:52Z</time></rtept><rtept lat="37.740588" lon="-107.669705"><ele>3051.0</ele><time>2026-04-10T15:49:52Z</time></rtept><rtept lat="37.740618" lon="-107.669661"><ele>3051.0</ele><time>2026-04-10T15:49:52Z</time></rtept><rtept lat="37.740636" lon="-107.669635"><ele>3051.0</ele><time>2026-04-10T15:49:52Z</time></rtept><rtept lat="37.7407" lon="-107.669478"><ele>3049.2</ele><time>2026-04-10T15:49:52Z</time></rtept><rtept lat="37.740744" lon="-107.669369"><ele>3051.6</ele><time>2026-04-10T15:49:52Z</time></rtept><rtept lat="37.74079" lon="-107.669241"><ele>3056.2</ele><time>2026-04-10T15:49:52Z</time></rtept><rtept lat="37.74082" lon="-107.66912"><ele>3055.4</ele><time>2026-04-10T15:49:52Z</time></rtept><rtept lat="37.74091" lon="-107.66884"><ele>3060.6</ele><time>2026-04-10T15:49:52Z</time></rtept><rtept lat="37.740912" lon="-107.668736"><ele>3059.6</ele><time>2026-04-10T15:49:52Z</time></rtept><rtept lat="37.740928" lon="-107.668625"><ele>3064.4</ele><time>2026-04-10T15:49:52Z</time></rtept><rtept lat="37.740947" lon="-107.668511"><ele>3063.0</ele><time>2026-04-10T15:49:52Z</time></rtept><rtept lat="37.74095" lon="-107.668404"><ele>3061.0</ele><time>2026-04-10T15:49:52Z</time></rtept><rtept lat="37.740967" lon="-107.668361"><ele>3061.0</ele><time>2026-04-10T15:49:52Z</time></rtept><rtept lat="37.740996" lon="-107.66833"><ele>3063.4</ele><time>2026-04-10T15:49:52Z</time></rtept><rtept lat="37.740995" lon="-107.668282"><ele>3063.4</ele><time>2026-04-10T15:49:52Z</time></rtept><rtept lat="37.740977" lon="-107.668243"><ele>3059.4</ele><time>2026-04-10T15:49:52Z</time></rtept><rtept lat="37.740961" lon="-107.668208"><ele>3059.4</ele><time>2026-04-10T15:49:52Z</time></rtept><rtept lat="37.740978" lon="-107.668178"><ele>3059.4</ele><time>2026-04-10T15:49:52Z</time></rtept><rtept lat="37.741021" lon="-107.668131"><ele>3061.6</ele><time>2026-04-10T15:49:52Z</time></rtept><rtept lat="37.741082" lon="-107.66809"><ele>3064.4</ele><time>2026-04-10T15:49:52Z</time></rtept><rtept lat="37.741221" lon="-107.667981"><ele>3068.6</ele><time>2026-04-10T15:49:52Z</time></rtept><rtept lat="37.741509" lon="-107.667595"><ele>3074.0</ele><time>2026-04-10T15:49:52Z</time></rtept><rtept lat="37.741577" lon="-107.667445"><ele>3074.4</ele><time>2026-04-10T15:49:52Z</time></rtept><rtept lat="37.741768" lon="-107.667166"><ele>3078.0</ele><time>2026-04-10T15:49:52Z</time></rtept><rtept lat="37.741883" lon="-107.66705"><ele>3081.6</ele><time>2026-04-10T15:49:52Z</time></rtept><rtept lat="37.741913" lon="-107.667004"><ele>3079.8</ele><time>2026-04-10T15:49:52Z</time></rtept><rtept lat="37.741938" lon="-107.666987"><ele>3079.8</ele><time>2026-04-10T15:49:52Z</time></rtept><rtept lat="37.741953" lon="-107.666999"><ele>3083.0</ele><time>2026-04-10T15:49:52Z</time></rtept><rtept lat="37.741954" lon="-107.667028"><ele>3083.0</ele><time>2026-04-10T15:49:52Z</time></rtept><rtept lat="37.74188" lon="-107.667443"><ele>3087.6</ele><time>2026-04-10T15:49:52Z</time></rtept><rtept lat="37.741812" lon="-107.667751"><ele>3089.2</ele><time>2026-04-10T15:49:52Z</time></rtept><rtept lat="37.741683" lon="-107.667906"><ele>3085.8</ele><time>2026-04-10T15:49:52Z</time></rtept><rtept lat="37.741567" lon="-107.668137"><ele>3082.6</ele><time>2026-04-10T15:49:52Z</time></rtept><rtept lat="37.74154" lon="-107.668203"><ele>3083.4</ele><time>2026-04-10T15:49:52Z</time></rtept><rtept lat="37.741548" lon="-107.66825"><ele>3084.4</ele><time>2026-04-10T15:49:52Z</time></rtept><rtept lat="37.741561" lon="-107.668305"><ele>3084.4</ele><time>2026-04-10T15:49:52Z</time></rtept><rtept lat="37.741611" lon="-107.668388"><ele>3088.2</ele><time>2026-04-10T15:49:52Z</time></rtept><rtept lat="37.741645" lon="-107.668523"><ele>3090.2</ele><time>2026-04-10T15:49:52Z</time></rtept><rtept lat="37.741696" lon="-107.668893"><ele>3095.0</ele><time>2026-04-10T15:49:52Z</time></rtept><rtept lat="37.741721" lon="-107.66906"><ele>3093.8</ele><time>2026-04-10T15:49:52Z</time></rtept><rtept lat="37.741742" lon="-107.669194"><ele>3096.6</ele><time>2026-04-10T15:49:52Z</time></rtept><rtept lat="37.741739" lon="-107.669271"><ele>3096.6</ele><time>2026-04-10T15:49:52Z</time></rtept><rtept lat="37.741681" lon="-107.669387"><ele>3097.6</ele><time>2026-04-10T15:49:52Z</time></rtept><rtept lat="37.741617" lon="-107.669462"><ele>3096.6</ele><time>2026-04-10T15:49:52Z</time></rtept><rtept lat="37.741586" lon="-107.669511"><ele>3095.0</ele><time>2026-04-10T15:49:52Z</time></rtept><rtept lat="37.741622" lon="-107.669539"><ele>3098.0</ele><time>2026-04-10T15:49:52Z</time></rtept><rtept lat="37.741671" lon="-107.669551"><ele>3101.6</ele><time>2026-04-10T15:49:52Z</time></rtept><rtept lat="37.741753" lon="-107.66954"><ele>3106.0</ele><time>2026-04-10T15:49:52Z</time></rtept><rtept lat="37.741831" lon="-107.669519"><ele>3107.0</ele><time>2026-04-10T15:49:52Z</time></rtept><rtept lat="37.742082" lon="-107.669344"><ele>3114.4</ele><time>2026-04-10T15:49:52Z</time></rtept><rtept lat="37.742161" lon="-107.669268"><ele>3115.8</ele><time>2026-04-10T15:49:52Z</time></rtept><rtept lat="37.742183" lon="-107.669233"><ele>3115.8</ele><time>2026-04-10T15:49:52Z</time></rtept><rtept lat="37.742206" lon="-107.669214"><ele>3115.8</ele><time>2026-04-10T15:49:52Z</time></rtept><rtept lat="37.742217" lon="-107.669228"><ele>3118.8</ele><time>2026-04-10T15:49:52Z</time></rtept><rtept lat="37.742215" lon="-107.669271"><ele>3118.8</ele><time>2026-04-10T15:49:52Z</time></rtept><rtept lat="37.742213" lon="-107.66936"><ele>3117.6</ele><time>2026-04-10T15:49:52Z</time></rtept><rtept lat="37.742191" lon="-107.669721"><ele>3124.8</ele><time>2026-04-10T15:49:52Z</time></rtept><rtept lat="37.742188" lon="-107.669818"><ele>3125.6</ele><time>2026-04-10T15:49:52Z</time></rtept><rtept lat="37.742154" lon="-107.669837"><ele>3125.6</ele><time>2026-04-10T15:49:52Z</time></rtept><rtept lat="37.742087" lon="-107.669901"><ele>3124.8</ele><time>2026-04-10T15:49:52Z</time></rtept><rtept lat="37.742041" lon="-107.669985"><ele>3124.0</ele><time>2026-04-10T15:49:52Z</time></rtept><rtept lat="37.741996" lon="-107.670034"><ele>3122.2</ele><time>2026-04-10T15:49:52Z</time></rtept><rtept lat="37.741973" lon="-107.670063"><ele>3123.2</ele><time>2026-04-10T15:49:52Z</time></rtept><rtept lat="37.741973" lon="-107.670091"><ele>3123.2</ele><time>2026-04-10T15:49:52Z</time></rtept><rtept lat="37.741993" lon="-107.670101"><ele>3123.2</ele><time>2026-04-10T15:49:52Z</time></rtept><rtept lat="37.742021" lon="-107.67009"><ele>3125.0</ele><time>2026-04-10T15:49:52Z</time></rtept><rtept lat="37.742053" lon="-107.670085"><ele>3125.0</ele><time>2026-04-10T15:49:52Z</time></rtept><rtept lat="37.742099" lon="-107.67009"><ele>3126.8</ele><time>2026-04-10T15:49:52Z</time></rtept><rtept lat="37.742258" lon="-107.67012"><ele>3129.6</ele><time>2026-04-10T15:49:52Z</time></rtept><rtept lat="37.742394" lon="-107.670157"><ele>3132.0</ele><time>2026-04-10T15:49:52Z</time></rtept><rtept lat="37.742544" lon="-107.670229"><ele>3134.4</ele><time>2026-04-10T15:49:52Z</time></rtept><rtept lat="37.742629" lon="-107.670299"><ele>3137.0</ele><time>2026-04-10T15:49:52Z</time></rtept><rtept lat="37.742643" lon="-107.670338"><ele>3137.4</ele><time>2026-04-10T15:49:52Z</time></rtept><rtept lat="37.74264" lon="-107.67038"><ele>3137.4</ele><time>2026-04-10T15:49:52Z</time></rtept><rtept lat="37.742477" lon="-107.670694"><ele>3139.8</ele><time>2026-04-10T15:49:52Z</time></rtept><rtept lat="37.742477" lon="-107.670693"><ele>3139.8</ele><time>2026-04-10T15:49:52Z</time></rtept><rtept lat="37.742477" lon="-107.670694"><ele>3139.8</ele><time>2026-04-10T15:49:52Z</time></rtept><rtept lat="37.742621" lon="-107.670889"><ele>3144.6</ele><time>2026-04-10T15:49:52Z</time></rtept><rtept lat="37.742675" lon="-107.671057"><ele>3150.2</ele><time>2026-04-10T15:49:52Z</time></rtept><rtept lat="37.742685" lon="-107.671131"><ele>3155.8</ele><time>2026-04-10T15:49:52Z</time></rtept><rtept lat="37.742666" lon="-107.671182"><ele>3159.2</ele><time>2026-04-10T15:49:52Z</time></rtept><rtept lat="37.74261" lon="-107.671282"><ele>3159.0</ele><time>2026-04-10T15:49:52Z</time></rtept><rtept lat="37.742555" lon="-107.671369"><ele>3159.0</ele><time>2026-04-10T15:49:52Z</time></rtept><rtept lat="37.742465" lon="-107.671457"><ele>3154.8</ele><time>2026-04-10T15:49:52Z</time></rtept><rtept lat="37.742354" lon="-107.671527"><ele>3154.8</ele><time>2026-04-10T15:49:52Z</time></rtept><rtept lat="37.742256" lon="-107.671715"><ele>3157.0</ele><time>2026-04-10T15:49:52Z</time></rtept><rtept lat="37.742163" lon="-107.67194"><ele>3158.0</ele><time>2026-04-10T15:49:52Z</time></rtept><rtept lat="37.74204" lon="-107.672128"><ele>3156.2</ele><time>2026-04-10T15:49:52Z</time></rtept><rtept lat="37.741937" lon="-107.672335"><ele>3153.6</ele><time>2026-04-10T15:49:52Z</time></rtept><rtept lat="37.741866" lon="-107.672422"><ele>3152.6</ele><time>2026-04-10T15:49:52Z</time></rtept><rtept lat="37.741856" lon="-107.672484"><ele>3151.8</ele><time>2026-04-10T15:49:52Z</time></rtept><rtept lat="37.741869" lon="-107.672505"><ele>3151.8</ele><time>2026-04-10T15:49:52Z</time></rtept><rtept lat="37.74189" lon="-107.672517"><ele>3152.0</ele><time>2026-04-10T15:49:52Z</time></rtept><rtept lat="37.741931" lon="-107.672534"><ele>3152.0</ele><time>2026-04-10T15:49:52Z</time></rtept><rtept lat="37.742048" lon="-107.672632"><ele>3150.2</ele><time>2026-04-10T15:49:52Z</time></rtept><rtept lat="37.742154" lon="-107.672858"><ele>3147.4</ele><time>2026-04-10T15:49:52Z</time></rtept><rtept lat="37.742171" lon="-107.67292"><ele>3147.0</ele><time>2026-04-10T15:49:52Z</time></rtept><rtept lat="37.742188" lon="-107.67311"><ele>3147.0</ele><time>2026-04-10T15:49:52Z</time></rtept><rtept lat="37.742158" lon="-107.673239"><ele>3146.2</ele><time>2026-04-10T15:49:52Z</time></rtept><rtept lat="37.741956" lon="-107.673747"><ele>3140.0</ele><time>2026-04-10T15:49:52Z</time></rtept><rtept lat="37.741923" lon="-107.673884"><ele>3139.0</ele><time>2026-04-10T15:49:52Z</time></rtept><rtept lat="37.741927" lon="-107.673951"><ele>3138.2</ele><time>2026-04-10T15:49:52Z</time></rtept><rtept lat="37.741937" lon="-107.674045"><ele>3137.4</ele><time>2026-04-10T15:49:52Z</time></rtept><rtept lat="37.741952" lon="-107.67429"><ele>3135.0</ele><time>2026-04-10T15:49:52Z</time></rtept><rtept lat="37.741934" lon="-107.674467"><ele>3133.6</ele><time>2026-04-10T15:49:52Z</time></rtept><rtept lat="37.741768" lon="-107.674976"><ele>3131.0</ele><time>2026-04-10T15:49:52Z</time></rtept><rtept lat="37.741688" lon="-107.675261"><ele>3130.2</ele><time>2026-04-10T15:49:52Z</time></rtept><rtept lat="37.741671" lon="-107.675631"><ele>3129.8</ele><time>2026-04-10T15:49:52Z</time></rtept><rtept lat="37.741569" lon="-107.676103"><ele>3126.6</ele><time>2026-04-10T15:49:52Z</time></rtept><rtept lat="37.741399" lon="-107.676521"><ele>3130.2</ele><time>2026-04-10T15:49:52Z</time></rtept><rtept lat="37.741238" lon="-107.676774"><ele>3128.2</ele><time>2026-04-10T15:49:52Z</time></rtept><rtept lat="37.741077" lon="-107.677101"><ele>3129.8</ele><time>2026-04-10T15:49:52Z</time></rtept><rtept lat="37.740869" lon="-107.677449"><ele>3128.0</ele><time>2026-04-10T15:49:52Z</time></rtept><rtept lat="37.740822" lon="-107.677723"><ele>3126.4</ele><time>2026-04-10T15:49:52Z</time></rtept><rtept lat="37.740742" lon="-107.677841"><ele>3124.0</ele><time>2026-04-10T15:49:52Z</time></rtept><rtept lat="37.740691" lon="-107.678184"><ele>3123.6</ele><time>2026-04-10T15:49:52Z</time></rtept><rtept lat="37.74058" lon="-107.678479"><ele>3127.0</ele><time>2026-04-10T15:49:52Z</time></rtept><rtept lat="37.740529" lon="-107.678909"><ele>3127.4</ele><time>2026-04-10T15:49:52Z</time></rtept><rtept lat="37.740394" lon="-107.67944"><ele>3118.6</ele><time>2026-04-10T15:49:52Z</time></rtept><rtept lat="37.740317" lon="-107.67988"><ele>3120.6</ele><time>2026-04-10T15:49:52Z</time></rtept><rtept lat="37.740186" lon="-107.680679"><ele>3120.6</ele><time>2026-04-10T15:49:52Z</time></rtept><rtept lat="37.740097" lon="-107.681011"><ele>3123.2</ele><time>2026-04-10T15:49:52Z</time></rtept><rtept lat="37.74002" lon="-107.681103"><ele>3121.8</ele><time>2026-04-10T15:49:52Z</time></rtept><rtept lat="37.739781" lon="-107.68187"><ele>3121.0</ele><time>2026-04-10T15:49:52Z</time></rtept><rtept lat="37.739745" lon="-107.682015"><ele>3120.6</ele><time>2026-04-10T15:49:52Z</time></rtept><rtept lat="37.739681" lon="-107.682417"><ele>3123.4</ele><time>2026-04-10T15:49:52Z</time></rtept><rtept lat="37.739562" lon="-107.682707"><ele>3120.8</ele><time>2026-04-10T15:49:52Z</time></rtept><rtept lat="37.739528" lon="-107.682986"><ele>3121.0</ele><time>2026-04-10T15:49:52Z</time></rtept><rtept lat="37.739448" lon="-107.68327"><ele>3122.6</ele><time>2026-04-10T15:49:52Z</time></rtept><rtept lat="37.739409" lon="-107.683924"><ele>3123.0</ele><time>2026-04-10T15:49:52Z</time></rtept><rtept lat="37.739473" lon="-107.684203"><ele>3128.2</ele><time>2026-04-10T15:49:52Z</time></rtept><rtept lat="37.739562" lon="-107.684702"><ele>3136.2</ele><time>2026-04-10T15:49:52Z</time></rtept><rtept lat="37.739537" lon="-107.685212"><ele>3147.6</ele><time>2026-04-10T15:49:52Z</time></rtept><rtept lat="37.739456" lon="-107.685203"><ele>3145.6</ele><time>2026-04-10T15:49:52Z</time></rtept><rtept lat="37.739394" lon="-107.685228"><ele>3143.8</ele><time>2026-04-10T15:49:52Z</time></rtept><rtept lat="37.739345" lon="-107.685397"><ele>3144.0</ele><time>2026-04-10T15:49:52Z</time></rtept><rtept lat="37.739215" lon="-107.685762"><ele>3138.8</ele><time>2026-04-10T15:49:52Z</time></rtept><rtept lat="37.739181" lon="-107.685881"><ele>3137.6</ele><time>2026-04-10T15:49:52Z</time></rtept><rtept lat="37.739202" lon="-107.686021"><ele>3133.6</ele><time>2026-04-10T15:49:52Z</time></rtept><rtept lat="37.739276" lon="-107.686104"><ele>3134.6</ele><time>2026-04-10T15:49:52Z</time></rtept><rtept lat="37.73935" lon="-107.686119"><ele>3137.2</ele><time>2026-04-10T15:49:52Z</time></rtept><rtept lat="37.739436" lon="-107.686168"><ele>3143.2</ele><time>2026-04-10T15:49:52Z</time></rtept><rtept lat="37.739493" lon="-107.686152"><ele>3143.2</ele><time>2026-04-10T15:49:52Z</time></rtept><rtept lat="37.739597" lon="-107.686164"><ele>3150.2</ele><time>2026-04-10T15:49:52Z</time></rtept><rtept lat="37.739657" lon="-107.686159"><ele>3154.4</ele><time>2026-04-10T15:49:52Z</time></rtept><rtept lat="37.739691" lon="-107.686209"><ele>3150.2</ele><time>2026-04-10T15:49:52Z</time></rtept><rtept lat="37.739709" lon="-107.68627"><ele>3153.8</ele><time>2026-04-10T15:49:52Z</time></rtept><rtept lat="37.739731" lon="-107.686312"><ele>3150.6</ele><time>2026-04-10T15:49:52Z</time></rtept><rtept lat="37.73976" lon="-107.686295"><ele>3150.6</ele><time>2026-04-10T15:49:52Z</time></rtept><rtept lat="37.739817" lon="-107.686168"><ele>3159.8</ele><time>2026-04-10T15:49:52Z</time></rtept><rtept lat="37.739868" lon="-107.686085"><ele>3163.8</ele><time>2026-04-10T15:49:52Z</time></rtept><rtept lat="37.739857" lon="-107.686003"><ele>3165.6</ele><time>2026-04-10T15:49:52Z</time></rtept><rtept lat="37.739863" lon="-107.685946"><ele>3165.6</ele><time>2026-04-10T15:49:52Z</time></rtept><rtept lat="37.739933" lon="-107.685754"><ele>3171.4</ele><time>2026-04-10T15:49:52Z</time></rtept><rtept lat="37.740207" lon="-107.685759"><ele>3175.0</ele><time>2026-04-10T15:49:52Z</time></rtept><rtept lat="37.740313" lon="-107.68584"><ele>3176.4</ele><time>2026-04-10T15:49:52Z</time></rtept><rtept lat="37.740504" lon="-107.685829"><ele>3180.2</ele><time>2026-04-10T15:49:52Z</time></rtept><rtept lat="37.740882" lon="-107.686033"><ele>3182.4</ele><time>2026-04-10T15:49:52Z</time></rtept><rtept lat="37.741032" lon="-107.686053"><ele>3184.0</ele><time>2026-04-10T15:49:52Z</time></rtept><rtept lat="37.741032" lon="-107.686053"><ele>3184.0</ele><time>2026-04-10T15:49:52Z</time></rtept><rtept lat="37.741157" lon="-107.68607"><ele>3185.8</ele><time>2026-04-10T15:49:52Z</time></rtept><rtept lat="37.741505" lon="-107.686151"><ele>3187.8</ele><time>2026-04-10T15:49:52Z</time></rtept><rtept lat="37.741887" lon="-107.686161"><ele>3190.8</ele><time>2026-04-10T15:49:52Z</time></rtept><rtept lat="37.742383" lon="-107.686059"><ele>3191.8</ele><time>2026-04-10T15:49:52Z</time></rtept><rtept lat="37.742778" lon="-107.685995"><ele>3193.8</ele><time>2026-04-10T15:49:52Z</time></rtept><rtept lat="37.743117" lon="-107.685952"><ele>3189.8</ele><time>2026-04-10T15:49:52Z</time></rtept><rtept lat="37.743316" lon="-107.686113"><ele>3195.4</ele><time>2026-04-10T15:49:52Z</time></rtept><rtept lat="37.743796" lon="-107.686455"><ele>3202.0</ele><time>2026-04-10T15:49:52Z</time></rtept><rtept lat="37.744135" lon="-107.686317"><ele>3202.6</ele><time>2026-04-10T15:49:52Z</time></rtept><rtept lat="37.744666" lon="-107.686059"><ele>3204.2</ele><time>2026-04-10T15:49:52Z</time></rtept><rtept lat="37.745391" lon="-107.685893"><ele>3207.2</ele><time>2026-04-10T15:49:52Z</time></rtept><rtept lat="37.745747" lon="-107.685711"><ele>3207.6</ele><time>2026-04-10T15:49:52Z</time></rtept><rtept lat="37.745985" lon="-107.685662"><ele>3207.6</ele><time>2026-04-10T15:49:52Z</time></rtept><rtept lat="37.746006" lon="-107.685442"><ele>3207.2</ele><time>2026-04-10T15:49:52Z</time></rtept><rtept lat="37.746171" lon="-107.68541"><ele>3207.2</ele><time>2026-04-10T15:49:52Z</time></rtept><rtept lat="37.746265" lon="-107.685271"><ele>3207.0</ele><time>2026-04-10T15:49:52Z</time></rtept><rtept lat="37.746379" lon="-107.685185"><ele>3207.0</ele><time>2026-04-10T15:49:52Z</time></rtept><rtept lat="37.74657" lon="-107.685212"><ele>3206.6</ele><time>2026-04-10T15:49:52Z</time></rtept><rtept lat="37.746757" lon="-107.685577"><ele>3209.8</ele><time>2026-04-10T15:49:52Z</time></rtept><rtept lat="37.746956" lon="-107.685587"><ele>3210.2</ele><time>2026-04-10T15:49:52Z</time></rtept><rtept lat="37.747151" lon="-107.685721"><ele>3209.4</ele><time>2026-04-10T15:49:52Z</time></rtept><rtept lat="37.747346" lon="-107.685813"><ele>3208.4</ele><time>2026-04-10T15:49:52Z</time></rtept><rtept lat="37.747516" lon="-107.685834"><ele>3211.0</ele><time>2026-04-10T15:49:52Z</time></rtept><rtept lat="37.747906" lon="-107.685979"><ele>3219.8</ele><time>2026-04-10T15:49:52Z</time></rtept><rtept lat="37.748089" lon="-107.685834"><ele>3216.0</ele><time>2026-04-10T15:49:52Z</time></rtept><rtept lat="37.748339" lon="-107.685797"><ele>3217.2</ele><time>2026-04-10T15:49:52Z</time></rtept><rtept lat="37.748419" lon="-107.685501"><ele>3214.2</ele><time>2026-04-10T15:49:52Z</time></rtept><rtept lat="37.748564" lon="-107.685389"><ele>3213.4</ele><time>2026-04-10T15:49:52Z</time></rtept><rtept lat="37.74871" lon="-107.685195"><ele>3212.6</ele><time>2026-04-10T15:49:52Z</time></rtept><rtept lat="37.748776" lon="-107.685174"><ele>3213.0</ele><time>2026-04-10T15:49:52Z</time></rtept><rtept lat="37.748945" lon="-107.685142"><ele>3213.0</ele><time>2026-04-10T15:49:52Z</time></rtept><rtept lat="37.749196" lon="-107.685072"><ele>3214.2</ele><time>2026-04-10T15:49:52Z</time></rtept><rtept lat="37.749391" lon="-107.684777"><ele>3211.0</ele><time>2026-04-10T15:49:52Z</time></rtept><rtept lat="37.74962" lon="-107.684557"><ele>3211.4</ele><time>2026-04-10T15:49:52Z</time></rtept><rtept lat="37.749654" lon="-107.684402"><ele>3209.2</ele><time>2026-04-10T15:49:52Z</time></rtept><rtept lat="37.749651" lon="-107.684363"><ele>3208.4</ele><time>2026-04-10T15:49:52Z</time></rtept></rte></gpx>