<?xml version="1.0" ?><gpx xmlns="http://www.topografix.com/GPX/1/1" creator="GaiaGPS" version="1.1" xmlns:xsi="http://www.w3.org/2001/XMLSchema-instance" xsi:schemaLocation="http://www.topografix.com/GPX/1/1 http://www.topografix.com/GPX/1/1/gpx.xsd"><rte><name>TD22:S6:D1 Williams Creek TH to Williams Creek Lake</name><desc>Big elevation gain day. Not returning to original route but jumping over to Williams Creek headwaters lake.</desc><extensions><line xmlns="http://www.topografix.com/GPX/gpx_style/0/2"><color>F42410</color></line></extensions><rtept lat="37.540699" lon="-107.197664"><ele>2548.0</ele><time>2026-04-11T16:50:50Z</time></rtept><rtept lat="37.540862" lon="-107.197509"><ele>2548.4</ele><time>2026-04-11T16:50:50Z</time></rtept><rtept lat="37.54083" lon="-107.197455"><ele>2548.2</ele><time>2026-04-11T16:50:50Z</time></rtept><rtept lat="37.540732" lon="-107.197342"><ele>2548.0</ele><time>2026-04-11T16:50:50Z</time></rtept><rtept lat="37.540711" lon="-107.197198"><ele>2548.0</ele><time>2026-04-11T16:50:50Z</time></rtept><rtept lat="37.540779" lon="-107.197085"><ele>2548.2</ele><time>2026-04-11T16:50:50Z</time></rtept><rtept lat="37.540894" lon="-107.197031"><ele>2548.4</ele><time>2026-04-11T16:50:50Z</time></rtept><rtept lat="37.541044" lon="-107.197149"><ele>2549.2</ele><time>2026-04-11T16:50:50Z</time></rtept><rtept lat="37.541132" lon="-107.197332"><ele>2549.4</ele><time>2026-04-11T16:50:50Z</time></rtept><rtept lat="37.541155" lon="-107.19742"><ele>2549.4</ele><time>2026-04-11T16:50:50Z</time></rtept><rtept lat="37.541269" lon="-107.197858"><ele>2549.8</ele><time>2026-04-11T16:50:50Z</time></rtept><rtept lat="37.541512" lon="-107.197843"><ele>2552.8</ele><time>2026-04-11T16:50:50Z</time></rtept><rtept lat="37.541769" lon="-107.197819"><ele>2557.0</ele><time>2026-04-11T16:50:50Z</time></rtept><rtept lat="37.542031" lon="-107.19767"><ele>2562.0</ele><time>2026-04-11T16:50:50Z</time></rtept><rtept lat="37.542423" lon="-107.197022"><ele>2566.0</ele><time>2026-04-11T16:50:50Z</time></rtept><rtept lat="37.542475" lon="-107.196868"><ele>2566.4</ele><time>2026-04-11T16:50:50Z</time></rtept><rtept lat="37.54311" lon="-107.196033"><ele>2570.4</ele><time>2026-04-11T16:50:50Z</time></rtept><rtept lat="37.543369" lon="-107.196062"><ele>2574.8</ele><time>2026-04-11T16:50:50Z</time></rtept><rtept lat="37.543541" lon="-107.195877"><ele>2578.2</ele><time>2026-04-11T16:50:50Z</time></rtept><rtept lat="37.543562" lon="-107.195752"><ele>2579.8</ele><time>2026-04-11T16:50:50Z</time></rtept><rtept lat="37.54386" lon="-107.195702"><ele>2586.4</ele><time>2026-04-11T16:50:50Z</time></rtept><rtept lat="37.543898" lon="-107.195603"><ele>2587.0</ele><time>2026-04-11T16:50:50Z</time></rtept><rtept lat="37.544148" lon="-107.195445"><ele>2589.2</ele><time>2026-04-11T16:50:50Z</time></rtept><rtept lat="37.544296" lon="-107.195426"><ele>2592.8</ele><time>2026-04-11T16:50:50Z</time></rtept><rtept lat="37.544718" lon="-107.195579"><ele>2599.2</ele><time>2026-04-11T16:50:50Z</time></rtept><rtept lat="37.54474" lon="-107.195494"><ele>2598.6</ele><time>2026-04-11T16:50:50Z</time></rtept><rtept lat="37.544751" lon="-107.195454"><ele>2597.6</ele><time>2026-04-11T16:50:50Z</time></rtept><rtept lat="37.544911" lon="-107.19528"><ele>2595.4</ele><time>2026-04-11T16:50:50Z</time></rtept><rtept lat="37.545065" lon="-107.194945"><ele>2604.2</ele><time>2026-04-11T16:50:50Z</time></rtept><rtept lat="37.545178" lon="-107.194216"><ele>2604.8</ele><time>2026-04-11T16:50:50Z</time></rtept><rtept lat="37.545369" lon="-107.194026"><ele>2616.8</ele><time>2026-04-11T16:50:50Z</time></rtept><rtept lat="37.545431" lon="-107.193894"><ele>2619.0</ele><time>2026-04-11T16:50:50Z</time></rtept><rtept lat="37.545549" lon="-107.193835"><ele>2626.4</ele><time>2026-04-11T16:50:50Z</time></rtept><rtept lat="37.545907" lon="-107.193422"><ele>2632.8</ele><time>2026-04-11T16:50:50Z</time></rtept><rtept lat="37.546196" lon="-107.192966"><ele>2634.6</ele><time>2026-04-11T16:50:50Z</time></rtept><rtept lat="37.546213" lon="-107.192805"><ele>2635.6</ele><time>2026-04-11T16:50:50Z</time></rtept><rtept lat="37.546302" lon="-107.192705"><ele>2636.8</ele><time>2026-04-11T16:50:50Z</time></rtept><rtept lat="37.546385" lon="-107.192494"><ele>2636.6</ele><time>2026-04-11T16:50:50Z</time></rtept><rtept lat="37.5465" lon="-107.192381"><ele>2637.0</ele><time>2026-04-11T16:50:50Z</time></rtept><rtept lat="37.546656" lon="-107.192063"><ele>2636.4</ele><time>2026-04-11T16:50:50Z</time></rtept><rtept lat="37.546784" lon="-107.191988"><ele>2638.0</ele><time>2026-04-11T16:50:50Z</time></rtept><rtept lat="37.546822" lon="-107.191887"><ele>2637.2</ele><time>2026-04-11T16:50:50Z</time></rtept><rtept lat="37.54724" lon="-107.191695"><ele>2641.6</ele><time>2026-04-11T16:50:50Z</time></rtept><rtept lat="37.547685" lon="-107.191325"><ele>2642.6</ele><time>2026-04-11T16:50:50Z</time></rtept><rtept lat="37.548023" lon="-107.191158"><ele>2643.8</ele><time>2026-04-11T16:50:50Z</time></rtept><rtept lat="37.548183" lon="-107.191143"><ele>2645.2</ele><time>2026-04-11T16:50:50Z</time></rtept><rtept lat="37.548302" lon="-107.190924"><ele>2644.6</ele><time>2026-04-11T16:50:50Z</time></rtept><rtept lat="37.548648" lon="-107.190649"><ele>2646.0</ele><time>2026-04-11T16:50:50Z</time></rtept><rtept lat="37.548658" lon="-107.190536"><ele>2645.0</ele><time>2026-04-11T16:50:50Z</time></rtept><rtept lat="37.548851" lon="-107.190455"><ele>2645.8</ele><time>2026-04-11T16:50:50Z</time></rtept><rtept lat="37.549031" lon="-107.190187"><ele>2644.6</ele><time>2026-04-11T16:50:50Z</time></rtept><rtept lat="37.549909" lon="-107.189444"><ele>2655.2</ele><time>2026-04-11T16:50:50Z</time></rtept><rtept lat="37.550255" lon="-107.188926"><ele>2655.0</ele><time>2026-04-11T16:50:50Z</time></rtept><rtept lat="37.550764" lon="-107.188667"><ele>2657.6</ele><time>2026-04-11T16:50:50Z</time></rtept><rtept lat="37.550794" lon="-107.188562"><ele>2657.4</ele><time>2026-04-11T16:50:50Z</time></rtept><rtept lat="37.55121" lon="-107.188399"><ele>2662.0</ele><time>2026-04-11T16:50:50Z</time></rtept><rtept lat="37.551458" lon="-107.188214"><ele>2663.6</ele><time>2026-04-11T16:50:50Z</time></rtept><rtept lat="37.551663" lon="-107.187858"><ele>2661.0</ele><time>2026-04-11T16:50:50Z</time></rtept><rtept lat="37.551722" lon="-107.187838"><ele>2659.4</ele><time>2026-04-11T16:50:50Z</time></rtept><rtept lat="37.551896" lon="-107.187576"><ele>2658.6</ele><time>2026-04-11T16:50:50Z</time></rtept><rtept lat="37.552177" lon="-107.187403"><ele>2658.6</ele><time>2026-04-11T16:50:50Z</time></rtept><rtept lat="37.55228" lon="-107.187196"><ele>2657.6</ele><time>2026-04-11T16:50:50Z</time></rtept><rtept lat="37.552384" lon="-107.187097"><ele>2657.0</ele><time>2026-04-11T16:50:50Z</time></rtept><rtept lat="37.552738" lon="-107.187016"><ele>2659.2</ele><time>2026-04-11T16:50:50Z</time></rtept><rtept lat="37.5529" lon="-107.187063"><ele>2661.8</ele><time>2026-04-11T16:50:50Z</time></rtept><rtept lat="37.553008" lon="-107.186859"><ele>2657.0</ele><time>2026-04-11T16:50:50Z</time></rtept><rtept lat="37.553617" lon="-107.186375"><ele>2666.6</ele><time>2026-04-11T16:50:50Z</time></rtept><rtept lat="37.553734" lon="-107.186356"><ele>2672.6</ele><time>2026-04-11T16:50:50Z</time></rtept><rtept lat="37.554035" lon="-107.186162"><ele>2674.2</ele><time>2026-04-11T16:50:50Z</time></rtept><rtept lat="37.554174" lon="-107.185966"><ele>2672.6</ele><time>2026-04-11T16:50:50Z</time></rtept><rtept lat="37.554663" lon="-107.185832"><ele>2667.6</ele><time>2026-04-11T16:50:50Z</time></rtept><rtept lat="37.554458" lon="-107.186261"><ele>2693.2</ele><time>2026-04-11T16:50:50Z</time></rtept><rtept lat="37.554946" lon="-107.186068"><ele>2690.4</ele><time>2026-04-11T16:50:50Z</time></rtept><rtept lat="37.55513" lon="-107.186127"><ele>2683.6</ele><time>2026-04-11T16:50:50Z</time></rtept><rtept lat="37.555294" lon="-107.186256"><ele>2693.4</ele><time>2026-04-11T16:50:50Z</time></rtept><rtept lat="37.555531" lon="-107.186264"><ele>2699.0</ele><time>2026-04-11T16:50:50Z</time></rtept><rtept lat="37.555726" lon="-107.186357"><ele>2688.2</ele><time>2026-04-11T16:50:50Z</time></rtept><rtept lat="37.556233" lon="-107.18572"><ele>2714.0</ele><time>2026-04-11T16:50:50Z</time></rtept><rtept lat="37.556404" lon="-107.185651"><ele>2719.6</ele><time>2026-04-11T16:50:50Z</time></rtept><rtept lat="37.556578" lon="-107.185674"><ele>2723.6</ele><time>2026-04-11T16:50:50Z</time></rtept><rtept lat="37.55686" lon="-107.185922"><ele>2718.4</ele><time>2026-04-11T16:50:50Z</time></rtept><rtept lat="37.556991" lon="-107.185953"><ele>2710.2</ele><time>2026-04-11T16:50:50Z</time></rtept><rtept lat="37.557112" lon="-107.186126"><ele>2706.8</ele><time>2026-04-11T16:50:50Z</time></rtept><rtept lat="37.557222" lon="-107.186193"><ele>2705.6</ele><time>2026-04-11T16:50:50Z</time></rtept><rtept lat="37.557353" lon="-107.186456"><ele>2706.2</ele><time>2026-04-11T16:50:50Z</time></rtept><rtept lat="37.557498" lon="-107.186519"><ele>2704.4</ele><time>2026-04-11T16:50:50Z</time></rtept><rtept lat="37.557525" lon="-107.186665"><ele>2706.4</ele><time>2026-04-11T16:50:50Z</time></rtept><rtept lat="37.557722" lon="-107.186762"><ele>2714.4</ele><time>2026-04-11T16:50:50Z</time></rtept><rtept lat="37.557721" lon="-107.186654"><ele>2715.0</ele><time>2026-04-11T16:50:50Z</time></rtept><rtept lat="37.557784" lon="-107.186568"><ele>2719.6</ele><time>2026-04-11T16:50:50Z</time></rtept><rtept lat="37.55847" lon="-107.18653"><ele>2744.4</ele><time>2026-04-11T16:50:50Z</time></rtept><rtept lat="37.558809" lon="-107.186366"><ele>2748.2</ele><time>2026-04-11T16:50:50Z</time></rtept><rtept lat="37.559083" lon="-107.186307"><ele>2755.4</ele><time>2026-04-11T16:50:50Z</time></rtept><rtept lat="37.559385" lon="-107.186026"><ele>2760.2</ele><time>2026-04-11T16:50:50Z</time></rtept><rtept lat="37.559619" lon="-107.185947"><ele>2762.6</ele><time>2026-04-11T16:50:50Z</time></rtept><rtept lat="37.56002" lon="-107.185656"><ele>2753.6</ele><time>2026-04-11T16:50:50Z</time></rtept><rtept lat="37.560557" lon="-107.185471"><ele>2735.6</ele><time>2026-04-11T16:50:50Z</time></rtept><rtept lat="37.56062" lon="-107.185494"><ele>2735.8</ele><time>2026-04-11T16:50:50Z</time></rtept><rtept lat="37.560704" lon="-107.185396"><ele>2734.4</ele><time>2026-04-11T16:50:50Z</time></rtept><rtept lat="37.560806" lon="-107.185507"><ele>2735.2</ele><time>2026-04-11T16:50:50Z</time></rtept><rtept lat="37.560933" lon="-107.185476"><ele>2735.0</ele><time>2026-04-11T16:50:50Z</time></rtept><rtept lat="37.561074" lon="-107.185309"><ele>2733.4</ele><time>2026-04-11T16:50:50Z</time></rtept><rtept lat="37.561346" lon="-107.185223"><ele>2734.6</ele><time>2026-04-11T16:50:50Z</time></rtept><rtept lat="37.561421" lon="-107.185141"><ele>2733.0</ele><time>2026-04-11T16:50:50Z</time></rtept><rtept lat="37.561508" lon="-107.184904"><ele>2733.6</ele><time>2026-04-11T16:50:50Z</time></rtept><rtept lat="37.561596" lon="-107.184859"><ele>2737.6</ele><time>2026-04-11T16:50:50Z</time></rtept><rtept lat="37.561657" lon="-107.184778"><ele>2739.4</ele><time>2026-04-11T16:50:50Z</time></rtept><rtept lat="37.561661" lon="-107.184683"><ele>2738.8</ele><time>2026-04-11T16:50:50Z</time></rtept><rtept lat="37.56176" lon="-107.184573"><ele>2739.0</ele><time>2026-04-11T16:50:50Z</time></rtept><rtept lat="37.562291" lon="-107.184356"><ele>2741.8</ele><time>2026-04-11T16:50:50Z</time></rtept><rtept lat="37.56238" lon="-107.184155"><ele>2741.0</ele><time>2026-04-11T16:50:50Z</time></rtept><rtept lat="37.562678" lon="-107.184178"><ele>2741.2</ele><time>2026-04-11T16:50:50Z</time></rtept><rtept lat="37.562991" lon="-107.184123"><ele>2740.8</ele><time>2026-04-11T16:50:50Z</time></rtept><rtept lat="37.563361" lon="-107.183812"><ele>2739.8</ele><time>2026-04-11T16:50:50Z</time></rtept><rtept lat="37.563498" lon="-107.183735"><ele>2739.6</ele><time>2026-04-11T16:50:50Z</time></rtept><rtept lat="37.563585" lon="-107.183769"><ele>2739.6</ele><time>2026-04-11T16:50:50Z</time></rtept><rtept lat="37.563968" lon="-107.183554"><ele>2736.8</ele><time>2026-04-11T16:50:50Z</time></rtept><rtept lat="37.563917" lon="-107.183547"><ele>2736.8</ele><time>2026-04-11T16:50:50Z</time></rtept><rtept lat="37.564068" lon="-107.183568"><ele>2736.8</ele><time>2026-04-11T16:50:50Z</time></rtept><rtept lat="37.564592" lon="-107.183387"><ele>2732.8</ele><time>2026-04-11T16:50:50Z</time></rtept><rtept lat="37.565037" lon="-107.183472"><ele>2735.4</ele><time>2026-04-11T16:50:50Z</time></rtept><rtept lat="37.565281" lon="-107.183421"><ele>2737.2</ele><time>2026-04-11T16:50:50Z</time></rtept><rtept lat="37.565822" lon="-107.183448"><ele>2744.4</ele><time>2026-04-11T16:50:50Z</time></rtept><rtept lat="37.566615" lon="-107.183267"><ele>2755.8</ele><time>2026-04-11T16:50:50Z</time></rtept><rtept lat="37.566617" lon="-107.183163"><ele>2754.0</ele><time>2026-04-11T16:50:50Z</time></rtept><rtept lat="37.566672" lon="-107.183189"><ele>2754.6</ele><time>2026-04-11T16:50:50Z</time></rtept><rtept lat="37.56679" lon="-107.183062"><ele>2754.0</ele><time>2026-04-11T16:50:50Z</time></rtept><rtept lat="37.567011" lon="-107.183012"><ele>2754.0</ele><time>2026-04-11T16:50:50Z</time></rtept><rtept lat="37.567082" lon="-107.182844"><ele>2750.6</ele><time>2026-04-11T16:50:50Z</time></rtept><rtept lat="37.567306" lon="-107.182683"><ele>2745.6</ele><time>2026-04-11T16:50:50Z</time></rtept><rtept lat="37.567322" lon="-107.182593"><ele>2743.4</ele><time>2026-04-11T16:50:50Z</time></rtept><rtept lat="37.567565" lon="-107.182395"><ele>2745.8</ele><time>2026-04-11T16:50:50Z</time></rtept><rtept lat="37.567744" lon="-107.182148"><ele>2750.6</ele><time>2026-04-11T16:50:50Z</time></rtept><rtept lat="37.568135" lon="-107.18183"><ele>2755.6</ele><time>2026-04-11T16:50:50Z</time></rtept><rtept lat="37.568444" lon="-107.181767"><ele>2758.4</ele><time>2026-04-11T16:50:50Z</time></rtept><rtept lat="37.568535" lon="-107.181657"><ele>2759.6</ele><time>2026-04-11T16:50:50Z</time></rtept><rtept lat="37.568728" lon="-107.18156"><ele>2760.2</ele><time>2026-04-11T16:50:50Z</time></rtept><rtept lat="37.568765" lon="-107.18144"><ele>2760.6</ele><time>2026-04-11T16:50:50Z</time></rtept><rtept lat="37.568863" lon="-107.181331"><ele>2760.8</ele><time>2026-04-11T16:50:50Z</time></rtept><rtept lat="37.5691" lon="-107.18133"><ele>2762.8</ele><time>2026-04-11T16:50:50Z</time></rtept><rtept lat="37.569194" lon="-107.181293"><ele>2763.0</ele><time>2026-04-11T16:50:50Z</time></rtept><rtept lat="37.569276" lon="-107.181167"><ele>2763.2</ele><time>2026-04-11T16:50:50Z</time></rtept><rtept lat="37.569402" lon="-107.181183"><ele>2764.2</ele><time>2026-04-11T16:50:50Z</time></rtept><rtept lat="37.569541" lon="-107.181109"><ele>2764.8</ele><time>2026-04-11T16:50:50Z</time></rtept><rtept lat="37.569723" lon="-107.180698"><ele>2765.0</ele><time>2026-04-11T16:50:50Z</time></rtept><rtept lat="37.569947" lon="-107.180439"><ele>2766.0</ele><time>2026-04-11T16:50:50Z</time></rtept><rtept lat="37.56989" lon="-107.180406"><ele>2766.0</ele><time>2026-04-11T16:50:50Z</time></rtept><rtept lat="37.569939" lon="-107.180145"><ele>2765.6</ele><time>2026-04-11T16:50:50Z</time></rtept><rtept lat="37.569979" lon="-107.180072"><ele>2765.8</ele><time>2026-04-11T16:50:50Z</time></rtept><rtept lat="37.570022" lon="-107.180111"><ele>2765.8</ele><time>2026-04-11T16:50:50Z</time></rtept><rtept lat="37.570072" lon="-107.179801"><ele>2766.0</ele><time>2026-04-11T16:50:50Z</time></rtept><rtept lat="37.570176" lon="-107.179654"><ele>2766.2</ele><time>2026-04-11T16:50:50Z</time></rtept><rtept lat="37.570018" lon="-107.179223"><ele>2766.2</ele><time>2026-04-11T16:50:50Z</time></rtept><rtept lat="37.569763" lon="-107.179139"><ele>2766.6</ele><time>2026-04-11T16:50:50Z</time></rtept><rtept lat="37.569605" lon="-107.179028"><ele>2767.8</ele><time>2026-04-11T16:50:50Z</time></rtept><rtept lat="37.569287" lon="-107.17906"><ele>2768.4</ele><time>2026-04-11T16:50:50Z</time></rtept><rtept lat="37.569102" lon="-107.178874"><ele>2772.6</ele><time>2026-04-11T16:50:50Z</time></rtept><rtept lat="37.56928" lon="-107.178585"><ele>2771.4</ele><time>2026-04-11T16:50:50Z</time></rtept><rtept lat="37.569291" lon="-107.178372"><ele>2760.8</ele><time>2026-04-11T16:50:50Z</time></rtept><rtept lat="37.569343" lon="-107.178324"><ele>2753.0</ele><time>2026-04-11T16:50:50Z</time></rtept><rtept lat="37.569407" lon="-107.178349"><ele>2763.4</ele><time>2026-04-11T16:50:50Z</time></rtept><rtept lat="37.569483" lon="-107.178125"><ele>2747.4</ele><time>2026-04-11T16:50:50Z</time></rtept><rtept lat="37.569615" lon="-107.178103"><ele>2750.0</ele><time>2026-04-11T16:50:50Z</time></rtept><rtept lat="37.569815" lon="-107.177974"><ele>2747.2</ele><time>2026-04-11T16:50:50Z</time></rtept><rtept lat="37.569862" lon="-107.177831"><ele>2744.4</ele><time>2026-04-11T16:50:50Z</time></rtept><rtept lat="37.570251" lon="-107.177614"><ele>2745.0</ele><time>2026-04-11T16:50:50Z</time></rtept><rtept lat="37.570509" lon="-107.17727"><ele>2740.0</ele><time>2026-04-11T16:50:50Z</time></rtept><rtept lat="37.570777" lon="-107.17715"><ele>2742.6</ele><time>2026-04-11T16:50:50Z</time></rtept><rtept lat="37.570859" lon="-107.177033"><ele>2736.6</ele><time>2026-04-11T16:50:50Z</time></rtept><rtept lat="37.571008" lon="-107.176945"><ele>2736.2</ele><time>2026-04-11T16:50:50Z</time></rtept><rtept lat="37.571198" lon="-107.176998"><ele>2744.2</ele><time>2026-04-11T16:50:50Z</time></rtept><rtept lat="37.571326" lon="-107.176756"><ele>2737.0</ele><time>2026-04-11T16:50:50Z</time></rtept><rtept lat="37.571561" lon="-107.176466"><ele>2731.8</ele><time>2026-04-11T16:50:50Z</time></rtept><rtept lat="37.571742" lon="-107.176334"><ele>2733.6</ele><time>2026-04-11T16:50:50Z</time></rtept><rtept lat="37.571899" lon="-107.176095"><ele>2735.2</ele><time>2026-04-11T16:50:50Z</time></rtept><rtept lat="37.572289" lon="-107.17571"><ele>2732.0</ele><time>2026-04-11T16:50:50Z</time></rtept><rtept lat="37.572191" lon="-107.175606"><ele>2730.8</ele><time>2026-04-11T16:50:50Z</time></rtept><rtept lat="37.572219" lon="-107.175536"><ele>2731.0</ele><time>2026-04-11T16:50:50Z</time></rtept><rtept lat="37.572436" lon="-107.175653"><ele>2731.6</ele><time>2026-04-11T16:50:50Z</time></rtept><rtept lat="37.572575" lon="-107.175571"><ele>2733.2</ele><time>2026-04-11T16:50:50Z</time></rtept><rtept lat="37.572714" lon="-107.175598"><ele>2733.4</ele><time>2026-04-11T16:50:50Z</time></rtept><rtept lat="37.573072" lon="-107.175296"><ele>2741.2</ele><time>2026-04-11T16:50:50Z</time></rtept><rtept lat="37.573469" lon="-107.175284"><ele>2741.0</ele><time>2026-04-11T16:50:50Z</time></rtept><rtept lat="37.573752" lon="-107.175414"><ele>2744.0</ele><time>2026-04-11T16:50:50Z</time></rtept><rtept lat="37.573899" lon="-107.175343"><ele>2747.4</ele><time>2026-04-11T16:50:50Z</time></rtept><rtept lat="37.574114" lon="-107.174979"><ele>2756.0</ele><time>2026-04-11T16:50:50Z</time></rtept><rtept lat="37.574303" lon="-107.174902"><ele>2760.6</ele><time>2026-04-11T16:50:50Z</time></rtept><rtept lat="37.574437" lon="-107.174738"><ele>2763.0</ele><time>2026-04-11T16:50:50Z</time></rtept><rtept lat="37.574702" lon="-107.174669"><ele>2771.8</ele><time>2026-04-11T16:50:50Z</time></rtept><rtept lat="37.574724" lon="-107.174601"><ele>2771.6</ele><time>2026-04-11T16:50:50Z</time></rtept><rtept lat="37.574876" lon="-107.174484"><ele>2774.0</ele><time>2026-04-11T16:50:50Z</time></rtept><rtept lat="37.575062" lon="-107.174617"><ele>2778.8</ele><time>2026-04-11T16:50:50Z</time></rtept><rtept lat="37.575224" lon="-107.174508"><ele>2781.4</ele><time>2026-04-11T16:50:50Z</time></rtept><rtept lat="37.575228" lon="-107.17451"><ele>2781.4</ele><time>2026-04-11T16:50:50Z</time></rtept><rtept lat="37.575285" lon="-107.174549"><ele>2781.6</ele><time>2026-04-11T16:50:50Z</time></rtept><rtept lat="37.575489" lon="-107.174505"><ele>2782.0</ele><time>2026-04-11T16:50:50Z</time></rtept><rtept lat="37.575588" lon="-107.174413"><ele>2783.2</ele><time>2026-04-11T16:50:50Z</time></rtept><rtept lat="37.575715" lon="-107.174398"><ele>2783.4</ele><time>2026-04-11T16:50:50Z</time></rtept><rtept lat="37.57579" lon="-107.174319"><ele>2783.4</ele><time>2026-04-11T16:50:50Z</time></rtept><rtept lat="37.575884" lon="-107.174321"><ele>2783.0</ele><time>2026-04-11T16:50:50Z</time></rtept><rtept lat="37.576093" lon="-107.174193"><ele>2782.8</ele><time>2026-04-11T16:50:50Z</time></rtept><rtept lat="37.576377" lon="-107.174169"><ele>2761.8</ele><time>2026-04-11T16:50:50Z</time></rtept><rtept lat="37.57658" lon="-107.173953"><ele>2757.0</ele><time>2026-04-11T16:50:50Z</time></rtept><rtept lat="37.576795" lon="-107.173507"><ele>2764.4</ele><time>2026-04-11T16:50:50Z</time></rtept><rtept lat="37.576809" lon="-107.173378"><ele>2767.2</ele><time>2026-04-11T16:50:50Z</time></rtept><rtept lat="37.577026" lon="-107.173074"><ele>2773.8</ele><time>2026-04-11T16:50:50Z</time></rtept><rtept lat="37.577471" lon="-107.172911"><ele>2766.6</ele><time>2026-04-11T16:50:50Z</time></rtept><rtept lat="37.577608" lon="-107.172721"><ele>2768.0</ele><time>2026-04-11T16:50:50Z</time></rtept><rtept lat="37.577725" lon="-107.172758"><ele>2766.8</ele><time>2026-04-11T16:50:50Z</time></rtept><rtept lat="37.577925" lon="-107.172551"><ele>2773.6</ele><time>2026-04-11T16:50:50Z</time></rtept><rtept lat="37.578439" lon="-107.172551"><ele>2774.6</ele><time>2026-04-11T16:50:50Z</time></rtept><rtept lat="37.578522" lon="-107.172612"><ele>2773.4</ele><time>2026-04-11T16:50:50Z</time></rtept><rtept lat="37.579345" lon="-107.17266"><ele>2768.0</ele><time>2026-04-11T16:50:50Z</time></rtept><rtept lat="37.579474" lon="-107.172547"><ele>2767.6</ele><time>2026-04-11T16:50:50Z</time></rtept><rtept lat="37.579599" lon="-107.172562"><ele>2766.4</ele><time>2026-04-11T16:50:50Z</time></rtept><rtept lat="37.57978" lon="-107.172475"><ele>2765.8</ele><time>2026-04-11T16:50:50Z</time></rtept><rtept lat="37.58007" lon="-107.172429"><ele>2765.8</ele><time>2026-04-11T16:50:50Z</time></rtept><rtept lat="37.580145" lon="-107.172262"><ele>2766.8</ele><time>2026-04-11T16:50:50Z</time></rtept><rtept lat="37.580862" lon="-107.171992"><ele>2771.4</ele><time>2026-04-11T16:50:50Z</time></rtept><rtept lat="37.581305" lon="-107.171628"><ele>2775.8</ele><time>2026-04-11T16:50:50Z</time></rtept><rtept lat="37.581489" lon="-107.171566"><ele>2776.6</ele><time>2026-04-11T16:50:50Z</time></rtept><rtept lat="37.581688" lon="-107.171623"><ele>2777.4</ele><time>2026-04-11T16:50:50Z</time></rtept><rtept lat="37.581768" lon="-107.171548"><ele>2777.6</ele><time>2026-04-11T16:50:50Z</time></rtept><rtept lat="37.582081" lon="-107.171504"><ele>2779.6</ele><time>2026-04-11T16:50:50Z</time></rtept><rtept lat="37.582193" lon="-107.171416"><ele>2780.6</ele><time>2026-04-11T16:50:50Z</time></rtept><rtept lat="37.582325" lon="-107.171397"><ele>2781.0</ele><time>2026-04-11T16:50:50Z</time></rtept><rtept lat="37.582442" lon="-107.171268"><ele>2782.0</ele><time>2026-04-11T16:50:50Z</time></rtept><rtept lat="37.582601" lon="-107.171291"><ele>2780.4</ele><time>2026-04-11T16:50:50Z</time></rtept><rtept lat="37.582685" lon="-107.17123"><ele>2779.2</ele><time>2026-04-11T16:50:50Z</time></rtept><rtept lat="37.582749" lon="-107.171005"><ele>2779.8</ele><time>2026-04-11T16:50:50Z</time></rtept><rtept lat="37.582886" lon="-107.170843"><ele>2778.2</ele><time>2026-04-11T16:50:50Z</time></rtept><rtept lat="37.582875" lon="-107.170912"><ele>2778.8</ele><time>2026-04-11T16:50:50Z</time></rtept><rtept lat="37.582937" lon="-107.170849"><ele>2778.2</ele><time>2026-04-11T16:50:50Z</time></rtept><rtept lat="37.58297" lon="-107.170873"><ele>2778.4</ele><time>2026-04-11T16:50:50Z</time></rtept><rtept lat="37.583002" lon="-107.170984"><ele>2778.0</ele><time>2026-04-11T16:50:50Z</time></rtept><rtept lat="37.583159" lon="-107.171124"><ele>2780.0</ele><time>2026-04-11T16:50:50Z</time></rtept><rtept lat="37.583291" lon="-107.171027"><ele>2783.6</ele><time>2026-04-11T16:50:50Z</time></rtept><rtept lat="37.583385" lon="-107.170867"><ele>2785.2</ele><time>2026-04-11T16:50:50Z</time></rtept><rtept lat="37.583551" lon="-107.170748"><ele>2791.0</ele><time>2026-04-11T16:50:50Z</time></rtept><rtept lat="37.583928" lon="-107.170821"><ele>2791.2</ele><time>2026-04-11T16:50:50Z</time></rtept><rtept lat="37.584235" lon="-107.170748"><ele>2795.0</ele><time>2026-04-11T16:50:50Z</time></rtept><rtept lat="37.584346" lon="-107.170879"><ele>2792.2</ele><time>2026-04-11T16:50:50Z</time></rtept><rtept lat="37.584485" lon="-107.170901"><ele>2794.2</ele><time>2026-04-11T16:50:50Z</time></rtept><rtept lat="37.584602" lon="-107.170839"><ele>2800.2</ele><time>2026-04-11T16:50:50Z</time></rtept><rtept lat="37.585046" lon="-107.170978"><ele>2802.8</ele><time>2026-04-11T16:50:50Z</time></rtept><rtept lat="37.585219" lon="-107.170822"><ele>2807.6</ele><time>2026-04-11T16:50:50Z</time></rtept><rtept lat="37.585206" lon="-107.170661"><ele>2809.2</ele><time>2026-04-11T16:50:50Z</time></rtept><rtept lat="37.585311" lon="-107.170551"><ele>2810.8</ele><time>2026-04-11T16:50:50Z</time></rtept><rtept lat="37.585287" lon="-107.170529"><ele>2810.8</ele><time>2026-04-11T16:50:50Z</time></rtept><rtept lat="37.585397" lon="-107.170484"><ele>2812.6</ele><time>2026-04-11T16:50:50Z</time></rtept><rtept lat="37.58547" lon="-107.170296"><ele>2816.2</ele><time>2026-04-11T16:50:50Z</time></rtept><rtept lat="37.585624" lon="-107.170264"><ele>2818.2</ele><time>2026-04-11T16:50:50Z</time></rtept><rtept lat="37.585696" lon="-107.170332"><ele>2819.0</ele><time>2026-04-11T16:50:50Z</time></rtept><rtept lat="37.585893" lon="-107.170199"><ele>2822.2</ele><time>2026-04-11T16:50:50Z</time></rtept><rtept lat="37.586134" lon="-107.170191"><ele>2825.8</ele><time>2026-04-11T16:50:50Z</time></rtept><rtept lat="37.5863" lon="-107.170121"><ele>2828.0</ele><time>2026-04-11T16:50:50Z</time></rtept><rtept lat="37.586398" lon="-107.169981"><ele>2827.8</ele><time>2026-04-11T16:50:50Z</time></rtept><rtept lat="37.586467" lon="-107.169966"><ele>2828.4</ele><time>2026-04-11T16:50:50Z</time></rtept><rtept lat="37.586582" lon="-107.169748"><ele>2828.6</ele><time>2026-04-11T16:50:50Z</time></rtept><rtept lat="37.586746" lon="-107.169645"><ele>2828.6</ele><time>2026-04-11T16:50:50Z</time></rtept><rtept lat="37.586872" lon="-107.169481"><ele>2828.2</ele><time>2026-04-11T16:50:50Z</time></rtept><rtept lat="37.587091" lon="-107.169392"><ele>2828.8</ele><time>2026-04-11T16:50:50Z</time></rtept><rtept lat="37.587221" lon="-107.169239"><ele>2829.6</ele><time>2026-04-11T16:50:50Z</time></rtept><rtept lat="37.587398" lon="-107.169309"><ele>2831.4</ele><time>2026-04-11T16:50:50Z</time></rtept><rtept lat="37.587546" lon="-107.169177"><ele>2832.6</ele><time>2026-04-11T16:50:50Z</time></rtept><rtept lat="37.587938" lon="-107.169151"><ele>2836.0</ele><time>2026-04-11T16:50:50Z</time></rtept><rtept lat="37.588062" lon="-107.169217"><ele>2836.8</ele><time>2026-04-11T16:50:50Z</time></rtept><rtept lat="37.588253" lon="-107.169202"><ele>2837.6</ele><time>2026-04-11T16:50:50Z</time></rtept><rtept lat="37.58837" lon="-107.169088"><ele>2838.6</ele><time>2026-04-11T16:50:50Z</time></rtept><rtept lat="37.58838" lon="-107.169013"><ele>2838.4</ele><time>2026-04-11T16:50:50Z</time></rtept><rtept lat="37.588778" lon="-107.168966"><ele>2842.4</ele><time>2026-04-11T16:50:50Z</time></rtept><rtept lat="37.58888" lon="-107.169065"><ele>2845.6</ele><time>2026-04-11T16:50:50Z</time></rtept><rtept lat="37.588928" lon="-107.168978"><ele>2845.4</ele><time>2026-04-11T16:50:50Z</time></rtept><rtept lat="37.589166" lon="-107.16895"><ele>2853.2</ele><time>2026-04-11T16:50:50Z</time></rtept><rtept lat="37.589436" lon="-107.168833"><ele>2856.6</ele><time>2026-04-11T16:50:50Z</time></rtept><rtept lat="37.589496" lon="-107.168889"><ele>2856.8</ele><time>2026-04-11T16:50:50Z</time></rtept><rtept lat="37.589751" lon="-107.168804"><ele>2858.4</ele><time>2026-04-11T16:50:50Z</time></rtept><rtept lat="37.590159" lon="-107.168879"><ele>2864.2</ele><time>2026-04-11T16:50:50Z</time></rtept><rtept lat="37.590209" lon="-107.168834"><ele>2865.2</ele><time>2026-04-11T16:50:50Z</time></rtept><rtept lat="37.590197" lon="-107.168711"><ele>2864.4</ele><time>2026-04-11T16:50:50Z</time></rtept><rtept lat="37.590273" lon="-107.168643"><ele>2865.4</ele><time>2026-04-11T16:50:50Z</time></rtept><rtept lat="37.590255" lon="-107.168572"><ele>2864.6</ele><time>2026-04-11T16:50:50Z</time></rtept><rtept lat="37.590347" lon="-107.168418"><ele>2863.8</ele><time>2026-04-11T16:50:50Z</time></rtept><rtept lat="37.590653" lon="-107.168133"><ele>2863.6</ele><time>2026-04-11T16:50:50Z</time></rtept><rtept lat="37.590887" lon="-107.168192"><ele>2865.6</ele><time>2026-04-11T16:50:50Z</time></rtept><rtept lat="37.591055" lon="-107.168076"><ele>2865.4</ele><time>2026-04-11T16:50:50Z</time></rtept><rtept lat="37.591108" lon="-107.168119"><ele>2867.2</ele><time>2026-04-11T16:50:50Z</time></rtept><rtept lat="37.591152" lon="-107.168078"><ele>2865.8</ele><time>2026-04-11T16:50:50Z</time></rtept><rtept lat="37.591231" lon="-107.168145"><ele>2868.4</ele><time>2026-04-11T16:50:50Z</time></rtept><rtept lat="37.591347" lon="-107.168098"><ele>2867.6</ele><time>2026-04-11T16:50:50Z</time></rtept><rtept lat="37.5915" lon="-107.168119"><ele>2872.6</ele><time>2026-04-11T16:50:50Z</time></rtept><rtept lat="37.591565" lon="-107.168057"><ele>2871.4</ele><time>2026-04-11T16:50:50Z</time></rtept><rtept lat="37.591634" lon="-107.168092"><ele>2873.2</ele><time>2026-04-11T16:50:50Z</time></rtept><rtept lat="37.591815" lon="-107.167951"><ele>2876.2</ele><time>2026-04-11T16:50:50Z</time></rtept><rtept lat="37.591888" lon="-107.167816"><ele>2873.8</ele><time>2026-04-11T16:50:50Z</time></rtept><rtept lat="37.591969" lon="-107.167787"><ele>2875.8</ele><time>2026-04-11T16:50:50Z</time></rtept><rtept lat="37.592039" lon="-107.167647"><ele>2873.4</ele><time>2026-04-11T16:50:50Z</time></rtept><rtept lat="37.592212" lon="-107.167507"><ele>2875.0</ele><time>2026-04-11T16:50:50Z</time></rtept><rtept lat="37.592285" lon="-107.16751"><ele>2877.0</ele><time>2026-04-11T16:50:50Z</time></rtept><rtept lat="37.592481" lon="-107.16714"><ele>2875.4</ele><time>2026-04-11T16:50:50Z</time></rtept><rtept lat="37.59258" lon="-107.167087"><ele>2877.2</ele><time>2026-04-11T16:50:50Z</time></rtept><rtept lat="37.592613" lon="-107.166641"><ele>2873.6</ele><time>2026-04-11T16:50:50Z</time></rtept><rtept lat="37.592766" lon="-107.16657"><ele>2878.0</ele><time>2026-04-11T16:50:50Z</time></rtept><rtept lat="37.5928" lon="-107.166464"><ele>2877.0</ele><time>2026-04-11T16:50:50Z</time></rtept><rtept lat="37.592982" lon="-107.166244"><ele>2881.0</ele><time>2026-04-11T16:50:50Z</time></rtept><rtept lat="37.59315" lon="-107.166135"><ele>2882.8</ele><time>2026-04-11T16:50:50Z</time></rtept><rtept lat="37.593181" lon="-107.165948"><ele>2883.0</ele><time>2026-04-11T16:50:50Z</time></rtept><rtept lat="37.59324" lon="-107.165965"><ele>2884.8</ele><time>2026-04-11T16:50:50Z</time></rtept><rtept lat="37.593399" lon="-107.165862"><ele>2888.0</ele><time>2026-04-11T16:50:50Z</time></rtept><rtept lat="37.593527" lon="-107.165878"><ele>2891.4</ele><time>2026-04-11T16:50:50Z</time></rtept><rtept lat="37.593712" lon="-107.16577"><ele>2896.0</ele><time>2026-04-11T16:50:50Z</time></rtept><rtept lat="37.594148" lon="-107.165167"><ele>2903.2</ele><time>2026-04-11T16:50:50Z</time></rtept><rtept lat="37.59438" lon="-107.165007"><ele>2907.8</ele><time>2026-04-11T16:50:50Z</time></rtept><rtept lat="37.594624" lon="-107.16472"><ele>2910.2</ele><time>2026-04-11T16:50:50Z</time></rtept><rtept lat="37.594643" lon="-107.164499"><ele>2908.2</ele><time>2026-04-11T16:50:50Z</time></rtept><rtept lat="37.594692" lon="-107.164401"><ele>2908.8</ele><time>2026-04-11T16:50:50Z</time></rtept><rtept lat="37.594664" lon="-107.164299"><ele>2908.2</ele><time>2026-04-11T16:50:50Z</time></rtept><rtept lat="37.594691" lon="-107.164129"><ele>2907.8</ele><time>2026-04-11T16:50:50Z</time></rtept><rtept lat="37.594916" lon="-107.163828"><ele>2911.2</ele><time>2026-04-11T16:50:50Z</time></rtept><rtept lat="37.594905" lon="-107.163636"><ele>2910.8</ele><time>2026-04-11T16:50:50Z</time></rtept><rtept lat="37.595018" lon="-107.163451"><ele>2912.8</ele><time>2026-04-11T16:50:50Z</time></rtept><rtept lat="37.595195" lon="-107.163317"><ele>2916.2</ele><time>2026-04-11T16:50:50Z</time></rtept><rtept lat="37.595252" lon="-107.16334"><ele>2916.2</ele><time>2026-04-11T16:50:50Z</time></rtept><rtept lat="37.595283" lon="-107.163241"><ele>2917.0</ele><time>2026-04-11T16:50:50Z</time></rtept><rtept lat="37.595517" lon="-107.163143"><ele>2921.4</ele><time>2026-04-11T16:50:50Z</time></rtept><rtept lat="37.595783" lon="-107.163117"><ele>2928.6</ele><time>2026-04-11T16:50:50Z</time></rtept><rtept lat="37.595935" lon="-107.163204"><ele>2933.0</ele><time>2026-04-11T16:50:50Z</time></rtept><rtept lat="37.596175" lon="-107.162675"><ele>2936.8</ele><time>2026-04-11T16:50:50Z</time></rtept><rtept lat="37.596176" lon="-107.162523"><ele>2934.0</ele><time>2026-04-11T16:50:50Z</time></rtept><rtept lat="37.59628" lon="-107.16237"><ele>2937.0</ele><time>2026-04-11T16:50:50Z</time></rtept><rtept lat="37.596314" lon="-107.162179"><ele>2932.0</ele><time>2026-04-11T16:50:50Z</time></rtept><rtept lat="37.596569" lon="-107.161802"><ele>2933.0</ele><time>2026-04-11T16:50:50Z</time></rtept><rtept lat="37.59657" lon="-107.161697"><ele>2930.8</ele><time>2026-04-11T16:50:50Z</time></rtept><rtept lat="37.596733" lon="-107.161517"><ele>2930.2</ele><time>2026-04-11T16:50:50Z</time></rtept><rtept lat="37.596893" lon="-107.161206"><ele>2927.4</ele><time>2026-04-11T16:50:50Z</time></rtept><rtept lat="37.596917" lon="-107.161059"><ele>2925.4</ele><time>2026-04-11T16:50:50Z</time></rtept><rtept lat="37.597227" lon="-107.161041"><ele>2930.2</ele><time>2026-04-11T16:50:50Z</time></rtept><rtept lat="37.597394" lon="-107.160948"><ele>2934.0</ele><time>2026-04-11T16:50:50Z</time></rtept><rtept lat="37.597459" lon="-107.160818"><ele>2934.0</ele><time>2026-04-11T16:50:50Z</time></rtept><rtept lat="37.597536" lon="-107.160814"><ele>2934.2</ele><time>2026-04-11T16:50:50Z</time></rtept><rtept lat="37.597772" lon="-107.160631"><ele>2935.8</ele><time>2026-04-11T16:50:50Z</time></rtept><rtept lat="37.597929" lon="-107.160634"><ele>2940.8</ele><time>2026-04-11T16:50:50Z</time></rtept><rtept lat="37.598096" lon="-107.160453"><ele>2940.0</ele><time>2026-04-11T16:50:50Z</time></rtept><rtept lat="37.59818" lon="-107.160485"><ele>2943.4</ele><time>2026-04-11T16:50:50Z</time></rtept><rtept lat="37.598468" lon="-107.160252"><ele>2943.2</ele><time>2026-04-11T16:50:50Z</time></rtept><rtept lat="37.598592" lon="-107.160088"><ele>2940.4</ele><time>2026-04-11T16:50:50Z</time></rtept><rtept lat="37.599144" lon="-107.159785"><ele>2944.4</ele><time>2026-04-11T16:50:50Z</time></rtept><rtept lat="37.599233" lon="-107.159643"><ele>2945.2</ele><time>2026-04-11T16:50:50Z</time></rtept><rtept lat="37.599378" lon="-107.159092"><ele>2942.4</ele><time>2026-04-11T16:50:50Z</time></rtept><rtept lat="37.599454" lon="-107.159017"><ele>2944.6</ele><time>2026-04-11T16:50:50Z</time></rtept><rtept lat="37.599425" lon="-107.158911"><ele>2942.4</ele><time>2026-04-11T16:50:50Z</time></rtept><rtept lat="37.599579" lon="-107.158524"><ele>2943.2</ele><time>2026-04-11T16:50:50Z</time></rtept><rtept lat="37.599574" lon="-107.158445"><ele>2942.6</ele><time>2026-04-11T16:50:50Z</time></rtept><rtept lat="37.599669" lon="-107.158341"><ele>2943.8</ele><time>2026-04-11T16:50:50Z</time></rtept><rtept lat="37.599847" lon="-107.157967"><ele>2945.4</ele><time>2026-04-11T16:50:50Z</time></rtept><rtept lat="37.599937" lon="-107.15794"><ele>2947.2</ele><time>2026-04-11T16:50:50Z</time></rtept><rtept lat="37.600048" lon="-107.157795"><ele>2948.8</ele><time>2026-04-11T16:50:50Z</time></rtept><rtept lat="37.600062" lon="-107.15783"><ele>2950.2</ele><time>2026-04-11T16:50:50Z</time></rtept><rtept lat="37.599983" lon="-107.158304"><ele>2954.0</ele><time>2026-04-11T16:50:50Z</time></rtept><rtept lat="37.60004" lon="-107.158478"><ele>2959.6</ele><time>2026-04-11T16:50:50Z</time></rtept><rtept lat="37.600013" lon="-107.158548"><ele>2956.6</ele><time>2026-04-11T16:50:50Z</time></rtept><rtept lat="37.600064" lon="-107.158617"><ele>2961.0</ele><time>2026-04-11T16:50:50Z</time></rtept><rtept lat="37.600256" lon="-107.158557"><ele>2966.0</ele><time>2026-04-11T16:50:50Z</time></rtept><rtept lat="37.600709" lon="-107.158678"><ele>2973.2</ele><time>2026-04-11T16:50:50Z</time></rtept><rtept lat="37.60074" lon="-107.158448"><ele>2971.0</ele><time>2026-04-11T16:50:50Z</time></rtept><rtept lat="37.600894" lon="-107.158387"><ele>2971.0</ele><time>2026-04-11T16:50:50Z</time></rtept><rtept lat="37.601044" lon="-107.15846"><ele>2973.0</ele><time>2026-04-11T16:50:50Z</time></rtept><rtept lat="37.601189" lon="-107.158428"><ele>2974.0</ele><time>2026-04-11T16:50:50Z</time></rtept><rtept lat="37.601281" lon="-107.158514"><ele>2976.4</ele><time>2026-04-11T16:50:50Z</time></rtept><rtept lat="37.601449" lon="-107.158159"><ele>2969.4</ele><time>2026-04-11T16:50:50Z</time></rtept><rtept lat="37.601535" lon="-107.158114"><ele>2967.2</ele><time>2026-04-11T16:50:50Z</time></rtept><rtept lat="37.601683" lon="-107.158177"><ele>2973.2</ele><time>2026-04-11T16:50:50Z</time></rtept><rtept lat="37.601765" lon="-107.158157"><ele>2974.4</ele><time>2026-04-11T16:50:50Z</time></rtept><rtept lat="37.601931" lon="-107.157959"><ele>2969.2</ele><time>2026-04-11T16:50:50Z</time></rtept><rtept lat="37.602187" lon="-107.157767"><ele>2967.0</ele><time>2026-04-11T16:50:50Z</time></rtept><rtept lat="37.602375" lon="-107.157767"><ele>2970.0</ele><time>2026-04-11T16:50:50Z</time></rtept><rtept lat="37.602523" lon="-107.157677"><ele>2968.6</ele><time>2026-04-11T16:50:50Z</time></rtept><rtept lat="37.602589" lon="-107.157716"><ele>2969.4</ele><time>2026-04-11T16:50:50Z</time></rtept><rtept lat="37.602766" lon="-107.157579"><ele>2969.0</ele><time>2026-04-11T16:50:50Z</time></rtept><rtept lat="37.602989" lon="-107.157608"><ele>2972.8</ele><time>2026-04-11T16:50:50Z</time></rtept><rtept lat="37.603164" lon="-107.157521"><ele>2972.6</ele><time>2026-04-11T16:50:50Z</time></rtept><rtept lat="37.603313" lon="-107.157584"><ele>2979.8</ele><time>2026-04-11T16:50:50Z</time></rtept><rtept lat="37.603775" lon="-107.157331"><ele>2983.0</ele><time>2026-04-11T16:50:50Z</time></rtept><rtept lat="37.603891" lon="-107.157381"><ele>2987.0</ele><time>2026-04-11T16:50:50Z</time></rtept><rtept lat="37.604155" lon="-107.157064"><ele>2993.4</ele><time>2026-04-11T16:50:50Z</time></rtept><rtept lat="37.604282" lon="-107.156686"><ele>2990.4</ele><time>2026-04-11T16:50:50Z</time></rtept><rtept lat="37.604445" lon="-107.15651"><ele>3002.0</ele><time>2026-04-11T16:50:50Z</time></rtept><rtept lat="37.604449" lon="-107.156193"><ele>2997.2</ele><time>2026-04-11T16:50:50Z</time></rtept><rtept lat="37.604494" lon="-107.156153"><ele>2996.2</ele><time>2026-04-11T16:50:50Z</time></rtept><rtept lat="37.604481" lon="-107.156084"><ele>2995.2</ele><time>2026-04-11T16:50:50Z</time></rtept><rtept lat="37.604603" lon="-107.155771"><ele>2999.2</ele><time>2026-04-11T16:50:50Z</time></rtept><rtept lat="37.604863" lon="-107.155566"><ele>3004.0</ele><time>2026-04-11T16:50:50Z</time></rtept><rtept lat="37.604863" lon="-107.155566"><ele>3004.0</ele><time>2026-04-11T16:50:50Z</time></rtept><rtept lat="37.605065" lon="-107.155676"><ele>3010.800000000001</ele><time>2026-04-11T16:50:50Z</time></rtept><rtept lat="37.605379" lon="-107.155948"><ele>3019.4000000000015</ele><time>2026-04-11T16:50:50Z</time></rtept><rtept lat="37.605492" lon="-107.155971"><ele>3020.0</ele><time>2026-04-11T16:50:50Z</time></rtept><rtept lat="37.605668" lon="-107.15617"><ele>3024.0</ele><time>2026-04-11T16:50:50Z</time></rtept><rtept lat="37.605674" lon="-107.156241"><ele>3026.4000000000015</ele><time>2026-04-11T16:50:50Z</time></rtept><rtept lat="37.605883" lon="-107.156356"><ele>3030.800000000001</ele><time>2026-04-11T16:50:50Z</time></rtept><rtept lat="37.606236" lon="-107.156206"><ele>3025.6000000000004</ele><time>2026-04-11T16:50:50Z</time></rtept><rtept lat="37.606401" lon="-107.15626"><ele>3024.800000000001</ele><time>2026-04-11T16:50:50Z</time></rtept><rtept lat="37.606499" lon="-107.156235"><ele>3024.2000000000007</ele><time>2026-04-11T16:50:50Z</time></rtept><rtept lat="37.606702" lon="-107.156369"><ele>3030.4000000000015</ele><time>2026-04-11T16:50:50Z</time></rtept><rtept lat="37.606906" lon="-107.156335"><ele>3030.0</ele><time>2026-04-11T16:50:50Z</time></rtept><rtept lat="37.607284" lon="-107.156409"><ele>3035.6000000000004</ele><time>2026-04-11T16:50:50Z</time></rtept><rtept lat="37.607317" lon="-107.156602"><ele>3039.800000000001</ele><time>2026-04-11T16:50:50Z</time></rtept><rtept lat="37.60729" lon="-107.156625"><ele>3041.0</ele><time>2026-04-11T16:50:50Z</time></rtept><rtept lat="37.607334" lon="-107.156701"><ele>3042.800000000001</ele><time>2026-04-11T16:50:50Z</time></rtept><rtept lat="37.607471" lon="-107.156769"><ele>3043.2000000000007</ele><time>2026-04-11T16:50:50Z</time></rtept><rtept lat="37.607636" lon="-107.157154"><ele>3051.0</ele><time>2026-04-11T16:50:50Z</time></rtept><rtept lat="37.607808" lon="-107.157113"><ele>3048.4000000000015</ele><time>2026-04-11T16:50:50Z</time></rtept><rtept lat="37.607885" lon="-107.157252"><ele>3054.2000000000007</ele><time>2026-04-11T16:50:50Z</time></rtept><rtept lat="37.608071" lon="-107.157371"><ele>3058.0</ele><time>2026-04-11T16:50:50Z</time></rtept><rtept lat="37.608524" lon="-107.157155"><ele>3056.4000000000015</ele><time>2026-04-11T16:50:50Z</time></rtept><rtept lat="37.608674" lon="-107.157225"><ele>3063.2000000000007</ele><time>2026-04-11T16:50:50Z</time></rtept><rtept lat="37.608699" lon="-107.157285"><ele>3063.2000000000007</ele><time>2026-04-11T16:50:50Z</time></rtept><rtept lat="37.608824" lon="-107.157237"><ele>3066.6000000000004</ele><time>2026-04-11T16:50:50Z</time></rtept><rtept lat="37.608963" lon="-107.157107"><ele>3062.0</ele><time>2026-04-11T16:50:50Z</time></rtept><rtept lat="37.609052" lon="-107.156919"><ele>3054.6000000000004</ele><time>2026-04-11T16:50:50Z</time></rtept><rtept lat="37.609223" lon="-107.156996"><ele>3063.4000000000015</ele><time>2026-04-11T16:50:50Z</time></rtept><rtept lat="37.609377" lon="-107.156956"><ele>3065.0</ele><time>2026-04-11T16:50:50Z</time></rtept><rtept lat="37.609533" lon="-107.157045"><ele>3069.2000000000007</ele><time>2026-04-11T16:50:50Z</time></rtept><rtept lat="37.609695" lon="-107.156999"><ele>3068.0</ele><time>2026-04-11T16:50:50Z</time></rtept><rtept lat="37.609883" lon="-107.157041"><ele>3071.6000000000004</ele><time>2026-04-11T16:50:50Z</time></rtept><rtept lat="37.610235" lon="-107.156881"><ele>3066.6000000000004</ele><time>2026-04-11T16:50:50Z</time></rtept><rtept lat="37.610277" lon="-107.156992"><ele>3069.2000000000007</ele><time>2026-04-11T16:50:50Z</time></rtept><rtept lat="37.610492" lon="-107.157124"><ele>3070.4000000000015</ele><time>2026-04-11T16:50:50Z</time></rtept><rtept lat="37.610665" lon="-107.157082"><ele>3070.2000000000007</ele><time>2026-04-11T16:50:50Z</time></rtept><rtept lat="37.610916" lon="-107.157232"><ele>3080.4000000000015</ele><time>2026-04-11T16:50:50Z</time></rtept><rtept lat="37.611058" lon="-107.157183"><ele>3079.4000000000015</ele><time>2026-04-11T16:50:50Z</time></rtept><rtept lat="37.611278" lon="-107.156997"><ele>3075.800000000001</ele><time>2026-04-11T16:50:50Z</time></rtept><rtept lat="37.61137" lon="-107.157075"><ele>3079.2000000000007</ele><time>2026-04-11T16:50:50Z</time></rtept><rtept lat="37.611554" lon="-107.157121"><ele>3080.4000000000015</ele><time>2026-04-11T16:50:50Z</time></rtept><rtept lat="37.611952" lon="-107.157144"><ele>3086.0</ele><time>2026-04-11T16:50:50Z</time></rtept><rtept lat="37.612058" lon="-107.15724"><ele>3089.2000000000007</ele><time>2026-04-11T16:50:50Z</time></rtept><rtept lat="37.612344" lon="-107.157135"><ele>3087.800000000001</ele><time>2026-04-11T16:50:50Z</time></rtept><rtept lat="37.612639" lon="-107.157195"><ele>3092.0</ele><time>2026-04-11T16:50:50Z</time></rtept><rtept lat="37.612785" lon="-107.157367"><ele>3093.4000000000015</ele><time>2026-04-11T16:50:50Z</time></rtept><rtept lat="37.613049" lon="-107.157494"><ele>3097.6000000000004</ele><time>2026-04-11T16:50:50Z</time></rtept><rtept lat="37.613215" lon="-107.157662"><ele>3100.4000000000015</ele><time>2026-04-11T16:50:50Z</time></rtept><rtept lat="37.613353" lon="-107.157925"><ele>3104.4000000000015</ele><time>2026-04-11T16:50:50Z</time></rtept><rtept lat="37.6136" lon="-107.158091"><ele>3107.800000000001</ele><time>2026-04-11T16:50:50Z</time></rtept><rtept lat="37.613718" lon="-107.158277"><ele>3111.4000000000015</ele><time>2026-04-11T16:50:50Z</time></rtept><rtept lat="37.61383" lon="-107.158238"><ele>3108.6000000000004</ele><time>2026-04-11T16:50:50Z</time></rtept><rtept lat="37.614076" lon="-107.158396"><ele>3110.2000000000007</ele><time>2026-04-11T16:50:50Z</time></rtept><rtept lat="37.614169" lon="-107.158661"><ele>3111.800000000001</ele><time>2026-04-11T16:50:50Z</time></rtept><rtept lat="37.614193" lon="-107.158876"><ele>3115.800000000001</ele><time>2026-04-11T16:50:50Z</time></rtept><rtept lat="37.614259" lon="-107.15899"><ele>3116.4000000000015</ele><time>2026-04-11T16:50:50Z</time></rtept><rtept lat="37.614347" lon="-107.159009"><ele>3115.4000000000015</ele><time>2026-04-11T16:50:50Z</time></rtept><rtept lat="37.614446" lon="-107.158913"><ele>3116.2000000000007</ele><time>2026-04-11T16:50:50Z</time></rtept><rtept lat="37.614622" lon="-107.158949"><ele>3119.0</ele><time>2026-04-11T16:50:50Z</time></rtept><rtept lat="37.614677" lon="-107.159029"><ele>3120.0</ele><time>2026-04-11T16:50:50Z</time></rtept><rtept lat="37.614812" lon="-107.158957"><ele>3123.800000000001</ele><time>2026-04-11T16:50:50Z</time></rtept><rtept lat="37.614952" lon="-107.158992"><ele>3127.0</ele><time>2026-04-11T16:50:50Z</time></rtept><rtept lat="37.61522" lon="-107.158819"><ele>3136.0</ele><time>2026-04-11T16:50:50Z</time></rtept><rtept lat="37.615421" lon="-107.158888"><ele>3139.0</ele><time>2026-04-11T16:50:50Z</time></rtept><rtept lat="37.615563" lon="-107.159358"><ele>3132.0</ele><time>2026-04-11T16:50:50Z</time></rtept><rtept lat="37.615712" lon="-107.159459"><ele>3133.0</ele><time>2026-04-11T16:50:50Z</time></rtept><rtept lat="37.615772" lon="-107.159621"><ele>3136.800000000001</ele><time>2026-04-11T16:50:50Z</time></rtept><rtept lat="37.615726" lon="-107.1599"><ele>3140.6000000000004</ele><time>2026-04-11T16:50:50Z</time></rtept><rtept lat="37.615644" lon="-107.160093"><ele>3141.4000000000015</ele><time>2026-04-11T16:50:50Z</time></rtept><rtept lat="37.615692" lon="-107.160117"><ele>3143.2000000000007</ele><time>2026-04-11T16:50:50Z</time></rtept><rtept lat="37.615766" lon="-107.159948"><ele>3142.4000000000015</ele><time>2026-04-11T16:50:50Z</time></rtept><rtept lat="37.615875" lon="-107.159991"><ele>3148.0</ele><time>2026-04-11T16:50:50Z</time></rtept><rtept lat="37.616148" lon="-107.160381"><ele>3163.0</ele><time>2026-04-11T16:50:50Z</time></rtept><rtept lat="37.616072" lon="-107.160955"><ele>3167.800000000001</ele><time>2026-04-11T16:50:50Z</time></rtept><rtept lat="37.615945" lon="-107.16117"><ele>3166.800000000001</ele><time>2026-04-11T16:50:50Z</time></rtept><rtept lat="37.615937" lon="-107.161287"><ele>3168.0</ele><time>2026-04-11T16:50:50Z</time></rtept><rtept lat="37.616001" lon="-107.161357"><ele>3171.0</ele><time>2026-04-11T16:50:50Z</time></rtept><rtept lat="37.616026" lon="-107.161517"><ele>3172.800000000001</ele><time>2026-04-11T16:50:50Z</time></rtept><rtept lat="37.61621" lon="-107.161665"><ele>3177.6000000000004</ele><time>2026-04-11T16:50:50Z</time></rtept><rtept lat="37.616249" lon="-107.161806"><ele>3179.0</ele><time>2026-04-11T16:50:50Z</time></rtept><rtept lat="37.616379" lon="-107.161714"><ele>3181.0</ele><time>2026-04-11T16:50:50Z</time></rtept><rtept lat="37.616323" lon="-107.161582"><ele>3178.6000000000004</ele><time>2026-04-11T16:50:50Z</time></rtept><rtept lat="37.616407" lon="-107.161302"><ele>3178.6000000000004</ele><time>2026-04-11T16:50:50Z</time></rtept><rtept lat="37.61653" lon="-107.161242"><ele>3181.800000000001</ele><time>2026-04-11T16:50:50Z</time></rtept><rtept lat="37.616579" lon="-107.161112"><ele>3183.6000000000004</ele><time>2026-04-11T16:50:50Z</time></rtept><rtept lat="37.616634" lon="-107.161084"><ele>3185.800000000001</ele><time>2026-04-11T16:50:50Z</time></rtept><rtept lat="37.616754" lon="-107.161133"><ele>3190.800000000001</ele><time>2026-04-11T16:50:50Z</time></rtept><rtept lat="37.616949" lon="-107.161315"><ele>3196.0</ele><time>2026-04-11T16:50:50Z</time></rtept><rtept lat="37.616999" lon="-107.161469"><ele>3198.0</ele><time>2026-04-11T16:50:50Z</time></rtept><rtept lat="37.616989" lon="-107.161611"><ele>3198.0</ele><time>2026-04-11T16:50:50Z</time></rtept><rtept lat="37.617275" lon="-107.162033"><ele>3206.6000000000004</ele><time>2026-04-11T16:50:50Z</time></rtept><rtept lat="37.617246" lon="-107.163274"><ele>3215.6000000000004</ele><time>2026-04-11T16:50:50Z</time></rtept><rtept lat="37.616789" lon="-107.164399"><ele>3218.0</ele><time>2026-04-11T16:50:50Z</time></rtept><rtept lat="37.616755" lon="-107.164551"><ele>3219.0</ele><time>2026-04-11T16:50:50Z</time></rtept><rtept lat="37.616806" lon="-107.164834"><ele>3219.6000000000004</ele><time>2026-04-11T16:50:50Z</time></rtept><rtept lat="37.616774" lon="-107.164976"><ele>3220.0</ele><time>2026-04-11T16:50:50Z</time></rtept><rtept lat="37.616498" lon="-107.165151"><ele>3218.800000000001</ele><time>2026-04-11T16:50:50Z</time></rtept><rtept lat="37.616401" lon="-107.165133"><ele>3217.2000000000007</ele><time>2026-04-11T16:50:50Z</time></rtept><rtept lat="37.616294" lon="-107.16554"><ele>3222.800000000001</ele><time>2026-04-11T16:50:50Z</time></rtept><rtept lat="37.616217" lon="-107.165612"><ele>3221.6000000000004</ele><time>2026-04-11T16:50:50Z</time></rtept><rtept lat="37.61624" lon="-107.165827"><ele>3223.2000000000007</ele><time>2026-04-11T16:50:50Z</time></rtept><rtept lat="37.616203" lon="-107.166002"><ele>3222.4000000000015</ele><time>2026-04-11T16:50:50Z</time></rtept><rtept lat="37.616281" lon="-107.166174"><ele>3225.4000000000015</ele><time>2026-04-11T16:50:50Z</time></rtept><rtept lat="37.616226" lon="-107.16628"><ele>3223.800000000001</ele><time>2026-04-11T16:50:50Z</time></rtept><rtept lat="37.616226" lon="-107.166523"><ele>3223.2000000000007</ele><time>2026-04-11T16:50:50Z</time></rtept><rtept lat="37.616262" lon="-107.166595"><ele>3223.0</ele><time>2026-04-11T16:50:50Z</time></rtept><rtept lat="37.616462" lon="-107.166664"><ele>3227.0</ele><time>2026-04-11T16:50:50Z</time></rtept><rtept lat="37.616571" lon="-107.166857"><ele>3228.800000000001</ele><time>2026-04-11T16:50:50Z</time></rtept><rtept lat="37.616778" lon="-107.166847"><ele>3232.2000000000007</ele><time>2026-04-11T16:50:50Z</time></rtept><rtept lat="37.616913" lon="-107.166395"><ele>3236.4000000000015</ele><time>2026-04-11T16:50:50Z</time></rtept><rtept lat="37.616789" lon="-107.166048"><ele>3234.6000000000004</ele><time>2026-04-11T16:50:50Z</time></rtept><rtept lat="37.616878" lon="-107.165803"><ele>3234.800000000001</ele><time>2026-04-11T16:50:50Z</time></rtept><rtept lat="37.617005" lon="-107.165683"><ele>3234.6000000000004</ele><time>2026-04-11T16:50:50Z</time></rtept><rtept lat="37.617218" lon="-107.16562"><ele>3235.2000000000007</ele><time>2026-04-11T16:50:50Z</time></rtept><rtept lat="37.617485" lon="-107.165375"><ele>3239.4000000000015</ele><time>2026-04-11T16:50:50Z</time></rtept><rtept lat="37.617557" lon="-107.165401"><ele>3240.6000000000004</ele><time>2026-04-11T16:50:50Z</time></rtept><rtept lat="37.617658" lon="-107.165553"><ele>3243.4000000000015</ele><time>2026-04-11T16:50:50Z</time></rtept><rtept lat="37.617842" lon="-107.165538"><ele>3247.2000000000007</ele><time>2026-04-11T16:50:50Z</time></rtept><rtept lat="37.617924" lon="-107.165607"><ele>3248.4000000000015</ele><time>2026-04-11T16:50:50Z</time></rtept><rtept lat="37.618029" lon="-107.165557"><ele>3249.4000000000015</ele><time>2026-04-11T16:50:50Z</time></rtept><rtept lat="37.618092" lon="-107.165564"><ele>3250.6000000000004</ele><time>2026-04-11T16:50:50Z</time></rtept><rtept lat="37.618133" lon="-107.165472"><ele>3251.4000000000015</ele><time>2026-04-11T16:50:50Z</time></rtept><rtept lat="37.618192" lon="-107.16521"><ele>3252.800000000001</ele><time>2026-04-11T16:50:50Z</time></rtept><rtept lat="37.618245" lon="-107.165084"><ele>3254.2000000000007</ele><time>2026-04-11T16:50:50Z</time></rtept><rtept lat="37.618298" lon="-107.164927"><ele>3254.2000000000007</ele><time>2026-04-11T16:50:50Z</time></rtept><rtept lat="37.618388" lon="-107.164799"><ele>3256.800000000001</ele><time>2026-04-11T16:50:50Z</time></rtept><rtept lat="37.618543" lon="-107.164611"><ele>3259.2000000000007</ele><time>2026-04-11T16:50:50Z</time></rtept><rtept lat="37.618798" lon="-107.164434"><ele>3265.0</ele><time>2026-04-11T16:50:50Z</time></rtept><rtept lat="37.619052" lon="-107.164227"><ele>3269.2000000000007</ele><time>2026-04-11T16:50:50Z</time></rtept><rtept lat="37.619265" lon="-107.164033"><ele>3276.6000000000004</ele><time>2026-04-11T16:50:50Z</time></rtept><rtept lat="37.619454" lon="-107.163763"><ele>3280.0</ele><time>2026-04-11T16:50:50Z</time></rtept><rtept lat="37.619618" lon="-107.163477"><ele>3286.6000000000004</ele><time>2026-04-11T16:50:50Z</time></rtept><rtept lat="37.619764" lon="-107.163123"><ele>3290.4000000000015</ele><time>2026-04-11T16:50:50Z</time></rtept><rtept lat="37.620067" lon="-107.162594"><ele>3299.0</ele><time>2026-04-11T16:50:50Z</time></rtept><rtept lat="37.620154" lon="-107.162235"><ele>3304.2000000000007</ele><time>2026-04-11T16:50:50Z</time></rtept><rtept lat="37.620508" lon="-107.161732"><ele>3315.4000000000015</ele><time>2026-04-11T16:50:50Z</time></rtept><rtept lat="37.620673" lon="-107.16154"><ele>3317.0</ele><time>2026-04-11T16:50:50Z</time></rtept><rtept lat="37.620803" lon="-107.161451"><ele>3319.800000000001</ele><time>2026-04-11T16:50:50Z</time></rtept><rtept lat="37.620942" lon="-107.161294"><ele>3317.4000000000015</ele><time>2026-04-11T16:50:50Z</time></rtept><rtept lat="37.621089" lon="-107.161208"><ele>3318.0</ele><time>2026-04-11T16:50:50Z</time></rtept><rtept lat="37.621297" lon="-107.161007"><ele>3321.2000000000007</ele><time>2026-04-11T16:50:50Z</time></rtept><rtept lat="37.621417" lon="-107.160837"><ele>3323.0</ele><time>2026-04-11T16:50:50Z</time></rtept><rtept lat="37.621548" lon="-107.160721"><ele>3324.800000000001</ele><time>2026-04-11T16:50:50Z</time></rtept><rtept lat="37.621675" lon="-107.160574"><ele>3328.6000000000004</ele><time>2026-04-11T16:50:50Z</time></rtept><rtept lat="37.621739" lon="-107.160465"><ele>3330.0</ele><time>2026-04-11T16:50:50Z</time></rtept><rtept lat="37.621875" lon="-107.160313"><ele>3334.0</ele><time>2026-04-11T16:50:50Z</time></rtept><rtept lat="37.621895" lon="-107.160263"><ele>3333.800000000001</ele><time>2026-04-11T16:50:50Z</time></rtept><rtept lat="37.621877" lon="-107.160159"><ele>3334.0</ele><time>2026-04-11T16:50:50Z</time></rtept><rtept lat="37.621898" lon="-107.159999"><ele>3333.800000000001</ele><time>2026-04-11T16:50:50Z</time></rtept><rtept lat="37.621987" lon="-107.159918"><ele>3335.4000000000015</ele><time>2026-04-11T16:50:50Z</time></rtept><rtept lat="37.622148" lon="-107.15985"><ele>3336.4000000000015</ele><time>2026-04-11T16:50:50Z</time></rtept><rtept lat="37.622363" lon="-107.159863"><ele>3339.4000000000015</ele><time>2026-04-11T16:50:50Z</time></rtept><rtept lat="37.622543" lon="-107.159931"><ele>3343.6000000000004</ele><time>2026-04-11T16:50:50Z</time></rtept><rtept lat="37.622676" lon="-107.160061"><ele>3347.2000000000007</ele><time>2026-04-11T16:50:50Z</time></rtept><rtept lat="37.622724" lon="-107.160044"><ele>3347.2000000000007</ele><time>2026-04-11T16:50:50Z</time></rtept><rtept lat="37.622767" lon="-107.160042"><ele>3344.4000000000015</ele><time>2026-04-11T16:50:50Z</time></rtept><rtept lat="37.622891" lon="-107.160157"><ele>3348.4000000000015</ele><time>2026-04-11T16:50:50Z</time></rtept><rtept lat="37.622995" lon="-107.160211"><ele>3347.4000000000015</ele><time>2026-04-11T16:50:50Z</time></rtept><rtept lat="37.623024" lon="-107.1602"><ele>3346.2000000000007</ele><time>2026-04-11T16:50:50Z</time></rtept><rtept lat="37.623099" lon="-107.160142"><ele>3345.0</ele><time>2026-04-11T16:50:50Z</time></rtept><rtept lat="37.623134" lon="-107.160053"><ele>3341.6000000000004</ele><time>2026-04-11T16:50:50Z</time></rtept><rtept lat="37.623185" lon="-107.160004"><ele>3339.800000000001</ele><time>2026-04-11T16:50:50Z</time></rtept><rtept lat="37.623228" lon="-107.159999"><ele>3340.6000000000004</ele><time>2026-04-11T16:50:50Z</time></rtept><rtept lat="37.623238" lon="-107.159971"><ele>3340.6000000000004</ele><time>2026-04-11T16:50:50Z</time></rtept><rtept lat="37.623276" lon="-107.159722"><ele>3345.4000000000015</ele><time>2026-04-11T16:50:50Z</time></rtept><rtept lat="37.623429" lon="-107.159723"><ele>3349.800000000001</ele><time>2026-04-11T16:50:50Z</time></rtept><rtept lat="37.623575" lon="-107.15979"><ele>3352.6000000000004</ele><time>2026-04-11T16:50:50Z</time></rtept><rtept lat="37.623608" lon="-107.159827"><ele>3352.6000000000004</ele><time>2026-04-11T16:50:50Z</time></rtept><rtept lat="37.623667" lon="-107.159844"><ele>3354.800000000001</ele><time>2026-04-11T16:50:50Z</time></rtept><rtept lat="37.623692" lon="-107.159791"><ele>3357.800000000001</ele><time>2026-04-11T16:50:50Z</time></rtept><rtept lat="37.623715" lon="-107.159692"><ele>3363.2000000000007</ele><time>2026-04-11T16:50:50Z</time></rtept><rtept lat="37.62374" lon="-107.159531"><ele>3365.2000000000007</ele><time>2026-04-11T16:50:50Z</time></rtept><rtept lat="37.623737" lon="-107.159411"><ele>3368.4000000000015</ele><time>2026-04-11T16:50:50Z</time></rtept><rtept lat="37.623755" lon="-107.159337"><ele>3372.6000000000004</ele><time>2026-04-11T16:50:50Z</time></rtept><rtept lat="37.623696" lon="-107.159214"><ele>3371.0</ele><time>2026-04-11T16:50:50Z</time></rtept><rtept lat="37.62368" lon="-107.158979"><ele>3371.0</ele><time>2026-04-11T16:50:50Z</time></rtept><rtept lat="37.6237" lon="-107.158859"><ele>3375.800000000001</ele><time>2026-04-11T16:50:50Z</time></rtept><rtept lat="37.623691" lon="-107.158773"><ele>3377.0</ele><time>2026-04-11T16:50:50Z</time></rtept><rtept lat="37.623671" lon="-107.15868"><ele>3375.4000000000015</ele><time>2026-04-11T16:50:50Z</time></rtept><rtept lat="37.623602" lon="-107.158506"><ele>3375.800000000001</ele><time>2026-04-11T16:50:50Z</time></rtept><rtept lat="37.623571" lon="-107.158407"><ele>3379.2000000000007</ele><time>2026-04-11T16:50:50Z</time></rtept><rtept lat="37.623564" lon="-107.158343"><ele>3379.2000000000007</ele><time>2026-04-11T16:50:50Z</time></rtept><rtept lat="37.623572" lon="-107.15832"><ele>3380.800000000001</ele><time>2026-04-11T16:50:50Z</time></rtept><rtept lat="37.623597" lon="-107.15832"><ele>3380.800000000001</ele><time>2026-04-11T16:50:50Z</time></rtept><rtept lat="37.623664" lon="-107.158382"><ele>3382.0</ele><time>2026-04-11T16:50:50Z</time></rtept><rtept lat="37.623919" lon="-107.158669"><ele>3388.2000000000007</ele><time>2026-04-11T16:50:50Z</time></rtept><rtept lat="37.623962" lon="-107.158699"><ele>3390.2000000000007</ele><time>2026-04-11T16:50:50Z</time></rtept><rtept lat="37.623978" lon="-107.158689"><ele>3390.2000000000007</ele><time>2026-04-11T16:50:50Z</time></rtept><rtept lat="37.623982" lon="-107.158641"><ele>3391.2000000000007</ele><time>2026-04-11T16:50:50Z</time></rtept><rtept lat="37.623954" lon="-107.158508"><ele>3392.4000000000015</ele><time>2026-04-11T16:50:50Z</time></rtept><rtept lat="37.623931" lon="-107.158332"><ele>3393.0</ele><time>2026-04-11T16:50:50Z</time></rtept><rtept lat="37.623895" lon="-107.158181"><ele>3396.800000000001</ele><time>2026-04-11T16:50:50Z</time></rtept><rtept lat="37.62385" lon="-107.158082"><ele>3396.0</ele><time>2026-04-11T16:50:50Z</time></rtept><rtept lat="37.623772" lon="-107.157937"><ele>3396.4000000000015</ele><time>2026-04-11T16:50:50Z</time></rtept><rtept lat="37.623686" lon="-107.157733"><ele>3396.2000000000007</ele><time>2026-04-11T16:50:50Z</time></rtept><rtept lat="37.62359" lon="-107.157677"><ele>3390.800000000001</ele><time>2026-04-11T16:50:50Z</time></rtept><rtept lat="37.623497" lon="-107.157576"><ele>3388.800000000001</ele><time>2026-04-11T16:50:50Z</time></rtept><rtept lat="37.623306" lon="-107.157405"><ele>3380.800000000001</ele><time>2026-04-11T16:50:50Z</time></rtept><rtept lat="37.623167" lon="-107.157193"><ele>3380.800000000001</ele><time>2026-04-11T16:50:50Z</time></rtept><rtept lat="37.62295" lon="-107.156987"><ele>3376.0</ele><time>2026-04-11T16:50:50Z</time></rtept><rtept lat="37.622749" lon="-107.156712"><ele>3371.6000000000004</ele><time>2026-04-11T16:50:50Z</time></rtept><rtept lat="37.622557" lon="-107.156425"><ele>3370.6000000000004</ele><time>2026-04-11T16:50:50Z</time></rtept><rtept lat="37.622462" lon="-107.156097"><ele>3371.6000000000004</ele><time>2026-04-11T16:50:50Z</time></rtept><rtept lat="37.622418" lon="-107.155703"><ele>3373.4000000000015</ele><time>2026-04-11T16:50:50Z</time></rtept><rtept lat="37.622324" lon="-107.155296"><ele>3378.0</ele><time>2026-04-11T16:50:50Z</time></rtept><rtept lat="37.622301" lon="-107.154881"><ele>3381.2000000000007</ele><time>2026-04-11T16:50:50Z</time></rtept><rtept lat="37.622258" lon="-107.154486"><ele>3385.800000000001</ele><time>2026-04-11T16:50:50Z</time></rtept><rtept lat="37.622303" lon="-107.154145"><ele>3388.2000000000007</ele><time>2026-04-11T16:50:50Z</time></rtept><rtept lat="37.622322" lon="-107.153748"><ele>3396.800000000001</ele><time>2026-04-11T16:50:50Z</time></rtept><rtept lat="37.622174" lon="-107.152822"><ele>3389.6000000000004</ele><time>2026-04-11T16:50:50Z</time></rtept><rtept lat="37.6221" lon="-107.152061"><ele>3391.2000000000007</ele><time>2026-04-11T16:50:50Z</time></rtept><rtept lat="37.62211" lon="-107.151685"><ele>3391.0</ele><time>2026-04-11T16:50:50Z</time></rtept><rtept lat="37.621971" lon="-107.151229"><ele>3386.6000000000004</ele><time>2026-04-11T16:50:50Z</time></rtept><rtept lat="37.621934" lon="-107.150928"><ele>3386.6000000000004</ele><time>2026-04-11T16:50:50Z</time></rtept><rtept lat="37.622255" lon="-107.150539"><ele>3392.0</ele><time>2026-04-11T16:50:50Z</time></rtept><rtept lat="37.622476" lon="-107.150095"><ele>3398.6000000000004</ele><time>2026-04-11T16:50:50Z</time></rtept><rtept lat="37.6232" lon="-107.149547"><ele>3416.0</ele><time>2026-04-11T16:50:50Z</time></rtept><rtept lat="37.623832" lon="-107.149256"><ele>3435.6000000000004</ele><time>2026-04-11T16:50:50Z</time></rtept><rtept lat="37.624052" lon="-107.149203"><ele>3442.0</ele><time>2026-04-11T16:50:50Z</time></rtept><rtept lat="37.62431" lon="-107.149229"><ele>3448.6000000000004</ele><time>2026-04-11T16:50:50Z</time></rtept><rtept lat="37.624515" lon="-107.149075"><ele>3455.0</ele><time>2026-04-11T16:50:50Z</time></rtept><rtept lat="37.624757" lon="-107.149137"><ele>3460.0</ele><time>2026-04-11T16:50:50Z</time></rtept><rtept lat="37.625086" lon="-107.149104"><ele>3467.0</ele><time>2026-04-11T16:50:50Z</time></rtept><rtept lat="37.625375" lon="-107.149355"><ele>3477.0</ele><time>2026-04-11T16:50:50Z</time></rtept><rtept lat="37.625602" lon="-107.149588"><ele>3489.0</ele><time>2026-04-11T16:50:50Z</time></rtept><rtept lat="37.625588" lon="-107.149696"><ele>3490.6000000000004</ele><time>2026-04-11T16:50:50Z</time></rtept><rtept lat="37.625535" lon="-107.149858"><ele>3491.6000000000004</ele><time>2026-04-11T16:50:50Z</time></rtept><rtept lat="37.625539" lon="-107.149948"><ele>3492.2000000000007</ele><time>2026-04-11T16:50:50Z</time></rtept><rtept lat="37.625574" lon="-107.149975"><ele>3492.2000000000007</ele><time>2026-04-11T16:50:50Z</time></rtept><rtept lat="37.625596" lon="-107.149933"><ele>3493.800000000001</ele><time>2026-04-11T16:50:50Z</time></rtept><rtept lat="37.625853" lon="-107.150088"><ele>3499.2000000000007</ele><time>2026-04-11T16:50:50Z</time></rtept><rtept lat="37.626164" lon="-107.150179"><ele>3502.800000000001</ele><time>2026-04-11T16:50:50Z</time></rtept><rtept lat="37.626209" lon="-107.150204"><ele>3503.2000000000007</ele><time>2026-04-11T16:50:50Z</time></rtept><rtept lat="37.62629" lon="-107.1502"><ele>3503.800000000001</ele><time>2026-04-11T16:50:50Z</time></rtept><rtept lat="37.626366" lon="-107.150228"><ele>3504.2000000000007</ele><time>2026-04-11T16:50:50Z</time></rtept><rtept lat="37.626409" lon="-107.150349"><ele>3505.0</ele><time>2026-04-11T16:50:50Z</time></rtept><rtept lat="37.62652" lon="-107.150434"><ele>3505.4000000000015</ele><time>2026-04-11T16:50:50Z</time></rtept><rtept lat="37.626591" lon="-107.150467"><ele>3505.800000000001</ele><time>2026-04-11T16:50:50Z</time></rtept><rtept lat="37.626682" lon="-107.150549"><ele>3507.2000000000007</ele><time>2026-04-11T16:50:50Z</time></rtept><rtept lat="37.626812" lon="-107.150723"><ele>3509.4000000000015</ele><time>2026-04-11T16:50:50Z</time></rtept><rtept lat="37.627058" lon="-107.150848"><ele>3512.0</ele><time>2026-04-11T16:50:50Z</time></rtept><rtept lat="37.627086" lon="-107.150882"><ele>3514.0</ele><time>2026-04-11T16:50:50Z</time></rtept><rtept lat="37.627254" lon="-107.150894"><ele>3517.2000000000007</ele><time>2026-04-11T16:50:50Z</time></rtept><rtept lat="37.627361" lon="-107.150879"><ele>3520.6000000000004</ele><time>2026-04-11T16:50:50Z</time></rtept><rtept lat="37.627696" lon="-107.150715"><ele>3524.2000000000007</ele><time>2026-04-11T16:50:50Z</time></rtept><rtept lat="37.627879" lon="-107.150661"><ele>3524.4000000000015</ele><time>2026-04-11T16:50:50Z</time></rtept><rtept lat="37.628045" lon="-107.150479"><ele>3526.2000000000007</ele><time>2026-04-11T16:50:50Z</time></rtept><rtept lat="37.628202" lon="-107.150522"><ele>3528.800000000001</ele><time>2026-04-11T16:50:50Z</time></rtept><rtept lat="37.628312" lon="-107.15057"><ele>3532.6000000000004</ele><time>2026-04-11T16:50:50Z</time></rtept><rtept lat="37.628457" lon="-107.150329"><ele>3536.800000000001</ele><time>2026-04-11T16:50:50Z</time></rtept><rtept lat="37.628504" lon="-107.149755"><ele>3536.800000000001</ele><time>2026-04-11T16:50:50Z</time></rtept><rtept lat="37.628665" lon="-107.149615"><ele>3541.2000000000007</ele><time>2026-04-11T16:50:50Z</time></rtept><rtept lat="37.628958" lon="-107.149497"><ele>3546.2000000000007</ele><time>2026-04-11T16:50:50Z</time></rtept><rtept lat="37.629213" lon="-107.149519"><ele>3548.800000000001</ele><time>2026-04-11T16:50:50Z</time></rtept><rtept lat="37.629417" lon="-107.149598"><ele>3549.2000000000007</ele><time>2026-04-11T16:50:50Z</time></rtept></rte></gpx>