<?xml version="1.0" ?><gpx xmlns="http://www.topografix.com/GPX/1/1" creator="GaiaGPS" version="1.1" xmlns:xsi="http://www.w3.org/2001/XMLSchema-instance" xsi:schemaLocation="http://www.topografix.com/GPX/1/1 http://www.topografix.com/GPX/1/1/gpx.xsd"><rte><name>TD25:S6:D4 Archulets Lake to Wolf Creek Pass</name><desc></desc><extensions><line xmlns="http://www.topografix.com/GPX/gpx_style/0/2"><color>FFEF00</color></line></extensions><rtept lat="37.535645" lon="-106.879877"><ele>3603.59765625</ele><time>2026-04-12T15:57:37Z</time></rtept><rtept lat="37.535638" lon="-106.879931"><ele>3604.69921875</ele><time>2026-04-12T15:57:37Z</time></rtept><rtept lat="37.535606" lon="-106.879924"><ele>3605.09765625</ele><time>2026-04-12T15:57:37Z</time></rtept><rtept lat="37.535504" lon="-106.879855"><ele>3606.0</ele><time>2026-04-12T15:57:37Z</time></rtept><rtept lat="37.53524" lon="-106.87956"><ele>3604.0</ele><time>2026-04-12T15:57:37Z</time></rtept><rtept lat="37.534691" lon="-106.879206"><ele>3603.5</ele><time>2026-04-12T15:57:37Z</time></rtept><rtept lat="37.534402" lon="-106.87912"><ele>3605.296875</ele><time>2026-04-12T15:57:37Z</time></rtept><rtept lat="37.534045" lon="-106.87887"><ele>3605.59765625</ele><time>2026-04-12T15:57:37Z</time></rtept><rtept lat="37.533764" lon="-106.878675"><ele>3606.59765625</ele><time>2026-04-12T15:57:37Z</time></rtept><rtept lat="37.533462" lon="-106.87831"><ele>3606.8984375</ele><time>2026-04-12T15:57:37Z</time></rtept><rtept lat="37.533143" lon="-106.877752"><ele>3605.0</ele><time>2026-04-12T15:57:37Z</time></rtept><rtept lat="37.532917" lon="-106.877333"><ele>3602.19921875</ele><time>2026-04-12T15:57:37Z</time></rtept><rtept lat="37.532837" lon="-106.87728"><ele>3601.69921875</ele><time>2026-04-12T15:57:37Z</time></rtept><rtept lat="37.532666" lon="-106.877285"><ele>3601.8984375</ele><time>2026-04-12T15:57:37Z</time></rtept><rtept lat="37.532208" lon="-106.87736"><ele>3607.0</ele><time>2026-04-12T15:57:37Z</time></rtept><rtept lat="37.531662" lon="-106.877232"><ele>3611.5</ele><time>2026-04-12T15:57:37Z</time></rtept><rtept lat="37.531352" lon="-106.877205"><ele>3612.0</ele><time>2026-04-12T15:57:37Z</time></rtept><rtept lat="37.531117" lon="-106.877087"><ele>3610.59765625</ele><time>2026-04-12T15:57:37Z</time></rtept><rtept lat="37.530394" lon="-106.876894"><ele>3602.8984375</ele><time>2026-04-12T15:57:37Z</time></rtept><rtept lat="37.530306" lon="-106.876861"><ele>3601.59765625</ele><time>2026-04-12T15:57:37Z</time></rtept><rtept lat="37.530178" lon="-106.876754"><ele>3599.5</ele><time>2026-04-12T15:57:37Z</time></rtept><rtept lat="37.530041" lon="-106.87669"><ele>3597.796875</ele><time>2026-04-12T15:57:37Z</time></rtept><rtept lat="37.529854" lon="-106.876711"><ele>3595.69921875</ele><time>2026-04-12T15:57:37Z</time></rtept><rtept lat="37.529199" lon="-106.876888"><ele>3587.796875</ele><time>2026-04-12T15:57:37Z</time></rtept><rtept lat="37.52894" lon="-106.876904"><ele>3584.8984375</ele><time>2026-04-12T15:57:37Z</time></rtept><rtept lat="37.528875" lon="-106.876974"><ele>3583.59765625</ele><time>2026-04-12T15:57:37Z</time></rtept><rtept lat="37.52879" lon="-106.877189"><ele>3580.09765625</ele><time>2026-04-12T15:57:37Z</time></rtept><rtept lat="37.528745" lon="-106.877307"><ele>3578.3984375</ele><time>2026-04-12T15:57:37Z</time></rtept><rtept lat="37.528629" lon="-106.87728"><ele>3577.296875</ele><time>2026-04-12T15:57:37Z</time></rtept><rtept lat="37.528395" lon="-106.87721"><ele>3575.0</ele><time>2026-04-12T15:57:37Z</time></rtept><rtept lat="37.528247" lon="-106.877092"><ele>3572.8984375</ele><time>2026-04-12T15:57:37Z</time></rtept><rtept lat="37.528114" lon="-106.877081"><ele>3570.0</ele><time>2026-04-12T15:57:37Z</time></rtept><rtept lat="37.52803" lon="-106.877135"><ele>3568.296875</ele><time>2026-04-12T15:57:37Z</time></rtept><rtept lat="37.527756" lon="-106.877301"><ele>3563.69921875</ele><time>2026-04-12T15:57:37Z</time></rtept><rtept lat="37.527566" lon="-106.877489"><ele>3561.19921875</ele><time>2026-04-12T15:57:37Z</time></rtept><rtept lat="37.527434" lon="-106.877457"><ele>3559.59765625</ele><time>2026-04-12T15:57:37Z</time></rtept><rtept lat="37.527307" lon="-106.877382"><ele>3558.19921875</ele><time>2026-04-12T15:57:37Z</time></rtept><rtept lat="37.527217" lon="-106.877312"><ele>3557.296875</ele><time>2026-04-12T15:57:37Z</time></rtept><rtept lat="37.5272" lon="-106.877162"><ele>3556.296875</ele><time>2026-04-12T15:57:37Z</time></rtept><rtept lat="37.527098" lon="-106.877055"><ele>3554.3984375</ele><time>2026-04-12T15:57:37Z</time></rtept><rtept lat="37.526864" lon="-106.876942"><ele>3552.19921875</ele><time>2026-04-12T15:57:37Z</time></rtept><rtept lat="37.526587" lon="-106.876861"><ele>3552.8984375</ele><time>2026-04-12T15:57:37Z</time></rtept><rtept lat="37.526387" lon="-106.876781"><ele>3556.3984375</ele><time>2026-04-12T15:57:37Z</time></rtept><rtept lat="37.525869" lon="-106.876781"><ele>3567.59765625</ele><time>2026-04-12T15:57:37Z</time></rtept><rtept lat="37.525621" lon="-106.876861"><ele>3574.296875</ele><time>2026-04-12T15:57:37Z</time></rtept><rtept lat="37.525374" lon="-106.877012"><ele>3578.796875</ele><time>2026-04-12T15:57:37Z</time></rtept><rtept lat="37.525166" lon="-106.877114"><ele>3582.3984375</ele><time>2026-04-12T15:57:37Z</time></rtept><rtept lat="37.525065" lon="-106.877232"><ele>3581.796875</ele><time>2026-04-12T15:57:37Z</time></rtept><rtept lat="37.524983" lon="-106.87736"><ele>3582.59765625</ele><time>2026-04-12T15:57:37Z</time></rtept><rtept lat="37.524766" lon="-106.877457"><ele>3588.796875</ele><time>2026-04-12T15:57:37Z</time></rtept><rtept lat="37.524724" lon="-106.877553"><ele>3589.3984375</ele><time>2026-04-12T15:57:37Z</time></rtept><rtept lat="37.524597" lon="-106.877747"><ele>3591.69921875</ele><time>2026-04-12T15:57:37Z</time></rtept><rtept lat="37.524626" lon="-106.877559"><ele>3593.09765625</ele><time>2026-04-12T15:57:37Z</time></rtept><rtept lat="37.524669" lon="-106.877414"><ele>3594.09765625</ele><time>2026-04-12T15:57:37Z</time></rtept><rtept lat="37.524727" lon="-106.877317"><ele>3593.59765625</ele><time>2026-04-12T15:57:37Z</time></rtept><rtept lat="37.524796" lon="-106.877157"><ele>3595.0</ele><time>2026-04-12T15:57:37Z</time></rtept><rtept lat="37.524843" lon="-106.876969"><ele>3599.09765625</ele><time>2026-04-12T15:57:37Z</time></rtept><rtept lat="37.524864" lon="-106.87684"><ele>3602.796875</ele><time>2026-04-12T15:57:37Z</time></rtept><rtept lat="37.52492" lon="-106.876776"><ele>3603.0</ele><time>2026-04-12T15:57:37Z</time></rtept><rtept lat="37.525035" lon="-106.876658"><ele>3603.09765625</ele><time>2026-04-12T15:57:37Z</time></rtept><rtept lat="37.525128" lon="-106.876599"><ele>3599.59765625</ele><time>2026-04-12T15:57:37Z</time></rtept><rtept lat="37.525145" lon="-106.876481"><ele>3597.3984375</ele><time>2026-04-12T15:57:37Z</time></rtept><rtept lat="37.525099" lon="-106.876347"><ele>3596.3984375</ele><time>2026-04-12T15:57:37Z</time></rtept><rtept lat="37.524988" lon="-106.876196"><ele>3593.3984375</ele><time>2026-04-12T15:57:37Z</time></rtept><rtept lat="37.524673" lon="-106.875982"><ele>3598.796875</ele><time>2026-04-12T15:57:37Z</time></rtept><rtept lat="37.524494" lon="-106.875789"><ele>3600.796875</ele><time>2026-04-12T15:57:37Z</time></rtept><rtept lat="37.524242" lon="-106.875386"><ele>3605.09765625</ele><time>2026-04-12T15:57:37Z</time></rtept><rtept lat="37.523937" lon="-106.87478"><ele>3609.19921875</ele><time>2026-04-12T15:57:37Z</time></rtept><rtept lat="37.523881" lon="-106.874544"><ele>3612.796875</ele><time>2026-04-12T15:57:37Z</time></rtept><rtept lat="37.523771" lon="-106.874211"><ele>3614.8984375</ele><time>2026-04-12T15:57:37Z</time></rtept><rtept lat="37.523648" lon="-106.874018"><ele>3615.796875</ele><time>2026-04-12T15:57:37Z</time></rtept><rtept lat="37.523541" lon="-106.873916"><ele>3619.09765625</ele><time>2026-04-12T15:57:37Z</time></rtept><rtept lat="37.523431" lon="-106.873868"><ele>3622.69921875</ele><time>2026-04-12T15:57:37Z</time></rtept><rtept lat="37.523325" lon="-106.87367"><ele>3624.3984375</ele><time>2026-04-12T15:57:37Z</time></rtept><rtept lat="37.523188" lon="-106.873552"><ele>3626.09765625</ele><time>2026-04-12T15:57:37Z</time></rtept><rtept lat="37.523106" lon="-106.87338"><ele>3625.09765625</ele><time>2026-04-12T15:57:37Z</time></rtept><rtept lat="37.523073" lon="-106.873235"><ele>3624.796875</ele><time>2026-04-12T15:57:37Z</time></rtept><rtept lat="37.522559" lon="-106.873887"><ele>3607.59765625</ele><time>2026-04-12T15:57:37Z</time></rtept><rtept lat="37.522231" lon="-106.874434"><ele>3600.19921875</ele><time>2026-04-12T15:57:37Z</time></rtept><rtept lat="37.522199" lon="-106.874788"><ele>3602.59765625</ele><time>2026-04-12T15:57:37Z</time></rtept><rtept lat="37.52194" lon="-106.875188"><ele>3592.0</ele><time>2026-04-12T15:57:37Z</time></rtept><rtept lat="37.521816" lon="-106.875807"><ele>3592.19921875</ele><time>2026-04-12T15:57:37Z</time></rtept><rtept lat="37.521368" lon="-106.875502"><ele>3570.8984375</ele><time>2026-04-12T15:57:37Z</time></rtept><rtept lat="37.520844" lon="-106.876081"><ele>3563.3984375</ele><time>2026-04-12T15:57:37Z</time></rtept><rtept lat="37.520423" lon="-106.876856"><ele>3574.796875</ele><time>2026-04-12T15:57:37Z</time></rtept><rtept lat="37.519576" lon="-106.877425"><ele>3560.09765625</ele><time>2026-04-12T15:57:37Z</time></rtept><rtept lat="37.5194" lon="-106.879209"><ele>3566.69921875</ele><time>2026-04-12T15:57:37Z</time></rtept><rtept lat="37.51927" lon="-106.879876"><ele>3565.796875</ele><time>2026-04-12T15:57:37Z</time></rtept><rtept lat="37.518646" lon="-106.880662"><ele>3563.19921875</ele><time>2026-04-12T15:57:37Z</time></rtept><rtept lat="37.518142" lon="-106.881343"><ele>3564.296875</ele><time>2026-04-12T15:57:37Z</time></rtept><rtept lat="37.517862" lon="-106.881952"><ele>3568.296875</ele><time>2026-04-12T15:57:37Z</time></rtept><rtept lat="37.517293" lon="-106.882143"><ele>3566.59765625</ele><time>2026-04-12T15:57:37Z</time></rtept><rtept lat="37.516996" lon="-106.881706"><ele>3563.796875</ele><time>2026-04-12T15:57:37Z</time></rtept><rtept lat="37.516685" lon="-106.881478"><ele>3562.19921875</ele><time>2026-04-12T15:57:37Z</time></rtept><rtept lat="37.516415" lon="-106.881405"><ele>3561.59765625</ele><time>2026-04-12T15:57:37Z</time></rtept><rtept lat="37.516089" lon="-106.88107"><ele>3562.3984375</ele><time>2026-04-12T15:57:37Z</time></rtept><rtept lat="37.515694" lon="-106.879946"><ele>3560.59765625</ele><time>2026-04-12T15:57:37Z</time></rtept><rtept lat="37.515059" lon="-106.879058"><ele>3564.5</ele><time>2026-04-12T15:57:37Z</time></rtept><rtept lat="37.515033" lon="-106.878811"><ele>3564.3984375</ele><time>2026-04-12T15:57:37Z</time></rtept><rtept lat="37.515043" lon="-106.878629"><ele>3564.796875</ele><time>2026-04-12T15:57:37Z</time></rtept><rtept lat="37.515075" lon="-106.878444"><ele>3564.3984375</ele><time>2026-04-12T15:57:37Z</time></rtept><rtept lat="37.515155" lon="-106.87806"><ele>3562.3984375</ele><time>2026-04-12T15:57:37Z</time></rtept><rtept lat="37.515219" lon="-106.877816"><ele>3562.69921875</ele><time>2026-04-12T15:57:37Z</time></rtept><rtept lat="37.515217" lon="-106.877545"><ele>3562.296875</ele><time>2026-04-12T15:57:37Z</time></rtept><rtept lat="37.515134" lon="-106.877213"><ele>3560.09765625</ele><time>2026-04-12T15:57:37Z</time></rtept><rtept lat="37.514996" lon="-106.876931"><ele>3559.19921875</ele><time>2026-04-12T15:57:37Z</time></rtept><rtept lat="37.514919" lon="-106.876641"><ele>3555.5</ele><time>2026-04-12T15:57:37Z</time></rtept><rtept lat="37.514783" lon="-106.876515"><ele>3555.8984375</ele><time>2026-04-12T15:57:37Z</time></rtept><rtept lat="37.514711" lon="-106.876422"><ele>3554.8984375</ele><time>2026-04-12T15:57:37Z</time></rtept><rtept lat="37.514637" lon="-106.876282"><ele>3551.8984375</ele><time>2026-04-12T15:57:37Z</time></rtept><rtept lat="37.514607" lon="-106.876167"><ele>3548.5</ele><time>2026-04-12T15:57:37Z</time></rtept><rtept lat="37.514568" lon="-106.876062"><ele>3546.09765625</ele><time>2026-04-12T15:57:37Z</time></rtept><rtept lat="37.51442" lon="-106.875939"><ele>3548.5</ele><time>2026-04-12T15:57:37Z</time></rtept><rtept lat="37.514263" lon="-106.875845"><ele>3551.796875</ele><time>2026-04-12T15:57:37Z</time></rtept><rtept lat="37.51411" lon="-106.875743"><ele>3552.59765625</ele><time>2026-04-12T15:57:37Z</time></rtept><rtept lat="37.513879" lon="-106.87555"><ele>3552.5</ele><time>2026-04-12T15:57:37Z</time></rtept><rtept lat="37.513736" lon="-106.875421"><ele>3551.3984375</ele><time>2026-04-12T15:57:37Z</time></rtept><rtept lat="37.513516" lon="-106.875158"><ele>3551.0</ele><time>2026-04-12T15:57:37Z</time></rtept><rtept lat="37.513396" lon="-106.875067"><ele>3554.0</ele><time>2026-04-12T15:57:37Z</time></rtept><rtept lat="37.513358" lon="-106.875027"><ele>3554.8984375</ele><time>2026-04-12T15:57:37Z</time></rtept><rtept lat="37.513277" lon="-106.874898"><ele>3556.3984375</ele><time>2026-04-12T15:57:37Z</time></rtept><rtept lat="37.513112" lon="-106.874654"><ele>3559.69921875</ele><time>2026-04-12T15:57:37Z</time></rtept><rtept lat="37.513002" lon="-106.874418"><ele>3557.8984375</ele><time>2026-04-12T15:57:37Z</time></rtept><rtept lat="37.512475" lon="-106.873713"><ele>3564.8984375</ele><time>2026-04-12T15:57:37Z</time></rtept><rtept lat="37.512262" lon="-106.87368"><ele>3572.8984375</ele><time>2026-04-12T15:57:37Z</time></rtept><rtept lat="37.51193" lon="-106.872865"><ele>3566.19921875</ele><time>2026-04-12T15:57:37Z</time></rtept><rtept lat="37.511828" lon="-106.872994"><ele>3568.19921875</ele><time>2026-04-12T15:57:37Z</time></rtept><rtept lat="37.511785" lon="-106.873337"><ele>3571.69921875</ele><time>2026-04-12T15:57:37Z</time></rtept><rtept lat="37.511522" lon="-106.873509"><ele>3567.69921875</ele><time>2026-04-12T15:57:37Z</time></rtept><rtept lat="37.511522" lon="-106.873841"><ele>3571.296875</ele><time>2026-04-12T15:57:37Z</time></rtept><rtept lat="37.511045" lon="-106.874249"><ele>3559.69921875</ele><time>2026-04-12T15:57:37Z</time></rtept><rtept lat="37.510726" lon="-106.874592"><ele>3556.09765625</ele><time>2026-04-12T15:57:37Z</time></rtept><rtept lat="37.510628" lon="-106.874614"><ele>3553.296875</ele><time>2026-04-12T15:57:37Z</time></rtept><rtept lat="37.510507" lon="-106.874732"><ele>3550.3984375</ele><time>2026-04-12T15:57:37Z</time></rtept><rtept lat="37.510207" lon="-106.875024"><ele>3542.296875</ele><time>2026-04-12T15:57:37Z</time></rtept><rtept lat="37.509845" lon="-106.87533"><ele>3533.5</ele><time>2026-04-12T15:57:37Z</time></rtept><rtept lat="37.509383" lon="-106.875992"><ele>3521.796875</ele><time>2026-04-12T15:57:37Z</time></rtept><rtept lat="37.509263" lon="-106.876161"><ele>3517.59765625</ele><time>2026-04-12T15:57:37Z</time></rtept><rtept lat="37.509107" lon="-106.876333"><ele>3513.296875</ele><time>2026-04-12T15:57:37Z</time></rtept><rtept lat="37.508902" lon="-106.876553"><ele>3508.59765625</ele><time>2026-04-12T15:57:37Z</time></rtept><rtept lat="37.508534" lon="-106.876714"><ele>3502.69921875</ele><time>2026-04-12T15:57:37Z</time></rtept><rtept lat="37.508415" lon="-106.876768"><ele>3501.69921875</ele><time>2026-04-12T15:57:37Z</time></rtept><rtept lat="37.508198" lon="-106.876843"><ele>3499.59765625</ele><time>2026-04-12T15:57:37Z</time></rtept><rtept lat="37.508034" lon="-106.876934"><ele>3497.19921875</ele><time>2026-04-12T15:57:37Z</time></rtept><rtept lat="37.507799" lon="-106.8771"><ele>3494.5</ele><time>2026-04-12T15:57:37Z</time></rtept><rtept lat="37.507623" lon="-106.877221"><ele>3491.59765625</ele><time>2026-04-12T15:57:37Z</time></rtept><rtept lat="37.507424" lon="-106.877433"><ele>3489.69921875</ele><time>2026-04-12T15:57:37Z</time></rtept><rtept lat="37.507302" lon="-106.877511"><ele>3488.0</ele><time>2026-04-12T15:57:37Z</time></rtept><rtept lat="37.507105" lon="-106.877578"><ele>3485.3984375</ele><time>2026-04-12T15:57:37Z</time></rtept><rtept lat="37.506732" lon="-106.877776"><ele>3481.69921875</ele><time>2026-04-12T15:57:37Z</time></rtept><rtept lat="37.506507" lon="-106.877862"><ele>3478.59765625</ele><time>2026-04-12T15:57:37Z</time></rtept><rtept lat="37.5064" lon="-106.877891"><ele>3477.19921875</ele><time>2026-04-12T15:57:37Z</time></rtept><rtept lat="37.506241" lon="-106.877918"><ele>3474.8984375</ele><time>2026-04-12T15:57:37Z</time></rtept><rtept lat="37.506147" lon="-106.877988"><ele>3474.3984375</ele><time>2026-04-12T15:57:37Z</time></rtept><rtept lat="37.506058" lon="-106.877996"><ele>3473.5</ele><time>2026-04-12T15:57:37Z</time></rtept><rtept lat="37.505843" lon="-106.877937"><ele>3471.19921875</ele><time>2026-04-12T15:57:37Z</time></rtept><rtept lat="37.505681" lon="-106.877934"><ele>3470.0</ele><time>2026-04-12T15:57:37Z</time></rtept><rtept lat="37.505372" lon="-106.878009"><ele>3468.19921875</ele><time>2026-04-12T15:57:37Z</time></rtept><rtept lat="37.505141" lon="-106.878068"><ele>3466.09765625</ele><time>2026-04-12T15:57:37Z</time></rtept><rtept lat="37.504793" lon="-106.878181"><ele>3464.296875</ele><time>2026-04-12T15:57:37Z</time></rtept><rtept lat="37.504619" lon="-106.878127"><ele>3464.0</ele><time>2026-04-12T15:57:37Z</time></rtept><rtept lat="37.504551" lon="-106.877977"><ele>3464.19921875</ele><time>2026-04-12T15:57:37Z</time></rtept><rtept lat="37.5045" lon="-106.877672"><ele>3464.59765625</ele><time>2026-04-12T15:57:37Z</time></rtept><rtept lat="37.504453" lon="-106.877355"><ele>3464.19921875</ele><time>2026-04-12T15:57:37Z</time></rtept><rtept lat="37.504372" lon="-106.876926"><ele>3463.09765625</ele><time>2026-04-12T15:57:37Z</time></rtept><rtept lat="37.504292" lon="-106.876835"><ele>3463.09765625</ele><time>2026-04-12T15:57:37Z</time></rtept><rtept lat="37.504292" lon="-106.876695"><ele>3461.59765625</ele><time>2026-04-12T15:57:37Z</time></rtept><rtept lat="37.504211" lon="-106.876491"><ele>3462.0</ele><time>2026-04-12T15:57:37Z</time></rtept><rtept lat="37.504087" lon="-106.876116"><ele>3464.59765625</ele><time>2026-04-12T15:57:37Z</time></rtept><rtept lat="37.503947" lon="-106.875558"><ele>3468.8984375</ele><time>2026-04-12T15:57:37Z</time></rtept><rtept lat="37.504151" lon="-106.875193"><ele>3463.69921875</ele><time>2026-04-12T15:57:37Z</time></rtept><rtept lat="37.5041" lon="-106.874832"><ele>3466.09765625</ele><time>2026-04-12T15:57:37Z</time></rtept><rtept lat="37.503998" lon="-106.87411"><ele>3465.8984375</ele><time>2026-04-12T15:57:37Z</time></rtept><rtept lat="37.503666" lon="-106.873423"><ele>3461.796875</ele><time>2026-04-12T15:57:37Z</time></rtept><rtept lat="37.503079" lon="-106.873262"><ele>3461.296875</ele><time>2026-04-12T15:57:37Z</time></rtept><rtept lat="37.502542" lon="-106.873251"><ele>3464.0</ele><time>2026-04-12T15:57:37Z</time></rtept><rtept lat="37.502185" lon="-106.873026"><ele>3464.296875</ele><time>2026-04-12T15:57:37Z</time></rtept><rtept lat="37.501996" lon="-106.872803"><ele>3461.19921875</ele><time>2026-04-12T15:57:37Z</time></rtept><rtept lat="37.501787" lon="-106.872798"><ele>3463.09765625</ele><time>2026-04-12T15:57:37Z</time></rtept><rtept lat="37.501662" lon="-106.872685"><ele>3464.796875</ele><time>2026-04-12T15:57:37Z</time></rtept><rtept lat="37.501524" lon="-106.872551"><ele>3465.3984375</ele><time>2026-04-12T15:57:37Z</time></rtept><rtept lat="37.501474" lon="-106.872532"><ele>3465.796875</ele><time>2026-04-12T15:57:37Z</time></rtept><rtept lat="37.501406" lon="-106.872412"><ele>3464.296875</ele><time>2026-04-12T15:57:37Z</time></rtept><rtept lat="37.501291" lon="-106.872328"><ele>3465.09765625</ele><time>2026-04-12T15:57:37Z</time></rtept><rtept lat="37.501012" lon="-106.872275"><ele>3475.3984375</ele><time>2026-04-12T15:57:37Z</time></rtept><rtept lat="37.50094" lon="-106.87224"><ele>3477.8984375</ele><time>2026-04-12T15:57:37Z</time></rtept><rtept lat="37.50079" lon="-106.872028"><ele>3481.5</ele><time>2026-04-12T15:57:37Z</time></rtept><rtept lat="37.500666" lon="-106.871846"><ele>3486.19921875</ele><time>2026-04-12T15:57:37Z</time></rtept><rtept lat="37.500531" lon="-106.871556"><ele>3493.69921875</ele><time>2026-04-12T15:57:37Z</time></rtept><rtept lat="37.500345" lon="-106.871046"><ele>3504.69921875</ele><time>2026-04-12T15:57:37Z</time></rtept><rtept lat="37.5003" lon="-106.870716"><ele>3504.796875</ele><time>2026-04-12T15:57:37Z</time></rtept><rtept lat="37.500295" lon="-106.870612"><ele>3503.796875</ele><time>2026-04-12T15:57:37Z</time></rtept><rtept lat="37.500283" lon="-106.870478"><ele>3503.796875</ele><time>2026-04-12T15:57:37Z</time></rtept><rtept lat="37.500255" lon="-106.870215"><ele>3503.296875</ele><time>2026-04-12T15:57:37Z</time></rtept><rtept lat="37.500268" lon="-106.869949"><ele>3501.5</ele><time>2026-04-12T15:57:37Z</time></rtept><rtept lat="37.500291" lon="-106.869775"><ele>3499.296875</ele><time>2026-04-12T15:57:37Z</time></rtept><rtept lat="37.5003" lon="-106.869646"><ele>3497.5</ele><time>2026-04-12T15:57:37Z</time></rtept><rtept lat="37.500263" lon="-106.869491"><ele>3496.8984375</ele><time>2026-04-12T15:57:37Z</time></rtept><rtept lat="37.499946" lon="-106.869174"><ele>3502.8984375</ele><time>2026-04-12T15:57:37Z</time></rtept><rtept lat="37.499749" lon="-106.869024"><ele>3506.69921875</ele><time>2026-04-12T15:57:37Z</time></rtept><rtept lat="37.499426" lon="-106.868871"><ele>3514.0</ele><time>2026-04-12T15:57:37Z</time></rtept><rtept lat="37.499351" lon="-106.868836"><ele>3515.3984375</ele><time>2026-04-12T15:57:37Z</time></rtept><rtept lat="37.499317" lon="-106.86878"><ele>3515.3984375</ele><time>2026-04-12T15:57:37Z</time></rtept><rtept lat="37.499241" lon="-106.868694"><ele>3515.69921875</ele><time>2026-04-12T15:57:37Z</time></rtept><rtept lat="37.499114" lon="-106.868646"><ele>3517.09765625</ele><time>2026-04-12T15:57:37Z</time></rtept><rtept lat="37.498864" lon="-106.868579"><ele>3519.09765625</ele><time>2026-04-12T15:57:37Z</time></rtept><rtept lat="37.498617" lon="-106.868447"><ele>3519.19921875</ele><time>2026-04-12T15:57:37Z</time></rtept><rtept lat="37.498467" lon="-106.86837"><ele>3519.0</ele><time>2026-04-12T15:57:37Z</time></rtept><rtept lat="37.498392" lon="-106.86827"><ele>3518.3984375</ele><time>2026-04-12T15:57:37Z</time></rtept><rtept lat="37.498353" lon="-106.868115"><ele>3518.09765625</ele><time>2026-04-12T15:57:37Z</time></rtept><rtept lat="37.498319" lon="-106.867924"><ele>3517.8984375</ele><time>2026-04-12T15:57:37Z</time></rtept><rtept lat="37.498302" lon="-106.867621"><ele>3517.796875</ele><time>2026-04-12T15:57:37Z</time></rtept><rtept lat="37.498302" lon="-106.867364"><ele>3518.69921875</ele><time>2026-04-12T15:57:37Z</time></rtept><rtept lat="37.498167" lon="-106.86686"><ele>3519.5</ele><time>2026-04-12T15:57:37Z</time></rtept><rtept lat="37.498108" lon="-106.866618"><ele>3521.09765625</ele><time>2026-04-12T15:57:37Z</time></rtept><rtept lat="37.498014" lon="-106.866425"><ele>3522.3984375</ele><time>2026-04-12T15:57:37Z</time></rtept><rtept lat="37.497896" lon="-106.866283"><ele>3523.0</ele><time>2026-04-12T15:57:37Z</time></rtept><rtept lat="37.497706" lon="-106.866173"><ele>3522.0</ele><time>2026-04-12T15:57:37Z</time></rtept><rtept lat="37.497659" lon="-106.866103"><ele>3522.296875</ele><time>2026-04-12T15:57:37Z</time></rtept><rtept lat="37.497659" lon="-106.866009"><ele>3522.59765625</ele><time>2026-04-12T15:57:37Z</time></rtept><rtept lat="37.497667" lon="-106.865934"><ele>3523.0</ele><time>2026-04-12T15:57:37Z</time></rtept><rtept lat="37.497718" lon="-106.865872"><ele>3523.69921875</ele><time>2026-04-12T15:57:37Z</time></rtept><rtept lat="37.49781" lon="-106.86577"><ele>3524.69921875</ele><time>2026-04-12T15:57:37Z</time></rtept><rtept lat="37.497842" lon="-106.865674"><ele>3524.69921875</ele><time>2026-04-12T15:57:37Z</time></rtept><rtept lat="37.497823" lon="-106.865569"><ele>3524.296875</ele><time>2026-04-12T15:57:37Z</time></rtept><rtept lat="37.497755" lon="-106.8654"><ele>3523.8984375</ele><time>2026-04-12T15:57:37Z</time></rtept><rtept lat="37.497684" lon="-106.865253"><ele>3523.296875</ele><time>2026-04-12T15:57:37Z</time></rtept><rtept lat="37.49763" lon="-106.865017"><ele>3523.0</ele><time>2026-04-12T15:57:37Z</time></rtept><rtept lat="37.497527" lon="-106.864843"><ele>3522.5</ele><time>2026-04-12T15:57:37Z</time></rtept><rtept lat="37.497419" lon="-106.864759"><ele>3522.69921875</ele><time>2026-04-12T15:57:37Z</time></rtept><rtept lat="37.497241" lon="-106.864722"><ele>3523.3984375</ele><time>2026-04-12T15:57:37Z</time></rtept><rtept lat="37.496889" lon="-106.864676"><ele>3523.5</ele><time>2026-04-12T15:57:37Z</time></rtept><rtept lat="37.496633" lon="-106.86455"><ele>3521.69921875</ele><time>2026-04-12T15:57:37Z</time></rtept><rtept lat="37.496474" lon="-106.864475"><ele>3519.69921875</ele><time>2026-04-12T15:57:37Z</time></rtept><rtept lat="37.496308" lon="-106.864437"><ele>3516.296875</ele><time>2026-04-12T15:57:37Z</time></rtept><rtept lat="37.49614" lon="-106.864427"><ele>3513.796875</ele><time>2026-04-12T15:57:37Z</time></rtept><rtept lat="37.496059" lon="-106.86448"><ele>3513.19921875</ele><time>2026-04-12T15:57:37Z</time></rtept><rtept lat="37.495982" lon="-106.864491"><ele>3512.3984375</ele><time>2026-04-12T15:57:37Z</time></rtept><rtept lat="37.495938" lon="-106.864451"><ele>3511.296875</ele><time>2026-04-12T15:57:37Z</time></rtept><rtept lat="37.495859" lon="-106.8644"><ele>3509.19921875</ele><time>2026-04-12T15:57:37Z</time></rtept><rtept lat="37.495789" lon="-106.864413"><ele>3507.69921875</ele><time>2026-04-12T15:57:37Z</time></rtept><rtept lat="37.495744" lon="-106.8644"><ele>3506.5</ele><time>2026-04-12T15:57:37Z</time></rtept><rtept lat="37.495745" lon="-106.864314"><ele>3505.796875</ele><time>2026-04-12T15:57:37Z</time></rtept><rtept lat="37.495771" lon="-106.864231"><ele>3505.5</ele><time>2026-04-12T15:57:37Z</time></rtept><rtept lat="37.495812" lon="-106.864113"><ele>3505.59765625</ele><time>2026-04-12T15:57:37Z</time></rtept><rtept lat="37.495854" lon="-106.863971"><ele>3506.5</ele><time>2026-04-12T15:57:37Z</time></rtept><rtept lat="37.495818" lon="-106.863493"><ele>3503.5</ele><time>2026-04-12T15:57:37Z</time></rtept><rtept lat="37.495827" lon="-106.863121"><ele>3502.09765625</ele><time>2026-04-12T15:57:37Z</time></rtept><rtept lat="37.495805" lon="-106.862852"><ele>3496.3984375</ele><time>2026-04-12T15:57:37Z</time></rtept><rtept lat="37.495699" lon="-106.862726"><ele>3487.5</ele><time>2026-04-12T15:57:37Z</time></rtept><rtept lat="37.49585" lon="-106.86252"><ele>3492.3984375</ele><time>2026-04-12T15:57:37Z</time></rtept><rtept lat="37.496032" lon="-106.862262"><ele>3494.09765625</ele><time>2026-04-12T15:57:37Z</time></rtept><rtept lat="37.496112" lon="-106.862069"><ele>3492.0</ele><time>2026-04-12T15:57:37Z</time></rtept><rtept lat="37.496112" lon="-106.861908"><ele>3486.796875</ele><time>2026-04-12T15:57:37Z</time></rtept><rtept lat="37.496172" lon="-106.861718"><ele>3483.3984375</ele><time>2026-04-12T15:57:37Z</time></rtept><rtept lat="37.496281" lon="-106.861468"><ele>3480.296875</ele><time>2026-04-12T15:57:37Z</time></rtept><rtept lat="37.49641" lon="-106.861125"><ele>3476.59765625</ele><time>2026-04-12T15:57:37Z</time></rtept><rtept lat="37.496453" lon="-106.860865"><ele>3472.09765625</ele><time>2026-04-12T15:57:37Z</time></rtept><rtept lat="37.496497" lon="-106.860642"><ele>3471.69921875</ele><time>2026-04-12T15:57:37Z</time></rtept><rtept lat="37.49654" lon="-106.860291"><ele>3470.296875</ele><time>2026-04-12T15:57:37Z</time></rtept><rtept lat="37.496485" lon="-106.859942"><ele>3466.296875</ele><time>2026-04-12T15:57:37Z</time></rtept><rtept lat="37.49644" lon="-106.859845"><ele>3465.59765625</ele><time>2026-04-12T15:57:37Z</time></rtept><rtept lat="37.496313" lon="-106.859752"><ele>3465.59765625</ele><time>2026-04-12T15:57:37Z</time></rtept><rtept lat="37.496284" lon="-106.859636"><ele>3464.8984375</ele><time>2026-04-12T15:57:37Z</time></rtept><rtept lat="37.496312" lon="-106.859518"><ele>3463.5</ele><time>2026-04-12T15:57:37Z</time></rtept><rtept lat="37.496308" lon="-106.859398"><ele>3462.69921875</ele><time>2026-04-12T15:57:37Z</time></rtept><rtept lat="37.496267" lon="-106.85932"><ele>3462.5</ele><time>2026-04-12T15:57:37Z</time></rtept><rtept lat="37.495971" lon="-106.859237"><ele>3459.796875</ele><time>2026-04-12T15:57:37Z</time></rtept><rtept lat="37.49585" lon="-106.859143"><ele>3457.5</ele><time>2026-04-12T15:57:37Z</time></rtept><rtept lat="37.495854" lon="-106.859062"><ele>3457.09765625</ele><time>2026-04-12T15:57:37Z</time></rtept><rtept lat="37.495925" lon="-106.859001"><ele>3457.8984375</ele><time>2026-04-12T15:57:37Z</time></rtept><rtept lat="37.49598" lon="-106.858923"><ele>3458.296875</ele><time>2026-04-12T15:57:37Z</time></rtept><rtept lat="37.49598" lon="-106.858695"><ele>3457.5</ele><time>2026-04-12T15:57:37Z</time></rtept><rtept lat="37.495981" lon="-106.858421"><ele>3455.0</ele><time>2026-04-12T15:57:37Z</time></rtept><rtept lat="37.496057" lon="-106.858236"><ele>3453.5</ele><time>2026-04-12T15:57:37Z</time></rtept><rtept lat="37.49618" lon="-106.858142"><ele>3452.796875</ele><time>2026-04-12T15:57:37Z</time></rtept><rtept lat="37.496282" lon="-106.858"><ele>3451.59765625</ele><time>2026-04-12T15:57:37Z</time></rtept><rtept lat="37.496322" lon="-106.857847"><ele>3450.19921875</ele><time>2026-04-12T15:57:37Z</time></rtept><rtept lat="37.496339" lon="-106.857643"><ele>3448.69921875</ele><time>2026-04-12T15:57:37Z</time></rtept><rtept lat="37.496314" lon="-106.857456"><ele>3448.796875</ele><time>2026-04-12T15:57:37Z</time></rtept><rtept lat="37.496263" lon="-106.857383"><ele>3450.19921875</ele><time>2026-04-12T15:57:37Z</time></rtept><rtept lat="37.49621" lon="-106.857265"><ele>3451.296875</ele><time>2026-04-12T15:57:37Z</time></rtept><rtept lat="37.496203" lon="-106.857131"><ele>3451.5</ele><time>2026-04-12T15:57:37Z</time></rtept><rtept lat="37.496205" lon="-106.857013"><ele>3451.0</ele><time>2026-04-12T15:57:37Z</time></rtept><rtept lat="37.496167" lon="-106.856954"><ele>3451.69921875</ele><time>2026-04-12T15:57:37Z</time></rtept><rtept lat="37.496131" lon="-106.856825"><ele>3451.69921875</ele><time>2026-04-12T15:57:37Z</time></rtept><rtept lat="37.496142" lon="-106.856739"><ele>3450.796875</ele><time>2026-04-12T15:57:37Z</time></rtept><rtept lat="37.496169" lon="-106.856597"><ele>3448.8984375</ele><time>2026-04-12T15:57:37Z</time></rtept><rtept lat="37.496137" lon="-106.856353"><ele>3448.296875</ele><time>2026-04-12T15:57:37Z</time></rtept><rtept lat="37.496132" lon="-106.856222"><ele>3447.8984375</ele><time>2026-04-12T15:57:37Z</time></rtept><rtept lat="37.496184" lon="-106.856026"><ele>3445.69921875</ele><time>2026-04-12T15:57:37Z</time></rtept><rtept lat="37.496222" lon="-106.855771"><ele>3445.09765625</ele><time>2026-04-12T15:57:37Z</time></rtept><rtept lat="37.496191" lon="-106.855543"><ele>3446.69921875</ele><time>2026-04-12T15:57:37Z</time></rtept><rtept lat="37.496074" lon="-106.85531"><ele>3449.59765625</ele><time>2026-04-12T15:57:37Z</time></rtept><rtept lat="37.495874" lon="-106.855074"><ele>3455.296875</ele><time>2026-04-12T15:57:37Z</time></rtept><rtept lat="37.495784" lon="-106.854894"><ele>3459.296875</ele><time>2026-04-12T15:57:37Z</time></rtept><rtept lat="37.495796" lon="-106.854792"><ele>3459.19921875</ele><time>2026-04-12T15:57:37Z</time></rtept><rtept lat="37.495842" lon="-106.854583"><ele>3461.3984375</ele><time>2026-04-12T15:57:37Z</time></rtept><rtept lat="37.495888" lon="-106.854419"><ele>3463.19921875</ele><time>2026-04-12T15:57:37Z</time></rtept><rtept lat="37.496016" lon="-106.854205"><ele>3464.0</ele><time>2026-04-12T15:57:37Z</time></rtept><rtept lat="37.496133" lon="-106.854038"><ele>3465.59765625</ele><time>2026-04-12T15:57:37Z</time></rtept><rtept lat="37.496346" lon="-106.85388"><ele>3466.19921875</ele><time>2026-04-12T15:57:37Z</time></rtept><rtept lat="37.496525" lon="-106.85376"><ele>3467.69921875</ele><time>2026-04-12T15:57:37Z</time></rtept><rtept lat="37.496795" lon="-106.853647"><ele>3467.0</ele><time>2026-04-12T15:57:37Z</time></rtept><rtept lat="37.496884" lon="-106.853609"><ele>3467.19921875</ele><time>2026-04-12T15:57:37Z</time></rtept><rtept lat="37.496972" lon="-106.853465"><ele>3470.296875</ele><time>2026-04-12T15:57:37Z</time></rtept><rtept lat="37.49715" lon="-106.853314"><ele>3473.0</ele><time>2026-04-12T15:57:37Z</time></rtept><rtept lat="37.49728" lon="-106.853191"><ele>3475.0</ele><time>2026-04-12T15:57:37Z</time></rtept><rtept lat="37.497457" lon="-106.853019"><ele>3477.796875</ele><time>2026-04-12T15:57:37Z</time></rtept><rtept lat="37.497761" lon="-106.8527"><ele>3480.8984375</ele><time>2026-04-12T15:57:37Z</time></rtept><rtept lat="37.49788" lon="-106.852558"><ele>3482.19921875</ele><time>2026-04-12T15:57:37Z</time></rtept><rtept lat="37.498116" lon="-106.852271"><ele>3485.0</ele><time>2026-04-12T15:57:37Z</time></rtept><rtept lat="37.498236" lon="-106.852105"><ele>3485.69921875</ele><time>2026-04-12T15:57:37Z</time></rtept><rtept lat="37.498288" lon="-106.85192"><ele>3487.69921875</ele><time>2026-04-12T15:57:37Z</time></rtept><rtept lat="37.498387" lon="-106.851769"><ele>3488.59765625</ele><time>2026-04-12T15:57:37Z</time></rtept><rtept lat="37.498538" lon="-106.851614"><ele>3488.09765625</ele><time>2026-04-12T15:57:37Z</time></rtept><rtept lat="37.498641" lon="-106.85149"><ele>3487.296875</ele><time>2026-04-12T15:57:37Z</time></rtept><rtept lat="37.49877" lon="-106.85115"><ele>3488.19921875</ele><time>2026-04-12T15:57:37Z</time></rtept><rtept lat="37.498802" lon="-106.851024"><ele>3489.09765625</ele><time>2026-04-12T15:57:37Z</time></rtept><rtept lat="37.498806" lon="-106.850916"><ele>3490.0</ele><time>2026-04-12T15:57:37Z</time></rtept><rtept lat="37.498794" lon="-106.85079"><ele>3491.59765625</ele><time>2026-04-12T15:57:37Z</time></rtept><rtept lat="37.498819" lon="-106.850731"><ele>3491.59765625</ele><time>2026-04-12T15:57:37Z</time></rtept><rtept lat="37.498881" lon="-106.850672"><ele>3491.09765625</ele><time>2026-04-12T15:57:37Z</time></rtept><rtept lat="37.498917" lon="-106.850584"><ele>3491.296875</ele><time>2026-04-12T15:57:37Z</time></rtept><rtept lat="37.498917" lon="-106.850506"><ele>3491.8984375</ele><time>2026-04-12T15:57:37Z</time></rtept><rtept lat="37.498865" lon="-106.850372"><ele>3494.0</ele><time>2026-04-12T15:57:37Z</time></rtept><rtept lat="37.498863" lon="-106.850273"><ele>3495.09765625</ele><time>2026-04-12T15:57:37Z</time></rtept><rtept lat="37.498897" lon="-106.850157"><ele>3495.296875</ele><time>2026-04-12T15:57:37Z</time></rtept><rtept lat="37.498897" lon="-106.850077"><ele>3496.09765625</ele><time>2026-04-12T15:57:37Z</time></rtept><rtept lat="37.498853" lon="-106.849916"><ele>3498.3984375</ele><time>2026-04-12T15:57:37Z</time></rtept><rtept lat="37.498775" lon="-106.849626"><ele>3501.69921875</ele><time>2026-04-12T15:57:37Z</time></rtept><rtept lat="37.498734" lon="-106.849522"><ele>3502.8984375</ele><time>2026-04-12T15:57:37Z</time></rtept><rtept lat="37.498681" lon="-106.849413"><ele>3503.8984375</ele><time>2026-04-12T15:57:37Z</time></rtept><rtept lat="37.498571" lon="-106.849315"><ele>3505.3984375</ele><time>2026-04-12T15:57:37Z</time></rtept><rtept lat="37.498441" lon="-106.849215"><ele>3507.19921875</ele><time>2026-04-12T15:57:37Z</time></rtept><rtept lat="37.498345" lon="-106.849103"><ele>3508.59765625</ele><time>2026-04-12T15:57:37Z</time></rtept><rtept lat="37.498251" lon="-106.848957"><ele>3510.09765625</ele><time>2026-04-12T15:57:37Z</time></rtept><rtept lat="37.498163" lon="-106.848807"><ele>3511.59765625</ele><time>2026-04-12T15:57:37Z</time></rtept><rtept lat="37.498097" lon="-106.848654"><ele>3513.09765625</ele><time>2026-04-12T15:57:37Z</time></rtept><rtept lat="37.49808" lon="-106.848418"><ele>3515.296875</ele><time>2026-04-12T15:57:37Z</time></rtept><rtept lat="37.498119" lon="-106.84824"><ele>3516.296875</ele><time>2026-04-12T15:57:37Z</time></rtept><rtept lat="37.498138" lon="-106.848047"><ele>3518.0</ele><time>2026-04-12T15:57:37Z</time></rtept><rtept lat="37.498155" lon="-106.847904"><ele>3519.5</ele><time>2026-04-12T15:57:37Z</time></rtept><rtept lat="37.498243" lon="-106.847773"><ele>3519.09765625</ele><time>2026-04-12T15:57:37Z</time></rtept><rtept lat="37.498343" lon="-106.847609"><ele>3518.69921875</ele><time>2026-04-12T15:57:37Z</time></rtept><rtept lat="37.498428" lon="-106.847459"><ele>3518.5</ele><time>2026-04-12T15:57:37Z</time></rtept><rtept lat="37.498479" lon="-106.847306"><ele>3519.5</ele><time>2026-04-12T15:57:37Z</time></rtept><rtept lat="37.498523" lon="-106.847247"><ele>3519.09765625</ele><time>2026-04-12T15:57:37Z</time></rtept><rtept lat="37.498655" lon="-106.847084"><ele>3518.19921875</ele><time>2026-04-12T15:57:37Z</time></rtept><rtept lat="37.498834" lon="-106.846837"><ele>3518.296875</ele><time>2026-04-12T15:57:37Z</time></rtept><rtept lat="37.499223" lon="-106.846394"><ele>3516.296875</ele><time>2026-04-12T15:57:37Z</time></rtept><rtept lat="37.499729" lon="-106.845775"><ele>3514.09765625</ele><time>2026-04-12T15:57:37Z</time></rtept><rtept lat="37.499872" lon="-106.845622"><ele>3513.796875</ele><time>2026-04-12T15:57:37Z</time></rtept><rtept lat="37.500005" lon="-106.845463"><ele>3514.0</ele><time>2026-04-12T15:57:37Z</time></rtept><rtept lat="37.500068" lon="-106.84526"><ele>3518.5</ele><time>2026-04-12T15:57:37Z</time></rtept><rtept lat="37.500108" lon="-106.845045"><ele>3520.69921875</ele><time>2026-04-12T15:57:37Z</time></rtept><rtept lat="37.500078" lon="-106.844836"><ele>3522.296875</ele><time>2026-04-12T15:57:37Z</time></rtept><rtept lat="37.50003" lon="-106.844608"><ele>3523.296875</ele><time>2026-04-12T15:57:37Z</time></rtept><rtept lat="37.499915" lon="-106.844318"><ele>3524.0</ele><time>2026-04-12T15:57:37Z</time></rtept><rtept lat="37.499819" lon="-106.844018"><ele>3521.5</ele><time>2026-04-12T15:57:37Z</time></rtept><rtept lat="37.499703" lon="-106.84386"><ele>3519.5</ele><time>2026-04-12T15:57:37Z</time></rtept><rtept lat="37.499572" lon="-106.843669"><ele>3516.09765625</ele><time>2026-04-12T15:57:37Z</time></rtept><rtept lat="37.499572" lon="-106.84357"><ele>3514.296875</ele><time>2026-04-12T15:57:37Z</time></rtept><rtept lat="37.499613" lon="-106.843519"><ele>3513.5</ele><time>2026-04-12T15:57:37Z</time></rtept><rtept lat="37.499727" lon="-106.84346"><ele>3513.09765625</ele><time>2026-04-12T15:57:37Z</time></rtept><rtept lat="37.499811" lon="-106.8434"><ele>3512.59765625</ele><time>2026-04-12T15:57:37Z</time></rtept><rtept lat="37.499886" lon="-106.843239"><ele>3510.3984375</ele><time>2026-04-12T15:57:37Z</time></rtept><rtept lat="37.499979" lon="-106.843147"><ele>3509.09765625</ele><time>2026-04-12T15:57:37Z</time></rtept><rtept lat="37.500071" lon="-106.843027"><ele>3507.296875</ele><time>2026-04-12T15:57:37Z</time></rtept><rtept lat="37.500172" lon="-106.842769"><ele>3502.796875</ele><time>2026-04-12T15:57:37Z</time></rtept><rtept lat="37.500233" lon="-106.842551"><ele>3496.69921875</ele><time>2026-04-12T15:57:37Z</time></rtept><rtept lat="37.500381" lon="-106.842376"><ele>3492.0</ele><time>2026-04-12T15:57:37Z</time></rtept><rtept lat="37.500524" lon="-106.842313"><ele>3489.3984375</ele><time>2026-04-12T15:57:37Z</time></rtept><rtept lat="37.500553" lon="-106.84228"><ele>3488.296875</ele><time>2026-04-12T15:57:37Z</time></rtept><rtept lat="37.500558" lon="-106.842146"><ele>3484.5</ele><time>2026-04-12T15:57:37Z</time></rtept><rtept lat="37.50063" lon="-106.842052"><ele>3481.3984375</ele><time>2026-04-12T15:57:37Z</time></rtept><rtept lat="37.50075" lon="-106.841985"><ele>3478.59765625</ele><time>2026-04-12T15:57:37Z</time></rtept><rtept lat="37.500853" lon="-106.841935"><ele>3476.296875</ele><time>2026-04-12T15:57:37Z</time></rtept><rtept lat="37.500892" lon="-106.841904"><ele>3475.296875</ele><time>2026-04-12T15:57:37Z</time></rtept><rtept lat="37.500906" lon="-106.84183"><ele>3474.296875</ele><time>2026-04-12T15:57:37Z</time></rtept><rtept lat="37.500849" lon="-106.841777"><ele>3474.0</ele><time>2026-04-12T15:57:37Z</time></rtept><rtept lat="37.500768" lon="-106.841702"><ele>3473.296875</ele><time>2026-04-12T15:57:37Z</time></rtept><rtept lat="37.500773" lon="-106.841636"><ele>3472.296875</ele><time>2026-04-12T15:57:37Z</time></rtept><rtept lat="37.500823" lon="-106.841538"><ele>3470.69921875</ele><time>2026-04-12T15:57:37Z</time></rtept><rtept lat="37.50096" lon="-106.841479"><ele>3469.3984375</ele><time>2026-04-12T15:57:37Z</time></rtept><rtept lat="37.501058" lon="-106.841475"><ele>3468.296875</ele><time>2026-04-12T15:57:37Z</time></rtept><rtept lat="37.501073" lon="-106.841432"><ele>3467.5</ele><time>2026-04-12T15:57:37Z</time></rtept><rtept lat="37.500997" lon="-106.841383"><ele>3467.59765625</ele><time>2026-04-12T15:57:37Z</time></rtept><rtept lat="37.500847" lon="-106.841294"><ele>3467.19921875</ele><time>2026-04-12T15:57:37Z</time></rtept><rtept lat="37.50074" lon="-106.841188"><ele>3466.09765625</ele><time>2026-04-12T15:57:37Z</time></rtept><rtept lat="37.500526" lon="-106.841149"><ele>3465.59765625</ele><time>2026-04-12T15:57:37Z</time></rtept><rtept lat="37.500265" lon="-106.841024"><ele>3463.8984375</ele><time>2026-04-12T15:57:37Z</time></rtept><rtept lat="37.500102" lon="-106.84103"><ele>3464.296875</ele><time>2026-04-12T15:57:37Z</time></rtept><rtept lat="37.500018" lon="-106.840984"><ele>3464.0</ele><time>2026-04-12T15:57:37Z</time></rtept><rtept lat="37.499895" lon="-106.840767"><ele>3462.3984375</ele><time>2026-04-12T15:57:37Z</time></rtept><rtept lat="37.49984" lon="-106.840635"><ele>3461.69921875</ele><time>2026-04-12T15:57:37Z</time></rtept><rtept lat="37.499842" lon="-106.840571"><ele>3461.19921875</ele><time>2026-04-12T15:57:37Z</time></rtept><rtept lat="37.499868" lon="-106.840472"><ele>3460.296875</ele><time>2026-04-12T15:57:37Z</time></rtept><rtept lat="37.49994" lon="-106.84018"><ele>3458.09765625</ele><time>2026-04-12T15:57:37Z</time></rtept><rtept lat="37.500027" lon="-106.839936"><ele>3456.5</ele><time>2026-04-12T15:57:37Z</time></rtept><rtept lat="37.500204" lon="-106.839461"><ele>3454.09765625</ele><time>2026-04-12T15:57:37Z</time></rtept><rtept lat="37.500321" lon="-106.839235"><ele>3452.3984375</ele><time>2026-04-12T15:57:37Z</time></rtept><rtept lat="37.500481" lon="-106.839048"><ele>3450.59765625</ele><time>2026-04-12T15:57:37Z</time></rtept><rtept lat="37.500591" lon="-106.838871"><ele>3449.59765625</ele><time>2026-04-12T15:57:37Z</time></rtept><rtept lat="37.500747" lon="-106.838501"><ele>3448.5</ele><time>2026-04-12T15:57:37Z</time></rtept><rtept lat="37.500817" lon="-106.83831"><ele>3448.19921875</ele><time>2026-04-12T15:57:37Z</time></rtept><rtept lat="37.500934" lon="-106.837806"><ele>3447.59765625</ele><time>2026-04-12T15:57:37Z</time></rtept><rtept lat="37.500993" lon="-106.837513"><ele>3447.59765625</ele><time>2026-04-12T15:57:37Z</time></rtept><rtept lat="37.500991" lon="-106.837331"><ele>3447.0</ele><time>2026-04-12T15:57:37Z</time></rtept><rtept lat="37.501004" lon="-106.837076"><ele>3445.796875</ele><time>2026-04-12T15:57:37Z</time></rtept><rtept lat="37.501008" lon="-106.836899"><ele>3444.3984375</ele><time>2026-04-12T15:57:37Z</time></rtept><rtept lat="37.501036" lon="-106.83643"><ele>3439.296875</ele><time>2026-04-12T15:57:37Z</time></rtept><rtept lat="37.50101" lon="-106.836162"><ele>3438.19921875</ele><time>2026-04-12T15:57:37Z</time></rtept><rtept lat="37.501018" lon="-106.835974"><ele>3435.09765625</ele><time>2026-04-12T15:57:37Z</time></rtept><rtept lat="37.50106" lon="-106.835797"><ele>3431.19921875</ele><time>2026-04-12T15:57:37Z</time></rtept><rtept lat="37.501072" lon="-106.835555"><ele>3427.0</ele><time>2026-04-12T15:57:37Z</time></rtept><rtept lat="37.500993" lon="-106.835234"><ele>3421.59765625</ele><time>2026-04-12T15:57:37Z</time></rtept><rtept lat="37.500895" lon="-106.835137"><ele>3420.296875</ele><time>2026-04-12T15:57:37Z</time></rtept><rtept lat="37.50078" lon="-106.835118"><ele>3420.296875</ele><time>2026-04-12T15:57:37Z</time></rtept><rtept lat="37.500549" lon="-106.835239"><ele>3421.69921875</ele><time>2026-04-12T15:57:37Z</time></rtept><rtept lat="37.500338" lon="-106.835287"><ele>3419.796875</ele><time>2026-04-12T15:57:37Z</time></rtept><rtept lat="37.500091" lon="-106.835376"><ele>3417.09765625</ele><time>2026-04-12T15:57:37Z</time></rtept><rtept lat="37.499917" lon="-106.835392"><ele>3414.69921875</ele><time>2026-04-12T15:57:37Z</time></rtept><rtept lat="37.499396" lon="-106.835336"><ele>3408.5</ele><time>2026-04-12T15:57:37Z</time></rtept><rtept lat="37.499245" lon="-106.835262"><ele>3406.296875</ele><time>2026-04-12T15:57:37Z</time></rtept><rtept lat="37.498839" lon="-106.835019"><ele>3402.3984375</ele><time>2026-04-12T15:57:37Z</time></rtept><rtept lat="37.498479" lon="-106.834791"><ele>3403.0</ele><time>2026-04-12T15:57:37Z</time></rtept><rtept lat="37.498336" lon="-106.83471"><ele>3403.0</ele><time>2026-04-12T15:57:37Z</time></rtept><rtept lat="37.498193" lon="-106.834466"><ele>3403.8984375</ele><time>2026-04-12T15:57:37Z</time></rtept><rtept lat="37.497925" lon="-106.83411"><ele>3406.0</ele><time>2026-04-12T15:57:37Z</time></rtept><rtept lat="37.497783" lon="-106.833992"><ele>3406.5</ele><time>2026-04-12T15:57:37Z</time></rtept><rtept lat="37.497646" lon="-106.833954"><ele>3407.0</ele><time>2026-04-12T15:57:37Z</time></rtept><rtept lat="37.497546" lon="-106.833965"><ele>3407.19921875</ele><time>2026-04-12T15:57:37Z</time></rtept><rtept lat="37.497482" lon="-106.833882"><ele>3407.59765625</ele><time>2026-04-12T15:57:37Z</time></rtept><rtept lat="37.497464" lon="-106.833715"><ele>3407.59765625</ele><time>2026-04-12T15:57:37Z</time></rtept><rtept lat="37.497386" lon="-106.83345"><ele>3407.8984375</ele><time>2026-04-12T15:57:37Z</time></rtept><rtept lat="37.49738" lon="-106.833259"><ele>3407.8984375</ele><time>2026-04-12T15:57:37Z</time></rtept><rtept lat="37.497362" lon="-106.832936"><ele>3407.59765625</ele><time>2026-04-12T15:57:37Z</time></rtept><rtept lat="37.497355" lon="-106.832812"><ele>3407.09765625</ele><time>2026-04-12T15:57:37Z</time></rtept><rtept lat="37.497307" lon="-106.832651"><ele>3406.69921875</ele><time>2026-04-12T15:57:37Z</time></rtept><rtept lat="37.497067" lon="-106.832294"><ele>3407.0</ele><time>2026-04-12T15:57:37Z</time></rtept><rtept lat="37.49689" lon="-106.832056"><ele>3406.3984375</ele><time>2026-04-12T15:57:37Z</time></rtept><rtept lat="37.496799" lon="-106.831935"><ele>3406.0</ele><time>2026-04-12T15:57:37Z</time></rtept><rtept lat="37.496416" lon="-106.83146"><ele>3405.3984375</ele><time>2026-04-12T15:57:37Z</time></rtept><rtept lat="37.496122" lon="-106.831109"><ele>3405.09765625</ele><time>2026-04-12T15:57:37Z</time></rtept><rtept lat="37.495846" lon="-106.830773"><ele>3405.8984375</ele><time>2026-04-12T15:57:37Z</time></rtept><rtept lat="37.495551" lon="-106.830481"><ele>3406.5</ele><time>2026-04-12T15:57:37Z</time></rtept><rtept lat="37.495369" lon="-106.830333"><ele>3407.3984375</ele><time>2026-04-12T15:57:37Z</time></rtept><rtept lat="37.495214" lon="-106.830277"><ele>3408.0</ele><time>2026-04-12T15:57:37Z</time></rtept><rtept lat="37.495098" lon="-106.830132"><ele>3410.09765625</ele><time>2026-04-12T15:57:37Z</time></rtept><rtept lat="37.495058" lon="-106.829987"><ele>3412.09765625</ele><time>2026-04-12T15:57:37Z</time></rtept><rtept lat="37.495039" lon="-106.829904"><ele>3412.796875</ele><time>2026-04-12T15:57:37Z</time></rtept><rtept lat="37.495035" lon="-106.8298"><ele>3413.69921875</ele><time>2026-04-12T15:57:37Z</time></rtept><rtept lat="37.495114" lon="-106.829708"><ele>3414.19921875</ele><time>2026-04-12T15:57:37Z</time></rtept><rtept lat="37.495275" lon="-106.829499"><ele>3415.5</ele><time>2026-04-12T15:57:37Z</time></rtept><rtept lat="37.495403" lon="-106.8294"><ele>3415.3984375</ele><time>2026-04-12T15:57:37Z</time></rtept><rtept lat="37.495425" lon="-106.829284"><ele>3416.19921875</ele><time>2026-04-12T15:57:37Z</time></rtept><rtept lat="37.495401" lon="-106.829159"><ele>3417.19921875</ele><time>2026-04-12T15:57:37Z</time></rtept><rtept lat="37.495376" lon="-106.82903"><ele>3418.69921875</ele><time>2026-04-12T15:57:37Z</time></rtept><rtept lat="37.495329" lon="-106.828898"><ele>3420.5</ele><time>2026-04-12T15:57:37Z</time></rtept><rtept lat="37.495252" lon="-106.828759"><ele>3423.09765625</ele><time>2026-04-12T15:57:37Z</time></rtept><rtept lat="37.495203" lon="-106.828579"><ele>3426.0</ele><time>2026-04-12T15:57:37Z</time></rtept><rtept lat="37.495207" lon="-106.828488"><ele>3427.19921875</ele><time>2026-04-12T15:57:37Z</time></rtept><rtept lat="37.495281" lon="-106.828407"><ele>3427.8984375</ele><time>2026-04-12T15:57:37Z</time></rtept><rtept lat="37.495466" lon="-106.828287"><ele>3428.19921875</ele><time>2026-04-12T15:57:37Z</time></rtept><rtept lat="37.495688" lon="-106.828102"><ele>3428.59765625</ele><time>2026-04-12T15:57:37Z</time></rtept><rtept lat="37.49578" lon="-106.827951"><ele>3429.796875</ele><time>2026-04-12T15:57:37Z</time></rtept><rtept lat="37.49585" lon="-106.827748"><ele>3431.796875</ele><time>2026-04-12T15:57:37Z</time></rtept><rtept lat="37.495837" lon="-106.827557"><ele>3434.8984375</ele><time>2026-04-12T15:57:37Z</time></rtept><rtept lat="37.495837" lon="-106.827318"><ele>3438.19921875</ele><time>2026-04-12T15:57:37Z</time></rtept><rtept lat="37.495874" lon="-106.827166"><ele>3439.69921875</ele><time>2026-04-12T15:57:37Z</time></rtept><rtept lat="37.495846" lon="-106.826804"><ele>3444.296875</ele><time>2026-04-12T15:57:37Z</time></rtept><rtept lat="37.495861" lon="-106.826398"><ele>3447.5</ele><time>2026-04-12T15:57:37Z</time></rtept><rtept lat="37.495882" lon="-106.826286"><ele>3448.3984375</ele><time>2026-04-12T15:57:37Z</time></rtept><rtept lat="37.495848" lon="-106.826157"><ele>3450.19921875</ele><time>2026-04-12T15:57:37Z</time></rtept><rtept lat="37.495833" lon="-106.825736"><ele>3454.09765625</ele><time>2026-04-12T15:57:37Z</time></rtept><rtept lat="37.495845" lon="-106.825609"><ele>3455.19921875</ele><time>2026-04-12T15:57:37Z</time></rtept><rtept lat="37.495861" lon="-106.82543"><ele>3457.0</ele><time>2026-04-12T15:57:37Z</time></rtept><rtept lat="37.49585" lon="-106.824808"><ele>3463.09765625</ele><time>2026-04-12T15:57:37Z</time></rtept><rtept lat="37.495867" lon="-106.824255"><ele>3468.09765625</ele><time>2026-04-12T15:57:37Z</time></rtept><rtept lat="37.495846" lon="-106.823923"><ele>3471.69921875</ele><time>2026-04-12T15:57:37Z</time></rtept><rtept lat="37.495812" lon="-106.823748"><ele>3473.0</ele><time>2026-04-12T15:57:37Z</time></rtept><rtept lat="37.495728" lon="-106.823612"><ele>3474.0</ele><time>2026-04-12T15:57:37Z</time></rtept><rtept lat="37.495601" lon="-106.823402"><ele>3475.69921875</ele><time>2026-04-12T15:57:37Z</time></rtept><rtept lat="37.495459" lon="-106.82315"><ele>3475.8984375</ele><time>2026-04-12T15:57:37Z</time></rtept><rtept lat="37.495417" lon="-106.823049"><ele>3475.09765625</ele><time>2026-04-12T15:57:37Z</time></rtept><rtept lat="37.495295" lon="-106.822748"><ele>3473.69921875</ele><time>2026-04-12T15:57:37Z</time></rtept><rtept lat="37.495229" lon="-106.822488"><ele>3471.59765625</ele><time>2026-04-12T15:57:37Z</time></rtept><rtept lat="37.495232" lon="-106.822324"><ele>3470.59765625</ele><time>2026-04-12T15:57:37Z</time></rtept><rtept lat="37.495273" lon="-106.822238"><ele>3470.8984375</ele><time>2026-04-12T15:57:37Z</time></rtept><rtept lat="37.495318" lon="-106.821992"><ele>3469.8984375</ele><time>2026-04-12T15:57:37Z</time></rtept><rtept lat="37.495371" lon="-106.821839"><ele>3469.8984375</ele><time>2026-04-12T15:57:37Z</time></rtept><rtept lat="37.495459" lon="-106.821426"><ele>3470.19921875</ele><time>2026-04-12T15:57:37Z</time></rtept><rtept lat="37.495486" lon="-106.821275"><ele>3470.09765625</ele><time>2026-04-12T15:57:37Z</time></rtept><rtept lat="37.49552" lon="-106.821115"><ele>3469.8984375</ele><time>2026-04-12T15:57:37Z</time></rtept><rtept lat="37.495572" lon="-106.820905"><ele>3469.59765625</ele><time>2026-04-12T15:57:37Z</time></rtept><rtept lat="37.495631" lon="-106.820621"><ele>3469.69921875</ele><time>2026-04-12T15:57:37Z</time></rtept><rtept lat="37.495723" lon="-106.820382"><ele>3472.19921875</ele><time>2026-04-12T15:57:37Z</time></rtept><rtept lat="37.495701" lon="-106.820235"><ele>3470.69921875</ele><time>2026-04-12T15:57:37Z</time></rtept><rtept lat="37.495613" lon="-106.820044"><ele>3470.0</ele><time>2026-04-12T15:57:37Z</time></rtept><rtept lat="37.495459" lon="-106.819795"><ele>3472.5</ele><time>2026-04-12T15:57:37Z</time></rtept><rtept lat="37.495124" lon="-106.819537"><ele>3466.19921875</ele><time>2026-04-12T15:57:37Z</time></rtept><rtept lat="37.495027" lon="-106.819451"><ele>3463.59765625</ele><time>2026-04-12T15:57:37Z</time></rtept><rtept lat="37.494958" lon="-106.819237"><ele>3458.5</ele><time>2026-04-12T15:57:37Z</time></rtept><rtept lat="37.49488" lon="-106.819052"><ele>3449.796875</ele><time>2026-04-12T15:57:37Z</time></rtept><rtept lat="37.494863" lon="-106.818947"><ele>3445.69921875</ele><time>2026-04-12T15:57:37Z</time></rtept><rtept lat="37.4949" lon="-106.818749"><ele>3443.09765625</ele><time>2026-04-12T15:57:37Z</time></rtept><rtept lat="37.495043" lon="-106.818532"><ele>3444.296875</ele><time>2026-04-12T15:57:37Z</time></rtept><rtept lat="37.495115" lon="-106.818483"><ele>3446.3984375</ele><time>2026-04-12T15:57:37Z</time></rtept><rtept lat="37.495168" lon="-106.818502"><ele>3449.296875</ele><time>2026-04-12T15:57:37Z</time></rtept><rtept lat="37.49528" lon="-106.81844"><ele>3451.5</ele><time>2026-04-12T15:57:37Z</time></rtept><rtept lat="37.495719" lon="-106.818419"><ele>3464.296875</ele><time>2026-04-12T15:57:37Z</time></rtept><rtept lat="37.495914" lon="-106.818395"><ele>3465.3984375</ele><time>2026-04-12T15:57:37Z</time></rtept><rtept lat="37.496021" lon="-106.818419"><ele>3469.09765625</ele><time>2026-04-12T15:57:37Z</time></rtept><rtept lat="37.496065" lon="-106.818365"><ele>3469.19921875</ele><time>2026-04-12T15:57:37Z</time></rtept><rtept lat="37.496149" lon="-106.818306"><ele>3470.3984375</ele><time>2026-04-12T15:57:37Z</time></rtept><rtept lat="37.496208" lon="-106.818159"><ele>3467.796875</ele><time>2026-04-12T15:57:37Z</time></rtept><rtept lat="37.496234" lon="-106.818057"><ele>3465.19921875</ele><time>2026-04-12T15:57:37Z</time></rtept><rtept lat="37.496186" lon="-106.817936"><ele>3460.19921875</ele><time>2026-04-12T15:57:37Z</time></rtept><rtept lat="37.496314" lon="-106.817821"><ele>3463.3984375</ele><time>2026-04-12T15:57:37Z</time></rtept><rtept lat="37.496523" lon="-106.81759"><ele>3468.8984375</ele><time>2026-04-12T15:57:37Z</time></rtept><rtept lat="37.496678" lon="-106.817402"><ele>3474.296875</ele><time>2026-04-12T15:57:37Z</time></rtept><rtept lat="37.496809" lon="-106.81722"><ele>3478.296875</ele><time>2026-04-12T15:57:37Z</time></rtept><rtept lat="37.496872" lon="-106.81704"><ele>3479.19921875</ele><time>2026-04-12T15:57:37Z</time></rtept><rtept lat="37.496872" lon="-106.816887"><ele>3476.296875</ele><time>2026-04-12T15:57:37Z</time></rtept><rtept lat="37.496908" lon="-106.816788"><ele>3476.8984375</ele><time>2026-04-12T15:57:37Z</time></rtept><rtept lat="37.497023" lon="-106.816678"><ele>3481.3984375</ele><time>2026-04-12T15:57:37Z</time></rtept><rtept lat="37.49704" lon="-106.816469"><ele>3477.69921875</ele><time>2026-04-12T15:57:37Z</time></rtept><rtept lat="37.497167" lon="-106.816367"><ele>3483.296875</ele><time>2026-04-12T15:57:37Z</time></rtept><rtept lat="37.497321" lon="-106.816265"><ele>3490.19921875</ele><time>2026-04-12T15:57:37Z</time></rtept><rtept lat="37.497401" lon="-106.816217"><ele>3493.19921875</ele><time>2026-04-12T15:57:37Z</time></rtept><rtept lat="37.497465" lon="-106.81604"><ele>3493.8984375</ele><time>2026-04-12T15:57:37Z</time></rtept><rtept lat="37.49757" lon="-106.815798"><ele>3498.5</ele><time>2026-04-12T15:57:37Z</time></rtept><rtept lat="37.497661" lon="-106.815487"><ele>3506.09765625</ele><time>2026-04-12T15:57:37Z</time></rtept><rtept lat="37.49766" lon="-106.815187"><ele>3510.69921875</ele><time>2026-04-12T15:57:37Z</time></rtept><rtept lat="37.497584" lon="-106.814913"><ele>3512.59765625</ele><time>2026-04-12T15:57:37Z</time></rtept><rtept lat="37.497453" lon="-106.814645"><ele>3516.0</ele><time>2026-04-12T15:57:37Z</time></rtept><rtept lat="37.497308" lon="-106.814452"><ele>3519.69921875</ele><time>2026-04-12T15:57:37Z</time></rtept><rtept lat="37.496908" lon="-106.814157"><ele>3519.69921875</ele><time>2026-04-12T15:57:37Z</time></rtept><rtept lat="37.496495" lon="-106.813878"><ele>3522.8984375</ele><time>2026-04-12T15:57:37Z</time></rtept><rtept lat="37.496286" lon="-106.813728"><ele>3523.796875</ele><time>2026-04-12T15:57:37Z</time></rtept><rtept lat="37.496231" lon="-106.813572"><ele>3525.296875</ele><time>2026-04-12T15:57:37Z</time></rtept><rtept lat="37.496234" lon="-106.81347"><ele>3526.0</ele><time>2026-04-12T15:57:37Z</time></rtept><rtept lat="37.496308" lon="-106.813342"><ele>3531.3984375</ele><time>2026-04-12T15:57:37Z</time></rtept><rtept lat="37.496342" lon="-106.813272"><ele>3533.59765625</ele><time>2026-04-12T15:57:37Z</time></rtept><rtept lat="37.496325" lon="-106.813063"><ele>3534.19921875</ele><time>2026-04-12T15:57:37Z</time></rtept><rtept lat="37.496337" lon="-106.81288"><ele>3535.8984375</ele><time>2026-04-12T15:57:37Z</time></rtept><rtept lat="37.496316" lon="-106.812526"><ele>3538.59765625</ele><time>2026-04-12T15:57:37Z</time></rtept><rtept lat="37.496328" lon="-106.812263"><ele>3543.69921875</ele><time>2026-04-12T15:57:37Z</time></rtept><rtept lat="37.496269" lon="-106.812033"><ele>3546.3984375</ele><time>2026-04-12T15:57:37Z</time></rtept><rtept lat="37.496099" lon="-106.811722"><ele>3549.5</ele><time>2026-04-12T15:57:37Z</time></rtept><rtept lat="37.495852" lon="-106.81141"><ele>3552.19921875</ele><time>2026-04-12T15:57:37Z</time></rtept><rtept lat="37.495678" lon="-106.811185"><ele>3553.0</ele><time>2026-04-12T15:57:37Z</time></rtept><rtept lat="37.495528" lon="-106.810945"><ele>3552.5</ele><time>2026-04-12T15:57:37Z</time></rtept><rtept lat="37.495489" lon="-106.810799"><ele>3551.59765625</ele><time>2026-04-12T15:57:37Z</time></rtept><rtept lat="37.495459" lon="-106.81067"><ele>3550.3984375</ele><time>2026-04-12T15:57:37Z</time></rtept><rtept lat="37.495303" lon="-106.810166"><ele>3547.3984375</ele><time>2026-04-12T15:57:37Z</time></rtept><rtept lat="37.495069" lon="-106.809415"><ele>3541.796875</ele><time>2026-04-12T15:57:37Z</time></rtept><rtept lat="37.494954" lon="-106.808905"><ele>3539.5</ele><time>2026-04-12T15:57:37Z</time></rtept><rtept lat="37.4948" lon="-106.808202"><ele>3535.0</ele><time>2026-04-12T15:57:37Z</time></rtept><rtept lat="37.494632" lon="-106.807803"><ele>3537.0</ele><time>2026-04-12T15:57:37Z</time></rtept><rtept lat="37.494328" lon="-106.807756"><ele>3540.796875</ele><time>2026-04-12T15:57:37Z</time></rtept><rtept lat="37.49415" lon="-106.807767"><ele>3538.796875</ele><time>2026-04-12T15:57:37Z</time></rtept><rtept lat="37.494049" lon="-106.807619"><ele>3538.296875</ele><time>2026-04-12T15:57:37Z</time></rtept><rtept lat="37.493809" lon="-106.807474"><ele>3535.69921875</ele><time>2026-04-12T15:57:37Z</time></rtept><rtept lat="37.493645" lon="-106.807488"><ele>3533.59765625</ele><time>2026-04-12T15:57:37Z</time></rtept><rtept lat="37.49353" lon="-106.807426"><ele>3532.59765625</ele><time>2026-04-12T15:57:37Z</time></rtept><rtept lat="37.493361" lon="-106.807484"><ele>3530.59765625</ele><time>2026-04-12T15:57:37Z</time></rtept><rtept lat="37.492992" lon="-106.807285"><ele>3531.296875</ele><time>2026-04-12T15:57:37Z</time></rtept><rtept lat="37.492559" lon="-106.807182"><ele>3526.09765625</ele><time>2026-04-12T15:57:37Z</time></rtept><rtept lat="37.492355" lon="-106.806867"><ele>3530.09765625</ele><time>2026-04-12T15:57:37Z</time></rtept><rtept lat="37.492061" lon="-106.806772"><ele>3530.09765625</ele><time>2026-04-12T15:57:37Z</time></rtept><rtept lat="37.491822" lon="-106.806632"><ele>3533.3984375</ele><time>2026-04-12T15:57:37Z</time></rtept><rtept lat="37.49154" lon="-106.806455"><ele>3538.5</ele><time>2026-04-12T15:57:37Z</time></rtept><rtept lat="37.491346" lon="-106.806404"><ele>3539.8984375</ele><time>2026-04-12T15:57:37Z</time></rtept><rtept lat="37.49122" lon="-106.806507"><ele>3539.796875</ele><time>2026-04-12T15:57:37Z</time></rtept><rtept lat="37.491131" lon="-106.806488"><ele>3539.0</ele><time>2026-04-12T15:57:37Z</time></rtept><rtept lat="37.491055" lon="-106.806332"><ele>3537.8984375</ele><time>2026-04-12T15:57:37Z</time></rtept><rtept lat="37.490987" lon="-106.806021"><ele>3535.3984375</ele><time>2026-04-12T15:57:37Z</time></rtept><rtept lat="37.490993" lon="-106.805609"><ele>3531.09765625</ele><time>2026-04-12T15:57:37Z</time></rtept><rtept lat="37.490991" lon="-106.805481"><ele>3529.19921875</ele><time>2026-04-12T15:57:37Z</time></rtept><rtept lat="37.491051" lon="-106.805313"><ele>3528.296875</ele><time>2026-04-12T15:57:37Z</time></rtept><rtept lat="37.491059" lon="-106.805192"><ele>3527.796875</ele><time>2026-04-12T15:57:37Z</time></rtept><rtept lat="37.490993" lon="-106.805168"><ele>3524.8984375</ele><time>2026-04-12T15:57:37Z</time></rtept><rtept lat="37.490715" lon="-106.805375"><ele>3519.19921875</ele><time>2026-04-12T15:57:37Z</time></rtept><rtept lat="37.490667" lon="-106.80531"><ele>3516.69921875</ele><time>2026-04-12T15:57:37Z</time></rtept><rtept lat="37.49065" lon="-106.805188"><ele>3514.59765625</ele><time>2026-04-12T15:57:37Z</time></rtept><rtept lat="37.490687" lon="-106.804984"><ele>3513.8984375</ele><time>2026-04-12T15:57:37Z</time></rtept><rtept lat="37.490634" lon="-106.804835"><ele>3512.5</ele><time>2026-04-12T15:57:37Z</time></rtept><rtept lat="37.490514" lon="-106.804622"><ele>3509.0</ele><time>2026-04-12T15:57:37Z</time></rtept><rtept lat="37.490318" lon="-106.804285"><ele>3503.09765625</ele><time>2026-04-12T15:57:37Z</time></rtept><rtept lat="37.490243" lon="-106.804045"><ele>3500.59765625</ele><time>2026-04-12T15:57:37Z</time></rtept><rtept lat="37.490186" lon="-106.803883"><ele>3498.796875</ele><time>2026-04-12T15:57:37Z</time></rtept><rtept lat="37.490154" lon="-106.803771"><ele>3496.8984375</ele><time>2026-04-12T15:57:37Z</time></rtept><rtept lat="37.490111" lon="-106.803746"><ele>3495.796875</ele><time>2026-04-12T15:57:37Z</time></rtept><rtept lat="37.490101" lon="-106.803819"><ele>3495.69921875</ele><time>2026-04-12T15:57:37Z</time></rtept><rtept lat="37.490104" lon="-106.803945"><ele>3495.796875</ele><time>2026-04-12T15:57:37Z</time></rtept><rtept lat="37.490076" lon="-106.804146"><ele>3495.09765625</ele><time>2026-04-12T15:57:37Z</time></rtept><rtept lat="37.490054" lon="-106.804332"><ele>3493.5</ele><time>2026-04-12T15:57:37Z</time></rtept><rtept lat="37.490002" lon="-106.804294"><ele>3492.09765625</ele><time>2026-04-12T15:57:37Z</time></rtept><rtept lat="37.48995" lon="-106.804166"><ele>3490.8984375</ele><time>2026-04-12T15:57:37Z</time></rtept><rtept lat="37.489855" lon="-106.804026"><ele>3488.5</ele><time>2026-04-12T15:57:37Z</time></rtept><rtept lat="37.489724" lon="-106.803895"><ele>3485.3984375</ele><time>2026-04-12T15:57:37Z</time></rtept><rtept lat="37.489694" lon="-106.803768"><ele>3485.8984375</ele><time>2026-04-12T15:57:37Z</time></rtept><rtept lat="37.489689" lon="-106.80359"><ele>3487.796875</ele><time>2026-04-12T15:57:37Z</time></rtept><rtept lat="37.48953" lon="-106.803647"><ele>3484.69921875</ele><time>2026-04-12T15:57:37Z</time></rtept><rtept lat="37.489284" lon="-106.80373"><ele>3480.19921875</ele><time>2026-04-12T15:57:37Z</time></rtept><rtept lat="37.488945" lon="-106.803657"><ele>3479.5</ele><time>2026-04-12T15:57:37Z</time></rtept><rtept lat="37.488724" lon="-106.803754"><ele>3476.09765625</ele><time>2026-04-12T15:57:37Z</time></rtept><rtept lat="37.488596" lon="-106.803874"><ele>3473.8984375</ele><time>2026-04-12T15:57:37Z</time></rtept><rtept lat="37.488382" lon="-106.80405"><ele>3469.5</ele><time>2026-04-12T15:57:37Z</time></rtept><rtept lat="37.488129" lon="-106.804209"><ele>3467.0</ele><time>2026-04-12T15:57:37Z</time></rtept><rtept lat="37.487845" lon="-106.804316"><ele>3465.0</ele><time>2026-04-12T15:57:37Z</time></rtept><rtept lat="37.487602" lon="-106.804408"><ele>3462.0</ele><time>2026-04-12T15:57:37Z</time></rtept><rtept lat="37.487427" lon="-106.804464"><ele>3457.8984375</ele><time>2026-04-12T15:57:37Z</time></rtept><rtept lat="37.487293" lon="-106.804446"><ele>3455.59765625</ele><time>2026-04-12T15:57:37Z</time></rtept><rtept lat="37.487065" lon="-106.804288"><ele>3452.09765625</ele><time>2026-04-12T15:57:37Z</time></rtept><rtept lat="37.486937" lon="-106.804179"><ele>3447.796875</ele><time>2026-04-12T15:57:37Z</time></rtept><rtept lat="37.486945" lon="-106.804271"><ele>3448.0</ele><time>2026-04-12T15:57:37Z</time></rtept><rtept lat="37.48696" lon="-106.804532"><ele>3446.296875</ele><time>2026-04-12T15:57:37Z</time></rtept><rtept lat="37.487006" lon="-106.804738"><ele>3443.5</ele><time>2026-04-12T15:57:37Z</time></rtept><rtept lat="37.487129" lon="-106.804879"><ele>3443.19921875</ele><time>2026-04-12T15:57:37Z</time></rtept><rtept lat="37.487099" lon="-106.804924"><ele>3441.8984375</ele><time>2026-04-12T15:57:37Z</time></rtept><rtept lat="37.486952" lon="-106.804845"><ele>3439.3984375</ele><time>2026-04-12T15:57:37Z</time></rtept><rtept lat="37.486802" lon="-106.804721"><ele>3437.796875</ele><time>2026-04-12T15:57:37Z</time></rtept><rtept lat="37.486605" lon="-106.804504"><ele>3433.8984375</ele><time>2026-04-12T15:57:37Z</time></rtept><rtept lat="37.486534" lon="-106.804408"><ele>3432.19921875</ele><time>2026-04-12T15:57:37Z</time></rtept><rtept lat="37.486233" lon="-106.804225"><ele>3423.0</ele><time>2026-04-12T15:57:37Z</time></rtept><rtept lat="37.485972" lon="-106.804199"><ele>3415.69921875</ele><time>2026-04-12T15:57:37Z</time></rtept><rtept lat="37.485966" lon="-106.804115"><ele>3414.8984375</ele><time>2026-04-12T15:57:37Z</time></rtept><rtept lat="37.486038" lon="-106.803997"><ele>3414.5</ele><time>2026-04-12T15:57:37Z</time></rtept><rtept lat="37.486154" lon="-106.803912"><ele>3416.19921875</ele><time>2026-04-12T15:57:37Z</time></rtept><rtept lat="37.48631" lon="-106.803809"><ele>3420.59765625</ele><time>2026-04-12T15:57:37Z</time></rtept><rtept lat="37.486329" lon="-106.803588"><ele>3420.59765625</ele><time>2026-04-12T15:57:37Z</time></rtept><rtept lat="37.486274" lon="-106.803447"><ele>3419.0</ele><time>2026-04-12T15:57:37Z</time></rtept><rtept lat="37.486113" lon="-106.803403"><ele>3411.0</ele><time>2026-04-12T15:57:37Z</time></rtept><rtept lat="37.485993" lon="-106.803272"><ele>3405.19921875</ele><time>2026-04-12T15:57:37Z</time></rtept><rtept lat="37.485813" lon="-106.8029"><ele>3395.69921875</ele><time>2026-04-12T15:57:37Z</time></rtept><rtept lat="37.485818" lon="-106.802766"><ele>3395.69921875</ele><time>2026-04-12T15:57:37Z</time></rtept><rtept lat="37.485799" lon="-106.802624"><ele>3393.59765625</ele><time>2026-04-12T15:57:37Z</time></rtept><rtept lat="37.485765" lon="-106.802396"><ele>3390.3984375</ele><time>2026-04-12T15:57:37Z</time></rtept><rtept lat="37.485854" lon="-106.802127"><ele>3391.69921875</ele><time>2026-04-12T15:57:37Z</time></rtept><rtept lat="37.485759" lon="-106.801809"><ele>3384.296875</ele><time>2026-04-12T15:57:37Z</time></rtept><rtept lat="37.485752" lon="-106.801452"><ele>3378.296875</ele><time>2026-04-12T15:57:37Z</time></rtept><rtept lat="37.485892" lon="-106.801015"><ele>3375.59765625</ele><time>2026-04-12T15:57:37Z</time></rtept><rtept lat="37.485957" lon="-106.800884"><ele>3374.796875</ele><time>2026-04-12T15:57:37Z</time></rtept><rtept lat="37.485995" lon="-106.800694"><ele>3371.19921875</ele><time>2026-04-12T15:57:37Z</time></rtept><rtept lat="37.485999" lon="-106.800577"><ele>3368.3984375</ele><time>2026-04-12T15:57:37Z</time></rtept><rtept lat="37.485952" lon="-106.800477"><ele>3364.69921875</ele><time>2026-04-12T15:57:37Z</time></rtept><rtept lat="37.485789" lon="-106.800539"><ele>3361.3984375</ele><time>2026-04-12T15:57:37Z</time></rtept><rtept lat="37.485628" lon="-106.800694"><ele>3360.19921875</ele><time>2026-04-12T15:57:37Z</time></rtept><rtept lat="37.485357" lon="-106.800901"><ele>3356.09765625</ele><time>2026-04-12T15:57:37Z</time></rtept><rtept lat="37.485078" lon="-106.801296"><ele>3352.19921875</ele><time>2026-04-12T15:57:37Z</time></rtept><rtept lat="37.484862" lon="-106.801385"><ele>3346.0</ele><time>2026-04-12T15:57:37Z</time></rtept><rtept lat="37.484718" lon="-106.801524"><ele>3343.09765625</ele><time>2026-04-12T15:57:37Z</time></rtept><rtept lat="37.484659" lon="-106.80161"><ele>3341.8984375</ele><time>2026-04-12T15:57:37Z</time></rtept><rtept lat="37.484543" lon="-106.801666"><ele>3339.09765625</ele><time>2026-04-12T15:57:37Z</time></rtept><rtept lat="37.484292" lon="-106.801517"><ele>3333.69921875</ele><time>2026-04-12T15:57:37Z</time></rtept><rtept lat="37.484348" lon="-106.801308"><ele>3334.5</ele><time>2026-04-12T15:57:37Z</time></rtept><rtept lat="37.48421" lon="-106.800803"><ele>3329.296875</ele><time>2026-04-12T15:57:37Z</time></rtept><rtept lat="37.484153" lon="-106.800582"><ele>3326.3984375</ele><time>2026-04-12T15:57:37Z</time></rtept><rtept lat="37.483994" lon="-106.800298"><ele>3321.0</ele><time>2026-04-12T15:57:37Z</time></rtept><rtept lat="37.483904" lon="-106.800075"><ele>3318.296875</ele><time>2026-04-12T15:57:37Z</time></rtept><rtept lat="37.483849" lon="-106.800012"><ele>3317.3984375</ele><time>2026-04-12T15:57:37Z</time></rtept><rtept lat="37.483792" lon="-106.800075"><ele>3317.796875</ele><time>2026-04-12T15:57:37Z</time></rtept><rtept lat="37.483681" lon="-106.800201"><ele>3317.3984375</ele><time>2026-04-12T15:57:37Z</time></rtept><rtept lat="37.483366" lon="-106.800484"><ele>3312.69921875</ele><time>2026-04-12T15:57:37Z</time></rtept><rtept lat="37.483362" lon="-106.800786"><ele>3312.8984375</ele><time>2026-04-12T15:57:37Z</time></rtept><rtept lat="37.483432" lon="-106.8011"><ele>3314.69921875</ele><time>2026-04-12T15:57:37Z</time></rtept><rtept lat="37.483418" lon="-106.801276"><ele>3314.3984375</ele><time>2026-04-12T15:57:37Z</time></rtept><rtept lat="37.48348" lon="-106.80174"><ele>3314.8984375</ele><time>2026-04-12T15:57:37Z</time></rtept><rtept lat="37.483263" lon="-106.801848"><ele>3310.796875</ele><time>2026-04-12T15:57:37Z</time></rtept><rtept lat="37.483169" lon="-106.801984"><ele>3309.8984375</ele><time>2026-04-12T15:57:37Z</time></rtept><rtept lat="37.483172" lon="-106.801586"><ele>3308.5</ele><time>2026-04-12T15:57:37Z</time></rtept></rte></gpx>